X,Y,OBJECTID,TYPE,PARK_NAME,REC_AREA,OWNERSHIP,CLASSIFICATION,LONGITUDE,LATITUDE
599378.458100000396371,4783851.6809,33,Soccer,,Upper Stoney Creek,City,,-79.77677039250936,43.20090565407602
597692.791299999691546,4783855.0851,34,Baseball,,Upper Stoney Creek,City,,-79.79751380778217,43.20115624514771
597699.599799999967,4783806.8584,35,Baseball,,Upper Stoney Creek,City,,-79.79743854974791,43.2007211892361
597787.826399999670684,4783876.6453,36,Basketball,,Upper Stoney Creek,School,,-79.79634047183929,43.20133804684551
597906.691100000403821,4783148.9888,37,Baseball,,Upper Stoney Creek,City,,-79.79500662910819,43.19477171211624
597815.911399999633431,4783011.684399999678,38,Baseball,,Upper Stoney Creek,City,,-79.79614796699695,43.193547350370544
597982.719200000166893,4783053.1026,39,Tennis,,Upper Stoney Creek,City,,-79.79408811167666,43.19389861148548
597998.605700000189245,4783053.1026,40,Tennis,,Upper Stoney Creek,City,,-79.79389263323796,43.19389655061476
598012.79,4783052.535299999639,41,Tennis,,Upper Stoney Creek,City,,-79.79371819955539,43.19388960232758
598027.541699999943,4783051.9679,42,Tennis,,Upper Stoney Creek,City,,-79.79353678454841,43.19388258014488
588311.256,4786007.1446,43,Baseball,,Hamilton Mountain,City,,-79.9126240875618,43.221686905314805
588241.530899999663234,4785947.689799999818,44,Baseball,,Hamilton Mountain,City,,-79.91349196723753,43.22115978260763
588250.782100000418723,4786088.1403,45,Soccer,,Hamilton Mountain,Other,,-79.91335561837526,43.22242319333877
588353.621500000357628,4786109.8706,46,Soccer,,Hamilton Mountain,Other,,-79.91208608713313,43.222606800102355
588332.030899999663234,4786055.18229999952,47,Soccer,,Hamilton Mountain,Other,,-79.9123606424717,43.2221169621082
588406.360600000247359,4786021.4984,48,Basketball,,Hamilton Mountain,School,,-79.91145097270719,43.221804998043
593380.956399999558926,4785322.0009,49,Tennis,,Hamilton Mountain,City,,-79.85032879765168,43.2149082986929
593399.830900000408292,4785318.3925,50,Basketball,,Hamilton Mountain,City,,-79.85009707831362,43.214873477603085
594349.325899999588728,4785514.968499999493,51,Baseball,,Hamilton Mountain,City,,-79.83837600746544,43.21652514502926
594415.505699999630451,4785478.1864,52,Baseball,,Hamilton Mountain,City,,-79.83756766119149,43.216185724466094
594345.948699999600649,4785428.5283,53,Baseball,,Hamilton Mountain,City,,-79.83843235180275,43.215747355270096
594266.624699999578297,4785426.1837,54,Baseball,,Hamilton Mountain,School,,-79.83940917668315,43.21573615775835
594124.60869999975,4785299.976199999452,55,Baseball,,Hamilton Mountain,School,,-79.84117881504645,43.21461764720998
594245.196999999694526,4785510.751,56,Soccer,,Hamilton Mountain,City,,-79.83965849967136,43.21650018439904
594140.230200000107288,4785243.7805,57,Soccer,,Hamilton Mountain,School,,-79.84099611083371,43.214109774208445
595008.285199999809265,4784910.716299999505,58,Basketball,,Hamilton Mountain,City,,-79.83036856849701,43.21100247976129
595137.561599999666214,4784945.9581,59,Baseball,,Hamilton Mountain,School,,-79.8287713224549,43.21130347609861
594930.587899999693036,4784893.394099999219,60,Soccer,,Hamilton Mountain,City,,-79.83132787036126,43.2108563040184
595861.2006,4784735.94899999909,61,Soccer,,Hamilton Mountain,City,,-79.81990097996632,43.209321254179706
595816.789499999955,4784660.281099999323,62,Soccer,,Hamilton Mountain,City,,-79.82046071846247,43.20864566498517
595771.596800000406802,4784580.1238,63,Soccer,,Hamilton Mountain,City,,-79.82103084137276,43.20792975521293
595580.755599999800324,4784661.520099999383,64,Soccer,,Hamilton Mountain,City,,-79.82336556483676,43.208686738271716
588729.190100000239909,4786745.3758,129,Baseball,,Hamilton Mountain,Other,,-79.90736027124446,43.228284246018276
588774.980100000277162,4786770.147399999201,130,Baseball,,Hamilton Mountain,Other,,-79.90679251409036,43.22850188025118
588762.969600000418723,4786734.866599999368,131,Baseball,,Hamilton Mountain,City,,-79.90694606542267,43.22818565769619
588629.658200000412762,4786687.4831,132,Baseball,,Hamilton Mountain,City,,-79.90859502203588,43.22777473143896
588727.341199999675155,4786640.5711,133,Baseball,,Hamilton Mountain,City,,-79.90739989133495,43.227340896790615
589671.27170000039041,4786328.035099999979,134,Soccer,,Hamilton Mountain,City,,-79.89582910622678,43.224415520727334
589757.192300000227988,4786299.737099999562,135,Soccer,,Hamilton Mountain,City,,-79.89477591506744,43.224150536460144
592384.913099999539554,4786538.685699999332,136,Football,,Hamilton Mountain,City,,-79.862385665566,43.225984636731326
592380.14670000039041,4786523.095599999651,137,Soccer,,Hamilton Mountain,City,,-79.86244695693182,43.225844863159786
592464.749900000169873,4786767.9579,138,Soccer,,Hamilton Mountain,City,,-79.86136433215675,43.228038983354566
592498.786199999973,4786757.146099999547,139,Soccer,,Hamilton Mountain,City,,-79.8609470939714,43.22793747289275
592538.730899999849498,4786745.7456,140,Soccer,,Hamilton Mountain,City,,-79.86045721322603,43.227829936252995
592519.232699999585748,4786685.9527,141,Soccer,,Hamilton Mountain,City,,-79.86070729859787,43.227294015490116
592482.144100000150502,4786696.0742,142,Soccer,,Hamilton Mountain,City,,-79.86116222681366,43.22738968549935
592444.426599999889731,4786706.7938,143,Soccer,,Hamilton Mountain,City,,-79.86162479915232,43.22749081600939
592390.967699999921,4786743.026399999857,144,Tennis,,Hamilton Mountain,School,,-79.86227690632295,43.227823564798044
592375.635200000368059,4786747.3081,145,Tennis,,Hamilton Mountain,School,,-79.86246495967086,43.22786399014318
592365.1946,4786713.158299999312,146,Tennis,,Hamilton Mountain,School,,-79.86259922050432,43.22755781945933
592381.155899999663234,4786708.2784,147,Tennis,,Hamilton Mountain,School,,-79.86240352526099,43.227511932098516
590390.975499999709427,4784570.4911,148,Baseball,,Hamilton Mountain,City,,-79.88725642371168,43.208506398094784
590445.576399999670684,4784518.0797,149,Baseball,,Hamilton Mountain,City,,-79.88659297562563,43.208027995743016
588741.411100000143051,4785191.709699999541,150,Soccer,,Hamilton Mountain,Other,,-79.90745962950619,43.214294996215386
588873.7308,4785149.22599999979,151,Soccer,,Hamilton Mountain,Other,,-79.90583770364894,43.21389694341337
587789.771499999798834,4784949.3166,152,Soccer,,Hamilton Mountain,City,,-79.91921223185987,43.212223975722445
587918.925599999725819,4784905.7714,153,Soccer,,Hamilton Mountain,City,,-79.91762941697522,43.21181690043474
587968.816499999724329,4785060.991699999198,154,Soccer,,Hamilton Mountain,School,,-79.91699058633057,43.21320855869136
588058.742200000211596,4785059.0697,155,Soccer,,Hamilton Mountain,School,,-79.91588398617955,43.21318076943388
588249.54079999961,4786127.8911,156,Baseball,,Hamilton Mountain,Other,,-79.91336454340697,43.22278121927045
592184.186300000175834,4783687.492599999532,157,Soccer,,Hamilton Mountain,School,,-79.86533295582184,43.200339940883985
592062.668499999679625,4783485.276499999687,158,Soccer,,Hamilton Mountain,City,,-79.86686208982748,43.19853421059932
592118.385700000450015,4783466.469,159,Soccer,,Hamilton Mountain,City,,-79.86617957063073,43.19835809200261
592204.223399999551475,4783451.455299999565,160,Soccer,,Hamilton Mountain,City,,-79.8651257629034,43.19821244964739
595605.856300000101328,4784822.8811,65,Baseball,,Hamilton Mountain,City,,-79.82302869374084,43.210136270075644
595712.801099999807775,4784971.6315,66,Baseball,,Hamilton Mountain,City,,-79.82168662126134,43.21146189660211
595888.587299999780953,4784920.252399999648,67,Soccer,,Hamilton Mountain,City,,-79.81953190337347,43.210977030965516
595983.3251,4784507.117599999532,68,Baseball,,Hamilton Mountain,City,,-79.81843765098375,43.20724560374098
595979.64130000025034,4784568.5291,69,Baseball,,Hamilton Mountain,City,,-79.81847231720928,43.207798950162065
596039.179999999701977,4784504.2258,70,Baseball,,Hamilton Mountain,City,,-79.81775071870581,43.207212466546544
595520.442599999718368,4784485.510199999437,71,Soccer,,Hamilton Mountain,City,,-79.82413832902238,43.207109778603765
595486.283900000154972,4784393.114,72,Soccer,,Hamilton Mountain,City,,-79.82457471120256,43.20628226910489
595624.2412,4784395.854699999094,73,Baseball,,Hamilton Mountain,City,,-79.82287634976747,43.206289483455386
595587.445299999788404,4784337.3626,74,Baseball,,Hamilton Mountain,City,,-79.82333933174247,43.20576754612881
595708.745299999602139,4785147.816899999976,75,Soccer,,Hamilton Mountain,City,,-79.82170600221264,43.213048580892625
595780.3026,4785124.7576,76,Soccer,,Hamilton Mountain,City,,-79.82082922600026,43.21283190540604
593748.951100000180304,4783284.4526,77,Soccer,,Hamilton Mountain,Other,,-79.84614492363879,43.19651876661096
593790.9972,4783311.7879,78,Basketball,,Hamilton Mountain,Other,,-79.84562288704667,43.196759645650765
593816.235899999738,4783303.480699999258,79,Basketball,,Hamilton Mountain,City,,-79.84531372200411,43.196681721148664
593831.003600000403821,4783259.957599999383,80,Baseball,,Hamilton Mountain,City,,-79.84513938845546,43.19628805117414
592904.057400000281632,4783435.1947,81,Baseball,,Hamilton Mountain,City,,-79.85651642916946,43.19798029315309
592989.089499999769032,4783405.9471,82,Basketball,,Hamilton Mountain,City,,-79.85547496147538,43.1977065130074
592488.461900000460446,4787746.955299999565,83,Baseball,,Hamilton Mountain,City,,-79.86090823366222,43.23684993274434
592452.136900000274181,4787654.7038,84,Baseball,,Hamilton Mountain,City,,-79.86137099383352,43.23602385137805
592544.276600000448525,4787622.842499999329,85,Baseball,,Hamilton Mountain,City,,-79.86024177903101,43.23572570696312
592598.663399999961,4787600.3087,86,Baseball,,Hamilton Mountain,City,,-79.85957587502273,43.23551616145912
592610.824799999594688,4787649.745699999854,87,Baseball,,Hamilton Mountain,City,,-79.8594178255723,43.235959746729364
592627.204800000414252,4787691.2486,88,Baseball,,Hamilton Mountain,City,,-79.85920915954776,43.23633138286061
591735.333899999969,4787927.745899999514,89,Baseball,,Hamilton Mountain,City,,-79.87015193820953,43.23856955926843
591659.389399999752641,4787901.5006,90,Baseball,,Hamilton Mountain,City,,-79.87109148429272,43.23834250764034
593563.145600000396371,4787685.8285,91,Baseball,,Hamilton Mountain,City,,-79.84768536663178,43.23616706587356
593644.5,4787647.667099999264,92,Baseball,,Hamilton Mountain,City,,-79.84669009243763,43.23581340746499
593622.039300000295043,4787581.445699999109,93,Baseball,,Hamilton Mountain,City,,-79.84697790176924,43.23522001153095
593546.589300000108778,4787597.868699999526,94,Baseball,,Hamilton Mountain,City,,-79.84790415206274,43.23537722703044
594911.600399999879301,4786892.6192,95,Baseball,,Hamilton Mountain,City,,-79.83121778279843,43.2288574488046
594839.7626,4786978.8113,96,Basketball,,Hamilton Mountain,City,,-79.83208742622467,43.229642458195634
595631.744400000199676,4786869.566099999472,97,Soccer,,Hamilton Mountain,School,,-79.82235544653749,43.228558966811704
595644.636800000444055,4786916.564799999818,98,Soccer,,Hamilton Mountain,School,,-79.8221885691999,43.22898045390968
595607.938,4786598.5181,99,Baseball,,Hamilton Mountain,School,,-79.8226955164471,43.226121786276245
594691.50040000025183,4786032.648399999365,100,Soccer,,Hamilton Mountain,City,,-79.83407521655958,43.22114290303305
594526.666799999773502,4786309.6907,101,Baseball,,Hamilton Mountain,City,,-79.83605692718518,43.22365774623953
593459.171299999579787,4786371.388499999419,102,Soccer,,Hamilton Mountain,City,,-79.84918834454984,43.224346175926705
593517.039200000464916,4786361.4483,103,Soccer,,Hamilton Mountain,City,,-79.84847761226237,43.22424951549593
593578.272199999541044,4786341.98919999972,104,Soccer,,Hamilton Mountain,City,,-79.84772706923728,43.224066735907925
593565.061499999836087,4786298.7791,105,Soccer,,Hamilton Mountain,City,,-79.84789703261754,43.22367935713614
593503.078099999576807,4786316.9911,106,Soccer,,Hamilton Mountain,City,,-79.84865702107773,43.22385100095121
593364.096699999645352,4786288.6084,107,Soccer,,Hamilton Mountain,City,,-79.85037282198384,43.22361268303627
593411.020200000144541,4786274.262499999255,108,Soccer,,Hamilton Mountain,City,,-79.84979757797952,43.2234777203536
593460.1003,4786258.518899999559,109,Soccer,,Hamilton Mountain,City,,-79.84919602316288,43.223329905073754
593508.402099999599159,4786242.6442,110,Soccer,,Hamilton Mountain,City,,-79.8486040758917,43.2231810022685
593556.675900000147521,4786227.885399999097,111,Soccer,,Hamilton Mountain,City,,-79.84801228650748,43.223042146656965
593604.743300000205636,4786212.4514,112,Soccer,,Hamilton Mountain,City,,-79.84742315554071,43.222897235225616
589190.788499999791384,4788114.525,113,Baseball,,Hamilton Mountain,City,,-79.90145560494015,43.24055635339574
589140.2357,4788018.9679,114,Baseball,,Hamilton Mountain,City,,-79.90209359038536,43.2397020251635
590155.422299999744,4787478.527899999171,115,Baseball,,Hamilton Mountain,School,,-79.88968056937635,43.23471575600769
590124.545800000429153,4787445.148399999365,116,Baseball,,Hamilton Mountain,City,,-79.89006621820596,43.234418929213184
590186.660299999639392,4787426.158099999651,117,Baseball,,Hamilton Mountain,City,,-79.88930448935896,43.23424053478759
589900.0208,4788004.234899999574,118,Baseball,,Hamilton Mountain,Other,,-79.89273971486418,43.23947919615312
589645.696700000204146,4788049.924399999902,119,Soccer,,Hamilton Mountain,School,,-79.89586411697267,43.239920813501904
589699.1223,4788191.481399999931,120,Soccer,,Hamilton Mountain,School,,-79.89518318192746,43.24118890405738
589565.168999999761581,4788078.603,121,Soccer,,Hamilton Mountain,School,,-79.89685111022838,43.240188576680524
589533.937099999748,4787894.136499999091,122,Soccer,,Hamilton Mountain,Other,,-79.89726566937155,43.23853152573196
589513.36780000012368,4787842.788899999112,123,Soccer,,Hamilton Mountain,Other,,-79.89752729732447,43.238071682345904
589625.165500000119209,4787850.0096,124,Soccer,,Hamilton Mountain,Other,,-79.89614944127702,43.23812341367861
589683.360100000165403,4787830.5942,125,Soccer,,Hamilton Mountain,Other,,-79.8954359873326,43.23794169803359
588097.448200000450015,4787743.964099999517,126,Baseball,,Hamilton Mountain,City,,-79.91497887285783,43.237348674013916
588109.7604,4788389.6227,127,Baseball,,Hamilton Mountain,Other,,-79.91472408047707,43.243160159874584
588740.450000000186265,4786784.4098,128,Baseball,,Hamilton Mountain,Other,,-79.90721536024891,43.22863434847267
587603.389000000432134,4786993.0295,1,Tennis,,Hamilton Mountain,School,,-79.92118199438258,43.23064546620835
587619.36699999962,4786994.319199999794,2,Bocce,,Hamilton Mountain,School,,-79.92098505808373,43.230655222004664
589495.1239,4785734.8668,3,Baseball,,Hamilton Mountain,School,,-79.89809390690948,43.219096096395404
589452.84360000025481,4785725.446699999273,4,Baseball,,Hamilton Mountain,School,,-79.89861591359991,43.21901629956954
589445.845499999821186,4785685.245699999854,5,Baseball,,Hamilton Mountain,School,,-79.89870857666084,43.2186551959548
589500.7555,4785637.878699999303,6,Baseball,,Hamilton Mountain,School,,-79.89804030730348,43.21822223782882
589483.549599999561906,4785571.9834,7,Baseball,,Hamilton Mountain,School,,-79.89826279550111,43.21763101737295
593434.249099999666214,4785254.2747,8,Soccer,,Hamilton Mountain,City,,-79.8496842696825,43.21429196994239
593446.184500000439584,4785382.232699999586,9,Soccer,,Hamilton Mountain,City,,-79.84951569805112,43.215442489489405
593390.948800000362098,4785359.1947,10,Basketball,,Hamilton Mountain,School,,-79.8501995075819,43.21524191629742
593942.9512,4784107.648299999535,11,Baseball,,Hamilton Mountain,School,,-79.8436176879818,43.203905841458344
594036.722099999897182,4784124.434399999678,12,Baseball,,Hamilton Mountain,School,,-79.84246079690149,43.204045294009994
593783.193400000222027,4783931.104299999774,13,Soccer,,Hamilton Mountain,City,,-79.84561379289444,43.20233628579905
590945.009200000204146,4782716.303899999708,14,Baseball,,Glanbrook,City,,-79.88074257096457,43.191746517163764
590984.4348,4782738.4207,15,Baseball,,Glanbrook,City,,-79.88025381090814,43.191940888889434
591004.628399999812245,4782692.2639,16,Baseball,,Glanbrook,City,,-79.88001293395399,43.191522903347675
590965.2028,4782675.916699999943,17,Baseball,,Glanbrook,City,,-79.88050074187149,43.19138047675744
590915.199500000104308,4782513.406099999323,18,Baseball,,Glanbrook,City,,-79.88114274077807,43.189923402231166
590870.965900000184774,4782491.2892,19,Baseball,,Glanbrook,City,,-79.88169064083428,43.18972960476802
590894.044300000183284,4782447.0556,20,Baseball,,Glanbrook,City,,-79.88141395102726,43.18932858973661
590937.316399999894202,4782470.13399999961,21,Baseball,,Glanbrook,City,,-79.8808777272996,43.18953115902895
590820.962600000202656,4782333.586699999869,22,Baseball,,Glanbrook,City,,-79.88233180356067,43.188315809482994
590871.927500000223517,4782319.162699999288,23,Baseball,,Glanbrook,City,,-79.88170710381463,43.188179820712094
587650.3235,4786108.1113,24,Basketball,,Hamilton Mountain,City,,-79.92074468732795,43.22267297853298
589744.209800000302494,4786775.94319999963,25,Soccer,,Hamilton Mountain,School,,-79.8948582877338,43.228439390734074
590478.632699999958,4786749.7396,26,Soccer,,Hamilton Mountain,School,,-79.88582031487653,43.22811576042512
587169.523,4783704.5894,27,Basketball,,Hamilton Mountain,City,,-79.92704330543332,43.20108934795264
592930.474999999627471,4786579.536199999973,28,Soccer,,Hamilton Mountain,School,,-79.8556621254121,43.22628541406582
599058.4594,4783917.4962,29,Baseball,,Upper Stoney Creek,City,,-79.78069651561064,43.2015402138494
598968.814399999566376,4783941.325899999589,30,Baseball,,Upper Stoney Creek,City,,-79.78179543612801,43.20176649987383
599198.033300000242889,4783898.205499999225,31,Soccer,,Upper Stoney Creek,City,,-79.77898235659515,43.20134822376169
599288.813099999912,4783873.2411,32,Soccer,,Upper Stoney Creek,City,,-79.77786969418996,43.2011115459095
588988.14670000039041,4798802.540699999779,391,Baseball,,Flamborough,City,,-79.90222171448312,43.3368042980569
588923.466099999845028,4798887.6467,392,Soccer,,Flamborough,City,,-79.90300569083713,43.33757815457275
590186.723299999721348,4799455.020199999213,393,Baseball,,Flamborough,City,,-79.88733124280343,43.34253561519674
590234.098899999633431,4799448.4954,394,Baseball,,Flamborough,City,,-79.88674793222971,43.34247118626107
590333.105600000359118,4799464.9493,395,Soccer,,Flamborough,City,,-79.88552396634222,43.34260742268403
590089.986100000329316,4799382.3964,396,Soccer,,Flamborough,City,,-79.88853643537531,43.34189339724789
589235.663399999961,4798855.306399999186,397,Baseball,,Flamborough,School,,-79.89916026146044,43.337249996908966
588411.695199999958,4798536.300699999556,398,Baseball,,Flamborough,City,,-79.90937458615278,43.334475386784064
588129.994199999608099,4798449.208799999207,399,Baseball,,Flamborough,City,,-79.91286295449763,43.333724384799716
582405.05350000038743,4805446.3428,400,Baseball,,Flamborough,City,,-79.98241972163295,43.39736962709045
598122.860500000417233,4782590.409499999136,401,Baseball,,Upper Stoney Creek,School,,-79.79244585245556,43.18971489405639
598142.718500000424683,4782503.034,402,Soccer,,Upper Stoney Creek,School,,-79.79221703367216,43.18892569136999
598152.363900000229478,4782394.665699999779,403,Baseball,,Upper Stoney Creek,School,,-79.79211760050484,43.187948821094245
598314.632699999958,4782290.8363,404,Baseball,,Upper Stoney Creek,City,,-79.79013958836526,43.18699296980803
598440.589599999599159,4782231.262099999934,405,Baseball,,Upper Stoney Creek,City,,-79.78860050847818,43.18644023591838
598849.098600000143051,4782233.5316,406,Soccer,,Upper Stoney Creek,City,,-79.78357414308219,43.18640733395803
599247.394799999892712,4782105.588899999857,407,Soccer,,Upper Stoney Creek,School,,-79.77869681013969,43.185203284953154
596962.297899999655783,4782647.99799999967,408,Baseball,,Upper Stoney Creek,City,,-79.80671522062553,43.19038319721109
596939.603000000119209,4782728.56499999948,409,Soccer,,Upper Stoney Creek,School,,-79.8069803314575,43.19111144138931
598354.348899999633431,4781708.4274,410,Basketball,,Upper Stoney Creek,School,,-79.78975454411932,43.1817444975004
598313.214300000108778,4781726.016,411,Soccer,,Upper Stoney Creek,School,,-79.79025746566738,43.18190819643568
598549.809000000357628,4781208.571299999952,412,Soccer,,Upper Stoney Creek,City,,-79.78743900984094,43.177218935176384
598626.120799999684095,4781164.458,413,Basketball,,Upper Stoney Creek,City,,-79.78650813867625,43.17681183847872
599335.053999999538064,4781518.499099999666,414,Soccer,,Upper Stoney Creek,City,,-79.77772380745158,43.17990634404276
599412.784199999645352,4781475.095,415,Baseball,,Upper Stoney Creek,City,,-79.77677538551595,43.179505367081234
596202.8684,4781369.5636,416,Soccer,,Upper Stoney Creek,City,,-79.81628175084575,43.178970704349084
596259.6058,4781351.4076,417,Soccer,,Upper Stoney Creek,City,,-79.8155869379375,43.178800024104866
601106.677799999713898,4783028.28009999916,418,Baseball,,Upper Stoney Creek,Other,,-79.7556536152487,43.19326346369496
601169.088899999856949,4783008.98939999938,419,Baseball,,Upper Stoney Creek,Other,,-79.75488921447413,43.193081440090815
601091.35869999975,4782967.5711,420,Baseball,,Upper Stoney Creek,Other,,-79.75585321164215,43.19271897182341
601149.7982,4782954.5215,421,Baseball,,Upper Stoney Creek,Other,,-79.75513654265214,43.19259366798581
601060.153199999593198,4782811.5434,422,Baseball,,Upper Stoney Creek,Other,,-79.75626570234,43.191318482432585
592308.548600000329316,4783462.11419999972,161,Soccer,,Hamilton Mountain,City,,-79.86384016753424,43.198295667929685
591181.273699999786913,4783262.4165,162,Baseball,,Hamilton Mountain,City,,-79.87774531464149,43.19663471770008
591168.997000000439584,4783202.9295,163,Baseball,,Hamilton Mountain,City,,-79.87790620155351,43.19610063496239
591140.157399999909,4783133.730499999598,164,Baseball,,Hamilton Mountain,City,,-79.87827250179762,43.19548111317842
592185.790900000371039,4785046.832599999383,165,Basketball,,Hamilton Mountain,City,,-79.86508632237879,43.21257787595767
592265.98340000025928,4784998.9583,166,Baseball,,Hamilton Mountain,City,,-79.86410725009948,43.21213706755781
592374.394999999552965,4784975.183199999854,167,Soccer,,Hamilton Mountain,City,,-79.86277682334756,43.21190976210537
592318.625199999660254,4784760.7432,168,Basketball,,Hamilton Mountain,City,,-79.86349912521909,43.209985985210906
592185.404199999757111,4784851.128,169,Soccer,,Hamilton Mountain,City,,-79.8651237556211,43.210815997836754
591568.900500000454485,4784720.700799999759,170,Soccer,,Hamilton Mountain,School,,-79.87273359376755,43.209716790873074
589202.593500000424683,4783902.1432,171,Basketball,,Hamilton Mountain,City,,-79.90199109736469,43.202630534897054
590983.567900000140071,4786497.4627,172,Baseball,,Hamilton Mountain,School,,-79.87964516271612,43.225783787396196
590953.036999999545515,4786437.993499999866,173,Baseball,,Hamilton Mountain,School,,-79.88003084686747,43.22525206645665
590410.429999999701977,4788447.390699999407,174,Baseball,,Hamilton Mountain,Other,,-79.88638171095437,43.24340791451294
590427.33490000013262,4788196.8528,175,Tennis,,Hamilton Mountain,Other,,-79.88621461968094,43.24115029421712
595020.946700000204146,4785937.106399999931,176,Tennis,,Hamilton Mountain,City,,-79.8300360612828,43.220241342309166
595034.824900000356138,4785933.4515,177,Tennis,,Hamilton Mountain,City,,-79.82986584756586,43.22020668998834
595049.3454,4785929.012099999934,178,Tennis,,Hamilton Mountain,City,,-79.82968786266109,43.22016489444796
595063.0592,4785924.819399999455,179,Tennis,,Hamilton Mountain,City,,-79.82951976603484,43.22012542063007
595153.43099999987,4785896.3079,180,Baseball,,Hamilton Mountain,School,,-79.82841219059202,43.21985734623737
595247.844899999909,4785873.3233,181,Baseball,,Hamilton Mountain,School,,-79.82725391392592,43.21963850953148
592055.417500000447035,4785934.466499999166,182,Soccer,,Hamilton Mountain,Other,,-79.86654303982235,43.22058513955715
587187.058699999936,4788085.620699999854,183,Baseball,,Hamilton Mountain,School,,-79.92613539916792,43.240530442389804
587280.696700000204146,4788068.754,184,Baseball,,Hamilton Mountain,School,,-79.92498494891207,43.24036775763754
587204.227099999785423,4788010.980299999937,185,Baseball,,Hamilton Mountain,School,,-79.92593578085948,43.23985646025084
587445.679999999701977,4787923.635299999267,186,Soccer,,Hamilton Mountain,City,,-79.92297625641676,43.23904212443029
586889.062599999830127,4787770.669399999082,187,Baseball,,Hamilton Mountain,City,,-79.92985475611215,43.237729284895465
586910.163399999961,4787716.5851,188,Baseball,,Hamilton Mountain,City,,-79.92960344221298,43.23723992495574
586915.9972,4787576.0186,189,Soccer,,Hamilton Mountain,City,,-79.92955376021827,43.23597371207167
586986.102300000376999,4787586.0467,190,Soccer,,Hamilton Mountain,City,,-79.92868892053225,43.23605591476295
587652.876500000245869,4786949.084599999711,191,Soccer,,Hamilton Mountain,School,,-79.92057965497573,43.23024407600207
587571.208700000308454,4786988.754499999806,192,Basketball,,Hamilton Mountain,School,,-79.92157889850584,43.230610713976354
587589.853400000371039,4786990.11099999957,193,Tennis,,Hamilton Mountain,School,,-79.92134911750384,43.2306207622566
598156.618800000287592,4786949.854,194,Baseball,,Lower Hamilton,City,,-79.79125562551174,43.228957513292286
598153.2171,4786883.5205,195,Baseball,,Lower Hamilton,City,,-79.7913093083453,43.22836077386694
598491.262799999676645,4787614.4646,196,Baseball,,Lower Hamilton,City,,-79.78701690346696,43.23489719235498
598546.540699999779463,4787613.61409999989,197,Baseball,,Lower Hamilton,City,,-79.78633642223954,43.23488231634593
598582.25870000012219,4787898.50799999945,198,Baseball,,Lower Hamilton,City,,-79.78584570075182,43.23744246062321
598580.557799999602139,4787794.7556,199,Baseball,,Lower Hamilton,City,,-79.78588519151991,43.23650863228651
604261.638799999840558,4785391.229499999434,200,Basketball,,Lower Stoney Creek,City,,-79.71638809863123,43.21410706597459
602875.651499999687076,4785459.901699999347,201,Tennis,,Lower Stoney Creek,City,,-79.73343469966827,43.214915454720725
602889.4709,4785456.5,202,Tennis,,Lower Stoney Creek,City,,-79.73326523433185,43.214882947012455
596976.860600000247359,4785833.6654,203,Baseball,,Lower Hamilton,City,,-79.80597674092148,43.219061284332966
596967.080699999816716,4785794.1205,204,Baseball,,Lower Hamilton,City,,-79.80610407747768,43.218706526062995
597081.8887,4785963.781099999323,205,Baseball,,Lower Hamilton,City,,-79.80466097751523,43.22021918446056
597112.9293,4787825.158399999142,206,Baseball,,Lower Hamilton,City,,-79.80395120892297,43.23697273235502
597083.589499999769032,4787723.532099999487,207,Baseball,,Lower Hamilton,City,,-79.80433037371085,43.23606159290878
597217.1069,4787868.5303,208,Basketball,,Lower Hamilton,City,,-79.80266077958301,43.237349777898466
597213.28000000026077,4787853.6478,209,Basketball,,Lower Hamilton,City,,-79.8027105261389,43.23721628766553
597471.8437,4789048.79639999941,210,Baseball,,Lower Hamilton,City,,-79.79931540290278,43.247942512972685
598055.343000000342727,4788896.7663,211,Baseball,,Lower Hamilton,City,,-79.79215630886648,43.24649817165956
598103.002399999648333,4788950.0994,212,Baseball,,Lower Hamilton,City,,-79.7915598770122,43.24697211384693
598200.023299999535084,4788983.5744,213,Baseball,,Lower Hamilton,City,,-79.79035906357612,43.24726084927729
598147.257500000298023,4788835.4899,214,Baseball,,Lower Hamilton,City,,-79.7910352660403,43.245934560650895
599181.5795,4789313.218499999493,215,Baseball,,Lower Hamilton,City,,-79.77821148311057,43.25010003828904
599299.025799999945,4789283.1477,216,Baseball,,Lower Hamilton,City,,-79.77677043829203,43.24981386159597
599167.395100000314415,4789246.5521,217,Soccer,,Lower Hamilton,City,,-79.77839817327916,43.24950173034745
599916.328200000338256,4789869.811899999157,218,Baseball,,Lower Hamilton,City,,-79.76906144421582,43.255013811986444
599986.682500000111759,4789680.3091,219,Baseball,,Lower Hamilton,City,,-79.76822928694868,43.253298464541274
595076.348299999721348,4787977.3375,220,Baseball,,Lower Hamilton,City,,-79.82900243441125,43.23860224799451
595169.113900000229478,4787930.5292,221,Baseball,,Lower Hamilton,City,,-79.82786821041708,43.2381691408427
596738.469100000336766,4789781.30159999989,222,Baseball,,Lower Hamilton,City,,-79.80821879163567,43.254631523742866
594844.5762,4789352.3672,223,Baseball,,Lower Hamilton,City,,-79.83161985887355,43.25101058731212
594818.477,4789266.977499999106,224,Baseball,,Lower Hamilton,City,,-79.83195599890793,43.2502451221551
594882.8739,4789279.459699999541,225,Baseball,,Lower Hamilton,City,,-79.83116072310142,43.250349395208794
594960.320399999619,4789390.097599999979,226,Soccer,,Lower Hamilton,City,,-79.830187807904,43.25133569586179
593581.035400000400841,4789544.990499999374,227,Soccer,,Lower Hamilton,School,,-79.84714945773221,43.25290265706242
593870.963200000114739,4790278.888199999928,228,Baseball,,Lower Hamilton,City,,-79.84345341724524,43.2594737782303
593768.83600000012666,4790304.9874,229,Soccer,,Lower Hamilton,City,,-79.84470699189062,43.25972145874208
592951.818099999800324,4790909.240199999884,230,Basketball,,Lower Hamilton,City,,-79.85466921553254,43.2652626818822
592768.556499999948,4791861.293,231,Baseball,,Lower Hamilton,City,,-79.85676645244291,43.27385647351785
592797.492499999701977,4791804.5556,232,Baseball,,Lower Hamilton,City,,-79.85641949434599,43.27334211083684
592856.4994,4791748.3856,233,Baseball,,Lower Hamilton,City,,-79.855701947513,43.272829148982964
589070.132199999876,4791176.047599999234,234,Soccer,,West Hamilton/Dundas,City,,-79.90244649381839,43.2681336070089
589032.685499999672174,4791127.253499999642,235,Baseball,,West Hamilton/Dundas,City,,-79.90291573214165,43.26769873892808
589007.721099999733269,4791005.8355,236,Baseball,,West Hamilton/Dundas,City,,-79.90324292343661,43.2666085609854
588899.636400000192225,4790909.38199999928,237,Baseball,,West Hamilton/Dundas,City,,-79.90459008122295,43.26575294863649
588932.544099999591708,4791124.98399999924,238,Soccer,,West Hamilton/Dundas,City,,-79.90414984628356,43.26769013370853
588354.674100000411272,4791196.473,239,Soccer,,West Hamilton/Dundas,School,,-79.91125777338276,43.26840174116211
588224.178199999966,4791161.863199999556,240,Soccer,,West Hamilton/Dundas,School,,-79.91287105889926,43.26810544016187
588084.036999999545515,4791017.183,241,Soccer,,West Hamilton/Dundas,School,,-79.9146207703716,43.26681927408532
587996.94510000012815,4791027.6794,242,Soccer,,West Hamilton/Dundas,School,,-79.91569205744172,43.26692395049806
587994.675599999725819,4790992.7859,243,Soccer,,West Hamilton/Dundas,School,,-79.91572559400255,43.26661006774948
588232.121500000357628,4790165.83899999969,244,Soccer,,West Hamilton/Dundas,School,,-79.91293278087262,43.25913725385431
588263.326999999582767,4790165.83899999969,245,Soccer,,West Hamilton/Dundas,School,,-79.91254837969852,43.259133599884926
588286.589300000108778,4790166.690099999309,246,Soccer,,West Hamilton/Dundas,School,,-79.91226168973246,43.25913853731971
588310.418999999761581,4790166.973799999803,247,Soccer,,West Hamilton/Dundas,School,,-79.91196810158802,43.25913829945764
587148.721699999645352,4789449.2463,248,Baseball,,West Hamilton/Dundas,City,,-79.92639189464515,43.25281175436199
587178.792500000447035,4789364.707599999383,249,Baseball,,West Hamilton/Dundas,City,,-79.92603488389027,43.25204716671087
587085.175900000147521,4789393.6436,250,Baseball,,West Hamilton/Dundas,City,,-79.92718338582078,43.252318501842545
587044.892400000244379,4789263.715099999681,251,Baseball,,West Hamilton/Dundas,City,,-79.92770008454542,43.251153393167904
587115.814000000245869,4789255.2045,252,Baseball,,West Hamilton/Dundas,City,,-79.92682790095105,43.25106857889935
587084.324799999594688,4789692.649499999359,253,Soccer,,West Hamilton/Dundas,School,,-79.92714660864952,43.25501058223689
586963.826899999752641,4790834.9813,254,Baseball,,West Hamilton/Dundas,School,,-79.9284504900747,43.26530902446215
587088.6491,4790771.435499999672,255,Baseball,,West Hamilton/Dundas,School,,-79.9269227727698,43.264722498921365
587188.506799999624491,4790703.918099999428,256,Baseball,,West Hamilton/Dundas,School,,-79.92570326133954,43.26410308544112
586349.361399999819696,4791737.672599999234,257,Soccer,,West Hamilton/Dundas,City,,-79.93587892996514,43.27350672081733
586562.693799999542534,4791775.1193,258,Soccer,,West Hamilton/Dundas,City,,-79.93324449789498,43.27381937161086
586599.573099999688566,4791842.069299999624,259,Soccer,,West Hamilton/Dundas,City,,-79.93277955935616,43.274417890402695
586621.13329999987,4791873.2749,260,Soccer,,West Hamilton/Dundas,City,,-79.93250899365079,43.274696357718405
586403.261800000444055,4791868.735899999738,261,Soccer,,West Hamilton/Dundas,City,,-79.93519422823391,43.27468051598422
586408.935600000433624,4791575.403799999505,262,Soccer,,West Hamilton/Dundas,City,,-79.93517036871808,43.272038966567756
585069.934100000187755,4791669.0204,263,Baseball,,West Hamilton/Dundas,City,,-79.95165387555132,43.2730342124367
585186.813,4791697.956499999389,264,Baseball,,West Hamilton/Dundas,City,,-79.95020929469884,43.27328151943838
585109.6502,4791588.4534,265,Baseball,,West Hamilton/Dundas,City,,-79.95117697775753,43.272304369140045
585132.345099999569356,4791491.9999,266,Baseball,,West Hamilton/Dundas,City,,-79.95091226682617,43.271433419463754
585195.323599999770522,4791562.6379,267,Tennis,,West Hamilton/Dundas,City,,-79.9501253769152,43.27206226404504
585181.423000000417233,4791570.8648,268,Tennis,,West Hamilton/Dundas,City,,-79.95029537538943,43.27213790414021
585197.309399999678135,4791604.6235,269,Tennis,,West Hamilton/Dundas,City,,-79.95009441104601,43.27244004231134
585185.110899999738,4791612.8504,270,Tennis,,West Hamilton/Dundas,City,,-79.95024343833742,43.27251548997926
585171.210199999623001,4791620.51,271,Tennis,,West Hamilton/Dundas,City,,-79.9504135260043,43.27258602176085
592924.58420000039041,4791658.1732,272,Baseball,,Lower Hamilton,City,,-79.85487831187821,43.27200858393296
592950.683400000445545,4791796.6124,273,Soccer,,Lower Hamilton,City,,-79.854533373639,43.27325171185759
592373.948200000450015,4791331.3661,274,Baseball,,Lower Hamilton,School,,-79.86171739142924,43.26913409921394
591420.193300000391901,4790682.007099999115,275,Baseball,,Lower Hamilton,City,,-79.87357565818112,43.26340430487149
591499.909300000406802,4790708.957299999893,276,Basketball,,Lower Hamilton,City,,-79.87258915466838,43.26363726056494
591514.377299999818206,4790702.716199999675,277,Basketball,,Lower Hamilton,City,,-79.87241195874999,43.26357931536579
591530.547500000335276,4790695.62399999984,278,Basketball,,Lower Hamilton,City,,-79.87221393607147,43.26351350111168
591318.917100000195205,4790523.8517,279,Soccer,,Lower Hamilton,School,,-79.87484951072747,43.26199272224886
590579.062,4790628.815799999982,280,Baseball,,Lower Hamilton,City,,-79.88394637981347,43.26302700308636
590557.501899999566376,4790471.086,281,Baseball,,Lower Hamilton,City,,-79.88423791628185,43.261609558044114
590631.8278,4789564.139399999753,282,Soccer,,Lower Hamilton,City,,-79.88347153121252,43.25343540928456
590576.508899999782443,4789679.599899999797,283,Tennis,,Lower Hamilton,City,,-79.88413391825311,43.254481546924374
590590.4095,4789675.912,284,Tennis,,Lower Hamilton,City,,-79.88396330608644,43.25444667411047
590610.267599999905,4789669.6709,285,Tennis,,Lower Hamilton,City,,-79.88371973472738,43.25438809870875
590623.033499999903,4789665.6993,286,Tennis,,Lower Hamilton,City,,-79.88356314672508,43.25435080768265
590636.3668,4789661.7276,287,Tennis,,Lower Hamilton,City,,-79.88339957042604,43.25431344822186
590649.132699999958,4789657.188699999824,288,Tennis,,Lower Hamilton,City,,-79.88324307616885,43.25427104871123
590663.316999999806285,4789652.933399999514,289,Tennis,,Lower Hamilton,City,,-79.88306906424694,43.25423103240868
590676.082899999804795,4789648.961699999869,290,Tennis,,Lower Hamilton,City,,-79.88291247706073,43.25419374049949
589978.213499999605119,4788706.83799999952,291,Soccer,,Lower Hamilton,City,,-79.8916621497705,43.245795420447465
590050.269899999722838,4788673.6466,292,Baseball,,Lower Hamilton,City,,-79.89078015520408,43.24548799607993
590120.056900000199676,4788660.5971,293,Baseball,,Lower Hamilton,City,,-79.88992282639647,43.24536217271291
592233.523299999535084,4789085.5598,294,Soccer,,Lower Hamilton,City,,-79.86382350362177,43.24893251859072
592281.182599999942,4789068.254899999127,295,Soccer,,Lower Hamilton,City,,-79.86323942365533,43.248770891927435
592378.203499999828637,4789017.47499999963,296,Soccer,,Lower Hamilton,City,,-79.86205302024503,43.2483018426782
590601.189600000157952,4790670.8015,297,Tennis,,Lower Hamilton,City,,-79.88366688230067,43.263402338116805
590615.9413,4790666.8298,298,Tennis,,Lower Hamilton,City,,-79.88348580799442,43.26336480802402
590629.558299999684095,4790663.141899999231,299,Tennis,,Lower Hamilton,City,,-79.88331866627459,43.26332996814579
590030.979199999943,4791140.8704,300,Baseball,,Lower Hamilton,City,,-79.89061451636239,43.26770270258198
590035.518199999816716,4791093.211,301,Baseball,,Lower Hamilton,City,,-79.89056638966716,43.26727308392179
589983.887199999764562,4791388.81269999966,302,Soccer,,Lower Hamilton,City,,-79.89115416485676,43.26994054647127
589985.589300000108778,4791499.4505,303,Soccer,,Lower Hamilton,City,,-79.89111510890717,43.27093641272816
589994.667299999855459,4791610.6557,304,Soccer,,Lower Hamilton,City,,-79.89098508175836,43.271936505718664
589284.599299999885261,4790380.5899,305,Tennis,,West Hamilton/Dundas,School,,-79.89993320608257,43.260946708539905
589298.216300000436604,4790377.4693,306,Tennis,,West Hamilton/Dundas,School,,-79.89976596908886,43.260917000725755
589273.251899999566376,4790345.412699999288,307,Tennis,,West Hamilton/Dundas,School,,-79.90007869366418,43.260631352332624
589288.571000000461936,4790342.292199999094,308,Tennis,,West Hamilton/Dundas,School,,-79.89989048970557,43.26060144307209
589235.2379,4790425.412399999797,309,Soccer,,West Hamilton/Dundas,School,,-79.9005340121439,43.26135609292209
589124.599999999627471,4791295.196,310,Soccer,,West Hamilton/Dundas,City,,-79.90175615449758,43.269199860239716
589087.153400000184774,4791223.139599999413,311,Soccer,,West Hamilton/Dundas,City,,-79.90222917022112,43.268555564354386
590081.034099999815226,4787336.4067,312,Baseball,,Hamilton Mountain,City,,-79.89061975030201,43.23344512251605
589726.077600000426173,4788134.9395,313,Tennis,,Hamilton Mountain,School,,-79.89486043766685,43.240676648921216
589739.956000000238419,4788129.8847,314,Tennis,,Hamilton Mountain,School,,-79.8946903542179,43.24062948882381
589753.205400000326335,4788125.428099999204,315,Tennis,,Hamilton Mountain,School,,-79.89452791829797,43.240587788611016
589768.568599999882281,4788119.919299999252,316,Tennis,,Hamilton Mountain,School,,-79.89433962497223,43.240536364443635
582625.405199999921,4790229.5938,317,Soccer,,West Hamilton/Dundas,City,,-79.98198991892123,43.26034680304711
582603.561300000175834,4790184.4876,318,Soccer,,West Hamilton/Dundas,City,,-79.98226577585801,43.259943095026884
582726.397699999623001,4790195.267699999735,319,Baseball,,West Hamilton/Dundas,City,,-79.98075096065038,43.26002667705265
583484.976099999621511,4790893.988199999556,320,Baseball,,West Hamilton/Dundas,City,,-79.97130027273337,43.26623376011336
583551.926199999637902,4790851.4352,321,Baseball,,West Hamilton/Dundas,City,,-79.97048190330115,43.265843225036306
580540.733,4785759.825099999085,322,Baseball,,Ancaster,City,,-80.00832384721505,43.22032955212428
580498.747399999760091,4785704.2225,323,Baseball,,Ancaster,City,,-80.00884883896573,43.219833419739565
580554.349999999627471,4785670.180099999532,324,Baseball,,Ancaster,City,,-80.00816929382445,43.21952098955085
580587.257699999958,4785716.7048,325,Baseball,,Ancaster,City,,-80.0077573824997,43.219936355697364
580679.739599999972,4785788.761199999601,326,Soccer,,Ancaster,City,,-80.006608319835,43.220575226357795
580704.704,4785745.0734,327,Soccer,,Ancaster,City,,-80.00630737203275,43.2201792192377
580703.001899999566376,4785610.6059,328,Soccer,,Ancaster,City,,-80.00634798844169,43.21896873807844
580766.5477,4785495.9965,329,Soccer,,Ancaster,City,,-80.0055824691539,43.217930066934564
580780.164699999616,4785443.230699999258,330,Soccer,,Ancaster,City,,-80.00542256053573,43.21745353920679
580944.70299999975,4785148.7639,331,Soccer,,Ancaster,School,,-80.00344021847769,43.21478471217608
581002.5751,4785058.5515,332,Soccer,,Ancaster,School,,-80.00274106168376,43.21396628687925
581016.192099999636412,4784996.140399999917,333,Soccer,,Ancaster,School,,-80.00258260042264,43.213402914361296
580929.951299999840558,4784993.3035,334,Soccer,,Ancaster,School,,-80.00364459777423,43.21338662412213
580915.766900000162423,4785050.6082,335,Soccer,,Ancaster,School,,-80.0038108013551,43.213904081526614
580832.362999999895692,4785052.877699999139,336,Soccer,,Ancaster,School,,-80.00483713892348,43.21393345075846
580772.221400000154972,4785040.3955,337,Soccer,,Ancaster,School,,-80.00557928539598,43.213827506432956
580714.349299999885261,4785021.672199999914,338,Soccer,,Ancaster,School,,-80.0062944052846,43.21366512341589
580748.959099999628961,4784938.835699999705,339,Soccer,,Ancaster,School,,-80.00588048902556,43.212915611698975
580822.150299999862909,4784958.126399999484,340,Soccer,,Ancaster,School,,-80.00497672433167,43.21308146044641
580751.796,4784346.21399999969,341,Basketball,,Ancaster,City,,-80.00593223274858,43.20757969812922
581682.855999999679625,4784379.972699999809,342,Baseball,,Ancaster,City,,-79.99446746051774,43.207783483463906
581881.436700000427663,4784450.32699999958,343,Baseball,,Ancaster,School,,-79.99201283056236,43.20839539843735
582008.528400000184774,4784413.447799999267,344,Soccer,,Ancaster,School,,-79.99045400513023,43.20804956642107
581905.833700000308454,4784389.050699999556,345,Soccer,,Ancaster,School,,-79.99172162836813,43.207841058776545
581996.613499999978,4784479.830499999225,346,Soccer,,Ancaster,School,,-79.99059080123686,43.20864852802049
581784.41579999961,4783630.4723,347,Soccer,,Ancaster,School,,-79.9933284008738,43.20102445528237
581981.8618,4783687.777,348,Tennis,,Ancaster,City,,-79.99088993427485,43.20151898198872
581998.315600000321865,4783687.209699999541,349,Tennis,,Ancaster,City,,-79.99068752000919,43.20151208725655
581989.804999999701977,4783632.174399999902,350,Basketball,,Ancaster,City,,-79.99080042845769,43.20101750859546
582098.740699999966,4783699.1245,351,Soccer,,Ancaster,City,,-79.98944981083753,43.20160844968091
582115.1946,4783805.2233,352,Soccer,,Ancaster,City,,-79.98923154111168,43.20256190761718
582152.641200000420213,4783805.790699999779,353,Soccer,,Ancaster,City,,-79.98877059053623,43.20256294288013
582184.1305,4783686.784099999815,354,Soccer,,Ancaster,City,,-79.9884007485058,43.20148805653886
584832.204599999822676,4785932.874099999666,355,Baseball,,Ancaster,City,,-79.955465917811,43.22141735144839
585123.550900000147521,4785947.909499999136,356,Basketball,,Ancaster,School,,-79.95187685587567,43.22151991077088
585214.046900000423193,4785877.2715,357,Soccer,,Ancaster,School,,-79.95077367096815,43.22087372718555
585292.911899999715388,4785850.3212,358,Baseball,,Ancaster,City,,-79.94980694525574,43.22062217861442
585331.776899999939,4785702.5204,359,Soccer,,Ancaster,City,,-79.94935133801116,43.219287100906854
585422.556699999608099,4785723.229599999264,360,Soccer,,Ancaster,City,,-79.94823059037884,43.219463280103625
585503.407399999909,4785755.286199999973,361,Tennis,,Ancaster,City,,-79.94723031044335,43.21974273702438
585541.137799999676645,4785765.215199999511,362,Basketball,,Ancaster,City,,-79.9467642897565,43.21982785462142
585621.704800000414252,4786657.977399999276,363,Soccer,,Ancaster,City,,-79.94563393786753,43.227856443934634
583159.019999999552965,4786269.893899999559,364,Soccer,,Ancaster,City,,-79.97601369709938,43.22463787823203
583200.012799999676645,4786264.5039,365,Tennis,,Ancaster,City,,-79.97550982106078,43.22458483111357
583195.757500000298023,4786251.738,366,Tennis,,Ancaster,City,,-79.9755641356163,43.22447036512028
583191.360299999825656,4786238.830199999735,367,Tennis,,Ancaster,City,,-79.97562021766974,43.224354637677806
586510.211799999698997,4787865.206499999389,368,Baseball,,Ancaster,City,,-79.93450514356063,43.238623966862896
584684.687400000169873,4784870.3253,369,Basketball,,Ancaster,City,,-79.95744499805869,43.21186752295072
579286.37430000025779,4784918.786699999124,370,Soccer,,Wentworth,City,,-80.02388700932276,43.21289014240883
579323.801099999807775,4784840.1905,371,Soccer,,Wentworth,City,,-80.02343759742234,43.21217857414572
579366.039800000376999,4784763.73299999908,372,Soccer,,Wentworth,City,,-80.02292865649514,43.21148575363934
599159.441200000233948,4783766.5776,373,Baseball,,Upper Stoney Creek,City,,-79.77948090131977,43.20016828198152
585516.99170000012964,4789840.671,374,Tennis,,West Hamilton/Dundas,City,,-79.9464294850992,43.256522694154846
597071.2336,4775168.31279999949,375,Baseball,,Glanbrook,City,,-79.8066861041544,43.123030467314734
597039.460699999704957,4775112.4265,376,Baseball,,Glanbrook,City,,-79.8070863883421,43.122531398671896
594621.03110000025481,4775971.43,377,Baseball,,Glanbrook,City,,-79.83666369144835,43.130571090801595
594708.973899999633431,4776004.3376,378,Soccer,,Glanbrook,City,,-79.83557705828856,43.13085636215955
594698.193900000303984,4775960.082499999553,379,Soccer,,Glanbrook,City,,-79.8357171285347,43.130459280810086
594767.9808,4775970.8626,380,Soccer,,Glanbrook,City,,-79.83485745241947,43.13054760130428
594742.449,4775886.8913,381,Soccer,,Glanbrook,City,,-79.83518564250807,43.12979480184846
594730.534099999815226,4775850.012,382,Soccer,,Glanbrook,City,,-79.83533840088096,43.129464267892565
594716.349799999967,4775798.3811,383,Soccer,,Glanbrook,City,,-79.83552157377451,43.12900120762576
594705.002299999818206,4775755.2607,384,Soccer,,Glanbrook,City,,-79.83566842013059,43.128614413302365
594645.428100000135601,4775811.99799999967,385,Soccer,,Glanbrook,City,,-79.83639101131747,43.12913267110391
594490.535099999979,4776035.543199999258,386,Soccer,,Glanbrook,City,,-79.83825684882031,43.13116460327397
588043.4698,4797157.1575,387,Baseball,,Flamborough,City,,-79.91413735149779,43.32210224739969
589107.862499999813735,4798632.3286,388,Baseball,,Flamborough,City,,-79.90077278398205,43.33525771273543
589115.238400000147521,4798715.732499999925,389,Baseball,,Flamborough,City,,-79.90066826574436,43.33600771534371
589185.025299999862909,4798719.704099999741,390,Baseball,,Flamborough,City,,-79.89980687936578,43.33603519415468
603329.355600000359118,4785613.4042,455,Soccer,,Lower Stoney Creek,School,,-79.72782148625417,43.2162353933042
602966.860000000335276,4785447.1453,456,Soccer,,Lower Stoney Creek,City,,-79.73231442372578,43.21478817795705
602205.725700000301003,4785418.443299999461,457,Soccer,,Lower Stoney Creek,City,,-79.74168828529652,43.21463322938541
602158.101700000464916,4785416.317199999467,458,Basketball,,Lower Stoney Creek,City,,-79.74227486636117,43.21462053611751
602129.187099999748,4785849.61099999957,459,Soccer,,Lower Stoney Creek,City,,-79.74255060410356,43.2185252089677
602229.537700000219047,4785829.200699999928,460,Soccer,,Lower Stoney Creek,City,,-79.74131912473115,43.218327877812875
602209.552699999883771,4785890.856799999252,461,Baseball,,Lower Stoney Creek,City,,-79.74155371207726,43.21888564812801
602249.947999999858439,4785881.076899999753,462,Baseball,,Lower Stoney Creek,City,,-79.74105827665379,43.218792131881834
602550.149600000120699,4786942.83799999952,463,Soccer,,Lower Stoney Creek,City,,-79.73716564322834,43.228309954675964
602583.316399999894202,4786934.758899999782,464,Soccer,,Lower Stoney Creek,City,,-79.73675881718151,43.22823271362937
602611.805800000205636,4786926.254599999636,465,Soccer,,Lower Stoney Creek,City,,-79.73640965587983,43.22815227928859
602700.675599999725819,4787052.968599999323,466,Baseball,,Lower Stoney Creek,School,,-79.73529196021308,43.22928093405351
602681.966199999675155,4786988.335899999365,467,Baseball,,Lower Stoney Creek,School,,-79.7355343325483,43.22870162332481
602668.7845,4786914.7738,468,Baseball,,Lower Stoney Creek,City,,-79.73571030742019,43.22804117156782
602729.590200000442564,4786795.288499999791,469,Baseball,,Lower Stoney Creek,City,,-79.73498395724457,43.226957224230894
601141.838600000366569,4787192.0138,470,Baseball,,Lower Stoney Creek,City,,-79.75445829248387,43.230743291486036
601580.660099999979,4786213.1695,471,Baseball,,Lower Stoney Creek,School,,-79.74923576130264,43.221872205543164
601701.846300000324845,4786178.30189999938,472,Baseball,,Lower Stoney Creek,City,,-79.7477503685725,43.221541984636374
601672.50650000013411,4786143.009099999443,473,Soccer,,Lower Stoney Creek,City,,-79.74811804542009,43.221228211397005
601785.188400000333786,4786156.190799999982,474,Soccer,,Lower Stoney Creek,School,,-79.74672850036633,43.22133169072652
600791.886900000274181,4786603.091399999335,475,Baseball,,Lower Stoney Creek,City,,-79.75887447623252,43.2254882872083
600742.562,4786558.8691,476,Baseball,,Lower Stoney Creek,City,,-79.75948978479681,43.225096757556365
600576.728199999779463,4786245.060599999502,477,Baseball,,Lower Stoney Creek,City,,-79.76158853265716,43.22229377889813
600692.5992,4786587.5711,478,Tennis,,Lower Stoney Creek,City,,-79.76009963012413,43.225361819729976
600678.992399999872,4786593.098899999633,479,Tennis,,Lower Stoney Creek,City,,-79.76026613422555,43.22541340002286
600665.385499999858439,4786598.839299999177,480,Tennis,,Lower Stoney Creek,City,,-79.76043259982478,43.22546689410022
600634.769999999552965,4786568.8616,481,Tennis,,Lower Stoney Creek,City,,-79.76081497149629,43.22520110053027
600649.014700000174344,4786563.54639999941,482,Tennis,,Lower Stoney Creek,City,,-79.76064057657443,43.22515134998215
600662.196399999782443,4786558.4439,483,Tennis,,Lower Stoney Creek,City,,-79.760479230032,43.22510365501106
600677.0789,4786551.640399999917,484,Tennis,,Lower Stoney Creek,City,,-79.76029725509095,43.22504042068852
601854.285799999721348,4787000.879799999297,485,Soccer,,Lower Stoney Creek,City,,-79.74572199031223,43.22892674279781
601834.725899999961,4786893.7257,486,Soccer,,Lower Stoney Creek,City,,-79.7459825815782,43.22796472098885
601870.869099999777973,4786881.3944,487,Soccer,,Lower Stoney Creek,City,,-79.74553988637456,43.22784882906379
601792.629599999636412,4786922.6403,488,Basketball,,Lower Stoney Creek,City,,-79.74649550845116,43.22823070740454
599713.754999999888241,4787404.833699999377,489,Soccer,,Lower Stoney Creek,City,,-79.77200239710959,43.232849344318176
599680.588299999945,4787327.86989999935,490,Soccer,,Lower Stoney Creek,City,,-79.77242466997912,43.23216084881867
599768.607699999585748,4787304.908299999312,491,Soccer,,Lower Stoney Creek,City,,-79.77134510017248,43.231942497843484
599655.075400000438094,4787255.158099999651,492,Soccer,,Lower Stoney Creek,City,,-79.77275192923486,43.231509621137256
599713.754999999888241,4787225.3931,493,Soccer,,Lower Stoney Creek,City,,-79.7720348353625,43.2312339030137
599772.009399999864399,4787209.235,494,Soccer,,Lower Stoney Creek,City,,-79.7713205222233,43.231080734604745
599198.394799999892712,4786767.0117,495,Baseball,,Lower Stoney Creek,School,,-79.77846245121535,43.227175185347996
599252.822300000116229,4786714.285099999979,496,Baseball,,Lower Stoney Creek,School,,-79.77780186111931,43.226693346618845
599087.838999999687076,4786458.3058,497,Baseball,,Lower Stoney Creek,City,,-79.77987898028172,43.22441052992535
599400.79700000025332,4786255.0532,498,Baseball,,Lower Stoney Creek,Other,,-79.77606283488763,43.22253955037438
599495.194699999876,4786316.284099999815,499,Baseball,,Lower Stoney Creek,Other,,-79.77488972301747,43.223078352299076
599648.2719,4786613.084,500,Soccer,,Lower Stoney Creek,City,,-79.77295166837762,43.2257301439349
599700.998599999584258,4786606.2805,501,Soccer,,Lower Stoney Creek,City,,-79.77230377904607,43.225661929716374
599738.417500000447035,4786586.720599999651,502,Soccer,,Lower Stoney Creek,School,,-79.77184665041628,43.225480893512206
599765.631199999712408,4786573.964199999347,503,Soccer,,Lower Stoney Creek,School,,-79.77151392935845,43.22536245390809
599608.301799999549985,4786343.4978,504,Soccer,,Lower Stoney Creek,Other,,-79.77349240630902,43.223308427003836
599678.887400000356138,4786326.48929999955,505,Soccer,,Lower Stoney Creek,Other,,-79.77262653140157,43.22314598366186
599338.715599999763072,4788057.113099999726,506,Baseball,,Lower Hamilton,City,,-79.77650256298553,43.23877107559108
599269.830900000408292,4787996.732599999756,507,Baseball,,Lower Hamilton,City,,-79.77736165767509,43.23823656058846
599200.946100000292063,4788040.104499999434,508,Baseball,,Lower Hamilton,City,,-79.7782020721951,43.23863608669126
599213.702499999664724,4787962.715399999171,509,Baseball,,Lower Hamilton,City,,-79.77805891815461,43.23793770099121
598074.127100000157952,4787039.9995,510,Baseball,,Lower Hamilton,City,,-79.79225521719253,43.2297797963983
585919.2922,4791259.093,511,Baseball,,West Hamilton/Dundas,City,,-79.94125266896043,43.26924718784907
585849.505300000309944,4791091.150499999523,512,Baseball,,West Hamilton/Dundas,City,,-79.94213866819678,43.26774313490375
585859.718000000342727,4791176.823899999261,513,Baseball,,West Hamilton/Dundas,City,,-79.94199948452572,43.268513299833266
583223.7006,4789924.346799999475,514,Soccer,,West Hamilton/Dundas,School,,-79.97466572233633,43.25753275846667
583242.1402000002563,4790057.395899999887,515,Tennis,,West Hamilton/Dundas,School,,-79.97441847149742,43.25872859469251
583257.175599999725819,4790056.8285,516,Tennis,,West Hamilton/Dundas,School,,-79.9742333433386,43.25872182566949
583271.360000000335276,4790056.8285,517,Tennis,,West Hamilton/Dundas,School,,-79.97405861325699,43.258720258578734
583319.586699999869,4790031.0131,518,Soccer,,West Hamilton/Dundas,School,,-79.97346843599604,43.25848250552294
582864.553199999966,4789683.213099999353,519,Soccer,,West Hamilton/Dundas,City,,-79.97912607852773,43.255401342462356
583593.628100000321865,4789652.574899999425,520,Soccer,,West Hamilton/Dundas,City,,-79.97015009357244,43.25504499491892
583675.329900000244379,4789695.695299999788,521,Soccer,,West Hamilton/Dundas,City,,-79.96913716113467,43.25542415215992
582580.582700000144541,4790231.5796,522,Soccer,,West Hamilton/Dundas,City,,-79.9825417843496,43.260369594741675
569257.277300000190735,4786396.741299999878,523,Soccer,,Wentworth,City,,-80.14715771106407,43.227184075061174
569269.6129,4786358.766699999571,524,Soccer,,Wentworth,City,,-80.14701059242074,43.22684102999499
569141.176799999549985,4786410.044399999082,525,Baseball,,Wentworth,City,,-80.14858556430293,43.227314502032215
569151.335599999875,4786306.2796,526,Baseball,,Wentworth,City,,-80.14847348672738,43.22637929987033
587467.88370000012219,4777719.6796,527,Basketball,,Glanbrook,City,,-79.92431771390848,43.14717136391795
602455.975499999709427,4777461.11409999989,528,Soccer,,Glanbrook,School,,-79.74008205760866,43.14296245686977
602410.744699999690056,4777409.1107,529,Soccer,,Glanbrook,School,,-79.74064774781371,43.14250040972513
602457.184899999760091,4777398.951899999753,530,Soccer,,Glanbrook,School,,-79.74007868287444,43.14240266695865
602358.983199999667704,4777928.9024,531,Baseball,,Glanbrook,City,,-79.74118808460643,43.14718693329991
602323.185499999672174,4777886.3322,532,Baseball,,Glanbrook,City,,-79.74163608315402,43.14680852954794
602333.102400000207126,4777832.877599999309,533,Baseball,,Glanbrook,City,,-79.7415240280309,43.14632595344547
606321.8805,4787311.7584,534,Baseball,,Lower Stoney Creek,City,,-79.69065995912415,43.23110902961546
606278.82660000026226,4787325.3034,535,Tennis,,Lower Stoney Creek,City,,-79.69118741738197,43.231237033827036
581285.773599999957,4785450.4012,536,Baseball,,Ancaster,City,,-79.9991973004906,43.21746381238965
581413.725999999791384,4785534.57399999909,537,Baseball,,Ancaster,City,,-79.99760975203505,43.218207860075175
581200.6332,4785409.0404,538,Baseball,,Ancaster,City,,-80.00025148937151,43.217100590487036
581797.099600000306964,4785424.5204,539,Soccer,,Ancaster,School,,-79.99290656360846,43.217175555501555
581795.164599999785423,4785348.8132,540,Soccer,,Ancaster,School,,-79.99294160210731,43.21649414639242
581821.287200000137091,4785381.708399999887,541,Baseball,,Ancaster,School,,-79.99261515456047,43.21678748159982
590008.91260000038892,4798199.6882,542,Tennis,,Flamborough,City,,-79.88973050960388,43.331255349357285
590022.215800000354648,4798206.7026,543,Tennis,,Flamborough,City,,-79.88956529304468,43.33131690625663
584228.412200000137091,4798793.080099999905,544,Baseball,,Wentworth,School,,-79.96093059918773,43.33726758856689
610082.734899999573827,4786301.7476,545,Baseball,,Lower Stoney Creek,City,,-79.64455953002708,43.22147730062282
603336.531600000336766,4787247.712099999189,546,Baseball,,Lower Stoney Creek,School,,-79.72742711613093,43.23094728896098
603431.525299999862909,4787213.6204,547,Baseball,,Lower Stoney Creek,School,,-79.72626396024994,43.230627359764846
594953.591300000436604,4788006.3373,548,Tennis,,Lower Hamilton,City,,-79.83050905541045,43.23887879368794
594966.168800000101328,4787998.5591,549,Tennis,,Lower Hamilton,City,,-79.8303555159007,43.23880718398637
594986.3591,4788029.175499999896,550,Tennis,,Lower Hamilton,City,,-79.83010162025968,43.2390802758715
594973.61600000038743,4788036.9537,551,Tennis,,Lower Hamilton,City,,-79.830257198036,43.239151906755644
592905.156999999657273,4789813.6026,621,Playground,,,City,,-79.85542885970156,43.255404543779576
595557.441599999554455,4789270.133899999782,622,Playground,,,City,,-79.82285421842528,43.25018023509498
595017.961400000378489,4788514.854599999264,623,Playground,,,City,,-79.82962876699013,43.24344878034716
594660.569500000216067,4790121.3658,624,Playground,,,City,,-79.8337540339765,43.257956870270085
593439.001000000163913,4789048.3306,625,Playground,,,City,,-79.84898308638108,43.2484489089545
594056.895100000314415,4789885.489,626,Playground,,,City,,-79.8412302550196,43.25590888710046
596169.346099999733269,4787805.581199999899,627,Playground,,,City,,-79.81557340417345,43.23691738455534
597170.254399999976,4788750.9023,628,Playground,,,City,,-79.80308218185012,43.24529958206464
599357.053100000135601,4785618.4963,629,Playground,,,City,,-79.77671592919833,43.21681458845955
599127.618499999866,4786401.4701,630,Playground,,,City,,-79.7793994726466,43.22389363123103
599063.068099999800324,4791984.9855,631,Playground,,,City,,-79.77919048816088,43.27416854898136
597143.292299999855459,4787903.6828,632,Playground,,,City,,-79.80356350325457,43.237675757577584
596812.574,4786533.6157,633,Playground,,,City,,-79.80787629238009,43.22538388020553
599785.389499999582767,4787343.230299999937,634,Playground,,,City,,-79.7711315456367,43.23228527796026
596716.7829,4789744.4176,635,Playground,,,City,,-79.80849237430265,43.254302249741876
600887.429999999701977,4787372.5745,636,Playground,,,City,,-79.75755753595568,43.23240287372904
592320.862300000153482,4789060.512299999595,637,Playground,,,City,,-79.86275202368469,43.24869632777943
587057.096400000154972,4789454.5021,638,Playground,,,City,,-79.92751962633946,43.25286966038982
592317.566200000233948,4790075.5208,639,Playground,,,City,,-79.86262255331089,43.257834764789585
589953.2072,4788886.148299999535,640,Playground,,,City,,-79.8919408533565,43.24741273727571
592870.6403,4791806.14599999972,641,Playground,,,City,,-79.85551797373475,43.273347414301234
588966.346400000154972,4790805.8153,642,Playground,,,City,,-79.9037849701211,43.26481266128453
590177.341199999675155,4790150.9978,643,Playground,,,City,,-79.88897342934638,43.258773396484955
592188.249800000339746,4790390.7551,644,Playground,,,City,,-79.86416270032394,43.26068861890908
590991.3097,4788270.4096,645,Playground,,,City,,-79.87925735189123,43.241744687671066
592803.456799999810755,4788091.857499999925,646,Playground,,,City,,-79.85697145183237,43.23991636733344
591715.767799999564886,4788018.629399999976,647,Playground,,,City,,-79.87037775877481,43.23939015997378
590138.320899999700487,4787370.0491,648,Playground,,,City,,-79.88990887525509,43.23374116219245
592878.279699999839067,4786555.433599999174,649,Playground,,,City,,-79.85630878461355,43.22607484677476
593482.3092,4787680.2169,650,Playground,,,City,,-79.84868169321992,43.236126569061625
591328.297899999655783,4784002.5469,651,Playground,,,City,,-79.87581374375603,43.20328037603902
582372.713200000114739,4805315.846899999306,652,Baseball,,Flamborough,City,,-79.98283866812547,43.396198319377085
582448.173899999819696,4805158.684499999508,653,Baseball,,Flamborough,City,,-79.98193069296943,43.39477508820622
582560.513799999840558,4805305.0668,654,Tennis,,Flamborough,City,,-79.98052164077366,43.396080617879484
577402.521099999547005,4805699.3914,655,Soccer,,Wentworth,City,,-80.0441490473763,43.40018081868416
577450.464200000278652,4805699.107699999586,656,Soccer,,Wentworth,City,,-80.04355711523279,43.400173314895774
594941.675699999555945,4788059.626399999484,552,Tennis,,Lower Hamilton,City,,-79.83064660735721,43.23936004683849
594929.0981,4788067.4046,553,Tennis,,Lower Hamilton,City,,-79.83080014859085,43.23943165616255
594916.520600000396371,4788076.341299999505,554,Tennis,,Lower Hamilton,City,,-79.83095349076457,43.23951369469834
594903.943,4788084.7815,555,Tennis,,Lower Hamilton,City,,-79.83110691880765,43.23959126328286
594882.759800000116229,4788053.8341,556,Tennis,,Lower Hamilton,City,,-79.83137309652784,43.23931531425441
594895.6683,4788045.22839999944,557,Tennis,,Lower Hamilton,City,,-79.83121562151446,43.23923621446379
594906.921900000423193,4788037.6157,558,Tennis,,Lower Hamilton,City,,-79.8310783549302,43.239166262220465
594919.499499999918,4788029.01,559,Tennis,,Lower Hamilton,City,,-79.8309249564683,43.23908720368822
583170.5822,4806586.4799,560,Tennis,,Flamborough,City,,-79.9727946352617,43.40754978967155
583184.057300000451505,4806591.444499999285,561,Tennis,,Flamborough,City,,-79.97262748044216,43.40759299032358
588768.147599999792874,4797697.438899999484,562,Soccer,,Flamborough,City,,-79.9051139471439,43.32688117083416
588422.4753,4797860.5588,563,Basketball,,Flamborough,School,,-79.90935050874072,43.32839046036218
574827.921900000423193,4801728.911499999464,564,Basketball,,Wentworth,Other,,-80.07648170234783,43.36469464725135
592351.136699999682605,4786895.7412,565,Playground,,,City,,-79.86274173427537,43.22920332526644
590939.9254,4786381.351199999452,566,Playground,,,City,,-79.88020160424587,43.224743695528154
592279.796299999579787,4784719.602299999446,567,Playground,,,City,,-79.86398391759025,43.20962034116749
587569.9254,4784350.2397,568,Playground,,,City,,-79.92201330736614,43.206855924455965
588943.306099999696016,4787996.969499999657,569,Playground,,,City,,-79.90452221073042,43.23952722267776
588016.0367,4786791.321799999103,570,Playground,,,City,,-79.9161333942773,43.22878143761262
588369.047500000335276,4785981.041899999604,571,Playground,,,City,,-79.91191680603141,43.22144513446478
589339.312599999830127,4785638.606499999762,572,Playground,,,City,,-79.90002756181515,43.2182479175667
589188.838399999774992,4783876.606499999762,573,Playground,,,City,,-79.90216450271616,43.202402249414526
587226.141499999911,4787954.298699999228,574,Playground,,Hamilton Mountain,City,,-79.92567488255725,43.23934361433656
588203.459300000220537,4784952.286,575,Playground,,,City,,-79.91411970506837,43.21220248548985
587551.0943,4786196.7901,576,Playground,,,City,,-79.92195223370425,43.22348288610556
594241.287100000306964,4784855.3286,577,Playground,,,City,,-79.83981850407841,43.2105999680917
594488.433199999853969,4786222.0061,578,Playground,,,City,,-79.83654263121001,43.222873120312585
594816.842000000178814,4786938.5346,579,Playground,,,City,,-79.83237654963072,43.22928273367959
593359.5608,4785382.786599999294,580,Playground,,,City,,-79.85058188115978,43.21545819521337
594978.573800000362098,4784825.570399999619,581,Playground,,,City,,-79.83074891152054,43.21023966004928
594529.493200000375509,4787826.8333,582,Playground,,,City,,-79.8357621491584,43.23731602153889
594240.3591,4787613.795199999586,583,Playground,,,City,,-79.83935885140232,43.235434250578294
595574.5948,4786645.9045,584,Playground,,,City,,-79.8230978071304,43.22655262178046
593004.794800000265241,4783450.291699999943,585,Playground,,,City,,-79.85527423195715,43.19810381231005
593814.60329999961,4784001.528699999675,586,Playground,,,City,,-79.8452152829895,43.20296641019216
593140.230899999849498,4784316.2749,587,Playground,,,City,,-79.85346157448778,43.20588353897411
593834.000599999912,4783307.35339999944,588,Playground,,,City,,-79.84509446080942,43.19671438027886
595260.343999999575317,4783902.0754,589,Playground,,,City,,-79.82744011652453,43.201890047064424
599340.492999999783933,4781436.7934,590,Playground,,,City,,-79.77767157296286,43.17917005245131
602282.584300000220537,4785955.593399999663,591,Playground,,,City,,-79.74064273346914,43.2194585492399
602163.197300000116229,4785442.93099999987,592,Playground,,,City,,-79.74220722067204,43.21485943911127
604223.913800000213087,4785369.3209,593,Playground,,,City,,-79.7168565692051,43.21391504313611
602681.320199999958,4786954.424799999222,594,Playground,,,City,,-79.73554859747836,43.22839642532373
603515.749499999918,4786583.6641,595,Playground,,,City,,-79.72534520541075,43.22494462823827
600717.468399999663234,4785834.3494,596,Playground,,,City,,-79.75993093163531,43.2185775273103
610086.550499999895692,4786329.3483,597,Playground,,,City,,-79.6445070561323,43.221725211323445
604734.479399999603629,4785058.8143,598,Playground,,,City,,-79.71063124099325,43.211049049733845
598516.824099999852479,4782295.6213,599,Playground,,,City,,-79.78765111286013,43.18700971096611
602905.9353,4785486.4528,600,Playground,,,City,,-79.73305699737163,43.21515035446732
597443.25760000012815,4784039.5041,601,Playground,,,City,,-79.80055209150613,43.20284877063344
604972.661600000225008,4785684.5239,602,Playground,,,City,,-79.70758078465325,43.21664889310654
609990.799200000241399,4784974.4199,603,Playground,,,City,,-79.64595566541126,43.20954179540882
587616.218799999915,4787911.675499999896,604,Bocce,,Hamilton Mountain,,,-79.92087808249623,43.23891465622115
587620.775100000202656,4787913.0424,605,Bocce,,Hamilton Mountain,,,-79.9208217579273,43.23892643306862
587625.422500000335276,4787914.500399999321,606,Bocce,,Hamilton Mountain,,,-79.92076429670814,43.23893901971272
587630.525500000454485,4787916.049499999732,607,Bocce,,Hamilton Mountain,,,-79.92070121024454,43.23895237379909
602155.602099999785423,4785394.67659999989,608,Bocce,,Lower Stoney Creek,,,-79.74230963716975,43.21442605278152
602154.365500000305474,4785390.3485,609,Bocce,,Lower Stoney Creek,,,-79.74232565879691,43.21438725614721
587066.736200000159442,4789441.728599999,610,Basketball,,West Hamilton/Dundas,City,,-79.92740290958464,43.25275354558113
600001.292399999685585,4790587.9649,611,Basketball,,Lower Stoney Creek,City,,-79.76788457584405,43.261467787172194
594981.853900000452995,4789516.9778,612,Football,,Lower Hamilton,City,,-79.82990072100284,43.25247526161653
587891.367999999783933,4790936.571,613,Football,,West Hamilton/Dundas,School,,-79.91700730574935,43.266116019775396
598878.3695,4783839.7496,614,Soccer,,Upper Stoney Creek,City,,-79.78292665291542,43.200863883408914
600452.684600000269711,4785723.584599999711,615,Baseball,,Lower Stoney Creek,City,,-79.76321045461623,43.217615639241615
596144.404500000178814,4787847.8603,616,Basketball,,Lower Hamilton,School,,-79.81587315108814,43.2373011943423
598440.996199999936,4785868.230699999258,617,Baseball,,Lower Stoney Creek,School,,-79.78794739822881,43.219182912329586
598635.2571,4785847.6215,618,Soccer,,Lower Stoney Creek,School,,-79.78555977393606,43.21897200984885
598516.372499999590218,4785847.6215,619,Soccer,,Lower Stoney Creek,School,,-79.78702321153489,43.21898753776245
598470.955900000408292,4785859.8344,620,Soccer,,Lower Stoney Creek,School,,-79.7875800990825,43.21910341392549
601109.514700000174344,4782799.628499999642,423,Baseball,,Upper Stoney Creek,Other,,-79.75566053663213,43.19120461214174
601289.939500000327826,4782917.074799999595,424,Soccer,,Upper Stoney Creek,Other,,-79.7534190685942,43.192237770852174
601278.592000000178814,4783215.513299999759,425,Tennis,,Upper Stoney Creek,Other,,-79.75350400153452,43.19492602941973
601292.7763,4783211.541699999943,426,Tennis,,Upper Stoney Creek,Other,,-79.75333019488336,43.19488837237919
601306.960699999704957,4783207.5701,427,Tennis,,Upper Stoney Creek,Other,,-79.75315638845161,43.19485071507705
601320.5777000002563,4783202.4637,428,Tennis,,Upper Stoney Creek,Other,,-79.75298977164998,43.1948029178928
602411.790199999697506,4782128.0778,429,Baseball,,Upper Stoney Creek,City,,-79.73976180810526,43.18498348254101
602392.902800000272691,4782019.789799999446,430,Baseball,,Upper Stoney Creek,City,,-79.74001422671066,43.18401116748587
602735.394799999892712,4781759.1433,431,Baseball,,Upper Stoney Creek,City,,-79.73584915219627,43.181618182692524
602703.91579999961,4781651.485,432,Soccer,,Upper Stoney Creek,City,,-79.7362564001289,43.180653255508886
602741.375799999572337,4781639.2082,433,Soccer,,Upper Stoney Creek,City,,-79.73579785491765,43.18053764023472
602806.537499999627471,4781691.7782,434,Soccer,,Upper Stoney Creek,School,,-79.73498647963143,43.1810020457688
609950.329,4785069.8318,435,Baseball,,Lower Stoney Creek,City,,-79.64643474221587,43.21040661198373
607094.737999999895692,4784703.308599999174,436,Soccer,,Lower Stoney Creek,Other,,-79.68165089072673,43.20751751988725
605592.773400000296533,4787597.6686,437,Baseball,,Lower Stoney Creek,City,,-79.69958180921213,43.23378531176703
605517.085199999623001,4787590.8651,438,Soccer,,Lower Stoney Creek,City,,-79.70051500690712,43.2337346556428
605560.0318,4787621.0554,439,Basketball,,Lower Stoney Creek,City,,-79.699980456765,43.23400043163125
604730.438,4785937.6304,440,Soccer,,Lower Stoney Creek,School,,-79.71051426943542,43.21896112317704
604808.677500000223517,4785744.5829,441,Soccer,,Lower Stoney Creek,City,,-79.70958784545552,43.21721236032427
604866.506699999794364,4785728.424799999222,442,Soccer,,Lower Stoney Creek,City,,-79.708879094862,43.217058864710644
605162.881299999542534,4785624.672399999574,443,Soccer,,Lower Stoney Creek,City,,-79.7052507947451,43.2160836037804
605153.1014,4785730.1256,444,Soccer,,Lower Stoney Creek,City,,-79.70535108669465,43.21703430339885
605250.050300000235438,4785727.1491,445,Soccer,,Lower Stoney Creek,City,,-79.70415831430238,43.21699399472283
605238.144299999810755,4785675.2729,446,Soccer,,Lower Stoney Creek,City,,-79.70431475430911,43.21652864248093
605275.988400000147521,4785782.852299999446,447,Soccer,,Lower Stoney Creek,City,,-79.70382842057869,43.217491841311286
605308.730000000447035,4785774.348,448,Soccer,,Lower Stoney Creek,City,,-79.7034270261927,43.21741071436625
605252.176400000229478,4785790.5061,449,Soccer,,Lower Stoney Creek,City,,-79.70412006437465,43.21756406574374
604214.652499999850988,4785449.0587,450,Baseball,,Lower Stoney Creek,City,,-79.71695550897408,43.214634161144154
603479.668899999931,4786751.066099999472,451,Soccer,,Lower Stoney Creek,City,,-79.72575798536603,43.22645661395356
603434.596199999563396,4786657.518899999559,452,Baseball,,Lower Stoney Creek,City,,-79.72633041037379,43.225620634745894
603352.104500000365078,4787212.4241,453,Soccer,,Lower Stoney Creek,School,,-79.72724199624145,43.23062747474457
603273.227199999616,4785586.6157,454,Baseball,,Lower Stoney Creek,School,,-79.72851737611204,43.21600191060601
577507.4852,4805660.5263,657,Baseball,,Wentworth,City,,-80.04285852209202,43.39982006793197
577666.9172,4805973.716499999166,658,Baseball,,Wentworth,City,,-80.04084547985872,43.402623285649014
577698.973799999803305,4805902.227499999106,659,Tennis,,Wentworth,City,,-80.04045980734925,43.401976335219175
571844.5301,4794469.6509,660,Soccer,,Wentworth,City,,-80.11424841402044,43.29962737390486
571923.394999999552965,4794403.2682,661,Soccer,,Wentworth,City,,-80.11328491022799,43.299022161800984
571961.409,4794356.1762,662,Soccer,,Wentworth,City,,-80.1128224704499,43.29859453333833
572115.1672,4794444.686499999836,663,Baseball,,Wentworth,City,,-80.11091547107421,43.29937672084756
571832.615199999883771,4794290.9282,664,Soccer,,Wentworth,City,,-80.11441864704835,43.298019374467614
572171.337199999951,4794316.4601,665,Tennis,,Wentworth,City,,-80.11023988707873,43.29821684584939
572190.627899999730289,4794319.2969,666,Tennis,,Wentworth,City,,-80.11000171841206,43.2982405375589
571982.969200000166893,4794603.5511,667,Soccer,,Wentworth,City,,-80.1125243005421,43.30081971969985
572082.259600000455976,4794627.38069999963,668,Soccer,,Wentworth,City,,-80.11129717203701,43.301024767068455
588528.148599999957,4779125.601299999282,669,Baseball,,Glanbrook,City,,-79.91105610148837,43.15970586701338
588552.829300000332296,4779160.7784,670,Tennis,,Glanbrook,City,,-79.91074694214382,43.160019684738046
577631.740000000223517,4809466.468,671,Baseball,,Flamborough,City,,-80.04078353209658,43.434072749384164
600011.806300000287592,4789901.539899999276,672,Baseball,,Lower Hamilton,City,,-79.76787969037466,43.25528678448154
600071.605000000447035,4789824.4659,673,Baseball,,Lower Hamilton,City,,-79.7671571513987,43.25458498192276
597984.960699999704957,4793897.425599999726,674,Baseball,,Lower Hamilton,City,,-79.79213308190144,43.29152656964953
581708.736100000329316,4791430.3947,675,Baseball,,Wentworth,City,,-79.99310409343738,43.27125789303203
581952.4161,4791870.9122,676,Baseball,,Wentworth,City,,-79.9900360956251,43.27519751566621
581914.543499999679625,4791791.845,677,Baseball,,Wentworth,City,,-79.99051452563882,43.27448977268205
582018.8591,4791821.0799,678,Tennis,,Wentworth,City,,-79.98922481695263,43.27474163084754
582032.147699999623001,4791824.7343,679,Tennis,,Wentworth,City,,-79.98906053251456,43.274773084952145
582047.42960000038147,4791828.720899999142,680,Tennis,,Wentworth,City,,-79.98887163739828,43.27480731271671
582451.403400000184774,4792658.92689999938,681,Baseball,,Wentworth,School,,-79.98376955194605,43.2822377384264
564122.127600000239909,4797054.526,682,Baseball,,Wentworth,City,,-80.20914463558428,43.32359852199376
564166.874699999578297,4796975.9162,683,Baseball,,Wentworth,City,,-80.20860198369238,43.322886924998244
574767.334800000302494,4801768.206599999219,684,Tennis,,Wentworth,Other,,-80.07722400377648,43.36505446960055
574780.396099999547005,4801775.221,685,Tennis,,Wentworth,Other,,-80.07706186459126,43.36511632202019
574811.5981,4801759.257099999115,686,Tennis,,Wentworth,Other,,-80.07667899914992,43.36496948616849
574829.980700000189245,4801767.23909999989,687,Tennis,,Wentworth,Other,,-80.07645106092049,43.36503951829844
584329.904699999839067,4798470.468399999663,688,Baseball,,Wentworth,City,,-79.95972834391452,43.33435171090479
584416.0126,4798483.046,689,Baseball,,Wentworth,City,,-79.9586643767798,43.3344552823009
586115.917500000447035,4801444.5764,690,Baseball,,Flamborough,City,,-79.93723314319907,43.36092508558375
586291.761400000192225,4801517.62299999967,691,Tennis,,Flamborough,Other,,-79.93505189672678,43.36156253644865
586597.00899999961,4801277.9238,692,Soccer,,Flamborough,School,,-79.93132328375458,43.35936939933656
586457.204599999822676,4801246.4799,693,Baseball,,Flamborough,School,,-79.93305324884128,43.35910241834837
597789.955500000156462,4785878.996099999174,694,Baseball,,Lower Stoney Creek,City,,-79.79595967382804,43.219364468513966
608748.860000000335276,4785384.2763,695,Basketball,,Lower Stoney Creek,School,,-79.66115975301129,43.213411357372095
608688.105000000447035,4785370.8767,696,Soccer,,Lower Stoney Creek,School,,-79.66191016478857,43.21329948018719
591036.2027000002563,4782974.848799999803,697,Baseball,,Hamilton Mountain,City,,-79.87957787889852,43.19406322842914
587943.330699999816716,4799513.893799999729,698,Basketball,,Flamborough,School,,-79.91499447506291,43.34333153989952
587980.336199999786913,4799492.2166,699,Basketball,,Flamborough,School,,-79.91454147584922,43.343132049619776
586782.465300000272691,4784650.661599999294,700,Baseball,,Ancaster,School,,-79.93165808190692,43.209651602240335
586830.536100000143051,4784536.9241,701,Soccer,,Ancaster,School,,-79.93108428686536,43.20862207518907
585163.475599999539554,4785000.2182,702,Tennis,,Ancaster,School,,-79.95153155671044,43.21298311754453
585178.3503,4785002.757799999788,703,Tennis,,Ancaster,School,,-79.95134806827402,43.213004303780096
585172.182699999772012,4785151.8681,704,Soccer,,Ancaster,School,,-79.95140098324462,43.214347475953005
596048.800300000235438,4781662.877299999818,705,Football,,Glanbrook,School,,-79.818126130969,43.18163097117627
593477.100999999791384,4782510.194,706,Playground,,Hamilton Mountain,School,,-79.8496211242923,43.18958183564394
591902.554100000299513,4782973.9415,707,Playground,,Hamilton Mountain,City,,-79.86891749354801,43.193950150820264
591705.2823,4782982.830099999905,708,Basketball,,Hamilton Mountain,School,,-79.8713434621322,43.19405415057526
591740.473799999803305,4782930.949899999425,709,Soccer,,Hamilton Mountain,School,,-79.87091903965072,43.19358279789451
591809.949699999764562,4782959.248199999332,710,Soccer,,Hamilton Mountain,School,,-79.87005943743036,43.193829127323816
590676.112800000235438,4784180.066199999303,711,Playground,,Hamilton Mountain,City,,-79.88381103878139,43.20495718975657
587645.4331,4787108.129499999806,712,Soccer,,Hamilton Mountain,School,,-79.92064603243394,43.2316768417946
587244.020700000226498,4787898.38069999963,713,Basketball,,Hamilton Mountain,City,,-79.92546355823337,43.238838109564846
