X,Y,OBJECTID,NAME,DENOMINATION,ADDRESS,COMMUNITY,LONGITUDE,LATITUDE
600389.400000000372529,4787447.29,26,St. Gregory The Great Church (Slovenian),Roman Catholic,125 CENTENNIAL PKY N,HAMILTON,-79.7636758410092,43.23314194996647
586559.740000000223517,4789102.34,27,Hamilton Mennonite Church,Mennonite Brethren,143 LOWER HORNING RD,HAMILTON,-79.93370097271001,43.24975637409901
591784.338399999774992,4790717.2145,28,St. Cyril And Methodius Slovak Roman Catholic Church,Roman Catholic,204 PARK ST N,HAMILTON,-79.86908387051166,43.26367700855353
591822.0,4787551.98,29,Transfiguration Lutheran Church,Lutheran,232 FENNELL AVE E,HAMILTON,-79.86914729709689,43.23517600787627
590362.650000000372529,4789574.89,30,St. John The Evangelist Anglican Church,Anglican,320 CHARLTON AVE W,HAMILTON,-79.88678525825479,43.25356451272959
593564.58,4788969.94,31,Jehovah's Witnesses (Victoria Congregation),Jehovah's Witnesses,57 DELAWARE AVE,HAMILTON,-79.8474497717859,43.24772759449581
595936.660000000149012,4786232.44,32,Elliott Heights Baptist Church,Baptist,1300 FENNELL AVE E,HAMILTON,-79.81871216276042,43.22278432632935
597884.910000000149012,4787533.17,33,St. Eugene's Church,Roman Catholic,232 QUEENSTON RD,HAMILTON,-79.79449732912552,43.234244249910404
597194.519999999552965,4789071.51,34,Slovak Assumption Byzantine Catholic Church,Slovak,1406 BARTON ST E,HAMILTON,-79.8027268126334,43.24818279935216
589389.589999999850988,4787331.78,35,Westmount Baptist Church,Baptist,207 WEST 19TH ST,HAMILTON,-79.89913433510378,43.233485722618674
592260.269999999552965,4791562.6,36,Calvin Grace Community Church,Presbyterian,541 JAMES ST N,HAMILTON,-79.86307917326063,43.27122980178574
595813.036199999973,4787950.039499999955,37,St. John The Baptist Roman Catholic Church,Roman Catholic,128 EDGEMONT ST,HAMILTON,-79.81993572113774,43.23826326057415
592757.72,4789518.65,38,Christ Evangelical Lutheran Lativian Church,Lutheran,18 VICTORIA AVE S,HAMILTON,-79.85729455337581,43.25276727481409
595941.67,4788954.46,39,Laidlaw United Church,United,155 OTTAWA ST N,HAMILTON,-79.81817695410632,43.24728949373716
592824.599999999627471,4789509.61,40,St. Patrick's Church,Roman Catholic,420 KING ST E,HAMILTON,-79.85647232579647,43.252677656102236
591989.057900000363588,4790767.7672,41,All Souls Church,Roman Catholic,21 BARTON ST W,HAMILTON,-79.86655346767037,43.26410716587746
601437.72,4785712.53,42,Church Of Christ (Stoney Creek),Non-denominational,105 KING ST E,STONEY CREEK,-79.75108738354565,43.21738437525757
601065.33,4788118.67,43,Sikh Society Hamilton,Sikh,86 COVINGTON ST,HAMILTON,-79.7552304511542,43.23909585181181
590433.059999999590218,4790640.02,44,St. Demetrios Greek Orthodox Church,Greek Orthodox,22 HEAD ST,HAMILTON,-79.88574314393841,43.26314540977857
604228.610000000335276,4785610.5,45,Our Saviour Anglican Church,Anglican,482 HWY 8,STONEY CREEK,-79.71675323368007,43.21608560700792
595696.549999999813735,4789349.08,46,St. Naum Of Ohrid Macedonian Orthodox Church,Orthodox,235 KENSINGTON AVE N,HAMILTON,-79.82112722570832,43.25087332513616
591355.610000000335276,4787909.17,47,St. Peter And Paul Church,Roman Catholic,50 BRUCEDALE AVE E,HAMILTON,-79.87483095649131,43.23844841265185
591360.400000000372529,4788067.92,48,Olivet United Church,United,40 EMPRESS AV,HAMILTON,-79.87474566853118,43.23987705448475
583889.849000000394881,4790903.6432,49,Jehovah's Witnesses (Christian Science Society),Jehovah's Witnesses,245 MILL ST,DUNDAS,-79.96631076359584,43.266275716901845
599091.559999999590218,4787990.39,50,St. Peter Yu Roman Catholic Church,Roman Catholic,6 HEATH ST,HAMILTON,-79.77955794833453,43.23820290356479
593115.639999999664724,4785810.82,102,Mountain Church Of The Nazarene,Church of the Nazarene,910 UPPER SHERMAN AVE,HAMILTON,-79.85351217512256,43.21934188559848
595941.480000000447035,4789283.18,103,Templo Nueva Vida,Pentecostal Assemblies of Canada,279 GROSVENOR AVE N,HAMILTON,-79.81812206852187,43.25024891112737
591678.879999999888241,4789850.71,104,Centenary United Church,United,24 MAIN ST W,HAMILTON,-79.87052724929282,43.255888769212326
598255.17,4787370.71,105,Fairfield - St. David's United Church,United,93 DELENA AVE S,HAMILTON,-79.78996732470745,43.232733531388405
588835.798399999738,4787236.310699999332,106,Jesus First Assembly (Peoples Church),Pentecostal Assemblies of Canada,510 MOHAWK RD W,HAMILTON,-79.90596863548666,43.23269162742972
593893.58,4790129.71,107,Hamilton Korean Presbyterian Church,Presbyterian,200 SANFORD AVE N,HAMILTON,-79.84320024962734,43.258127933045415
589687.803000000305474,4784561.9899,108,Parkview Church,Non-denominational,1136 WEST 5TH ST,HAMILTON,-79.89591251446427,43.20851372159711
594084.429999999701977,4790062.17,109,Ridgecrest Southern Baptist Church,Baptist,582 BARTON ST E,HAMILTON,-79.84086092198253,43.2574960811658
587657.821600000374019,4789954.639,110,Canadian Martyrs Catholic Church,Roman Catholic,38 EMERSON,HAMILTON,-79.92004083628962,43.25730281960238
589176.5777000002563,4785155.010299999267,111,Jehovah's Witnesses (Stone Church),Jehovah's Witnesses,277 STONE CHURCH RD W,HAMILTON,-79.90210896309547,43.21391330235237
594090.230000000447035,4789971.65,112,John Calvin Hungarian Presbyterian Church,Presbyterian,121 BIRCH AVE,HAMILTON,-79.84080494005879,43.2566804202944
594499.860000000335276,4789886.04,113,St. Ann's Church,Roman Catholic,120 SHERMAN AV N,HAMILTON,-79.83577398858776,43.25585844154404
594586.690000000409782,4789864.3,114,St. Stanislaus Roman Catholic Polish Church,Roman Catholic,8 ST ANN ST,HAMILTON,-79.834708203709,43.25565182890083
594648.991499999538064,4789847.436,115,Church Of The Holy Spirit,Ukranian Catholic,15 ST. OLGA,HAMILTON,-79.83394371271814,43.2554921850018
588552.572800000198185,4784776.946699999273,116,West Highland Baptist Church,Baptist,1605 GARTH ST,HAMILTON,-79.90985062040227,43.21058301209431
592478.38260000012815,4783018.440899999812,117,Eternal Spring United Church,United,708 RYMAL RD E,HAMILTON,-79.86182445662101,43.194280500067215
587249.519999999552965,4784609.93,118,Rehoboth United Reformed Church,Reformed,78 FALCONRIDGE DR,HAMILTON,-79.92591579355992,43.20923105556698
589107.549999999813735,4786686.67,119,Living Hope Christian Assembly,Non-denominational,1045 GARTH ST,HAMILTON,-79.90271134465564,43.227711120848724
593549.650000000372529,4789728.12,120,Church Of God Of Prophecy,Other,64 WENTWORTH ST N,HAMILTON,-79.84750493262719,43.25455524242853
587049.900000000372529,4790001.44,121,Binkley United Church,United,1570 MAIN ST W,HAMILTON,-79.92752184561465,43.25779463209168
595663.22,4789062.51,122,Kensington Gospel Hall,Other,164 KENSINGTON AVE N,HAMILTON,-79.8215874733712,43.24829762630597
592503.642699999734759,4790588.7508,123,St. Stephen's Hungarian Roman Catholic Church,Roman Catholic,130 BARTON ST E,HAMILTON,-79.86024429000048,43.26243250565711
587459.929999999701977,4785966.98,124,Grace Mandarin Evangelical Church,Non-denominational,6 CASWELL DR,HAMILTON,-79.92311099947857,43.221424444011916
594045.349999999627471,4788465.3,125,Cumberland Christian Assembly,Pentacostal Assemblies of Canada,240 CUMBERLAND AVE,HAMILTON,-79.84161481950996,43.2431245757757
597594.870000000111759,4788884.67,126,Little Bethal Community Church,Baptist,320 PALING AVE,HAMILTON,-79.79782932016454,43.2464490153242
589164.523900000378489,4790650.5558,51,St. Cuthbert's Presbyterian Church,Presbyterian,2 BOND ST N,HAMILTON,-79.9013686688774,43.26339143296859
603051.97,4785972.55,52,St. Francis Xavier Church,Roman Catholic,304 HWY 8,STONEY CREEK,-79.73116875257055,43.21950653808082
591385.745199999772012,4788585.3133,53,Christ Church Unity,Unity,21 ROSEDENE AVE,HAMILTON,-79.87434779455447,43.24453205874158
591454.349999999627471,4787649.8,54,Holy Trinity Anglican Church,Anglican,120 FENNELL AVE E,HAMILTON,-79.873658084643,43.23610134488372
590959.269999999552965,4789325.25,55,Central Presbyterian Church,Presbyterian,165 CHARLTON AV W,HAMILTON,-79.8794778346954,43.25124525566974
599360.0,4788199.15,56,St. Mina's Coptic Orthodox Church,Orthodox,480 MELVIN AVE,HAMILTON,-79.77621487939716,43.24004698144759
597180.04,4787320.82,57,Hamilton East Seventh-Day Adventist Church,Seventh Day Adventist,203 BELL AVE,HAMILTON,-79.80321371383505,43.2324236547614
594458.990000000223517,4790042.04,58,Generation Now Ministries,Non-denominational,177 SHERMAN AVE N,HAMILTON,-79.83625065117585,43.25726800508439
589729.564600000157952,4783608.029899999499,59,Corpus Christi Church,Roman Catholic,1694 UPPER JAMES ST,HAMILTON,-79.89555347380926,43.19992017013724
586885.96,4789406.33,60,Westside Baptist Church,Baptist,261 WHITNEY AVE,HAMILTON,-79.92963513789472,43.2524557063636
595879.639999999664724,4781775.65,61,Trinity United Church,United,10 TRINITY CHURCH RD,HAMILTON,-79.82018765146998,43.18266773241529
591804.22,4776293.47,62,Case United Church,United,6180 WHITE CHURCH RD,GLANBROOK,-79.87123550245718,43.133817293216445
588469.20990000013262,4790029.9089,63,Grace Lutheran Church,Lutheran,1107 MAIN ST W,HAMILTON,-79.91003407300654,43.25788567471654
590506.36780000012368,4786158.352,64,New Testament Baptist Church,Baptist,21 JAMESTON AVE,HAMILTON,-79.88557584395734,43.22278815507466
599211.620000000111759,4789629.5,65,Hamilton Buddhist Temple,Buddhism,671 TATE AVE,HAMILTON,-79.77778456053893,43.252943454810755
603142.820000000298023,4781729.15,66,Tapleytown United Church,United,413 MUD ST E,STONEY CREEK,-79.73084261498961,43.181292666840044
593052.629999999888241,4789776.43,67,Emerald Full Gospel Temple,Non-Denominational,73 EMERALD ST N,HAMILTON,-79.85361865951698,43.25505169201914
590272.929999999701977,4789345.4,68,Stanley Avenue Baptist Church,Baptist,115 STANLEY AVE,HAMILTON,-79.88792794974368,43.25150916599678
594209.777300000190735,4783325.605,69,The Life Centre,Non-denominational,1439 UPPER OTTAWA ST,HAMILTON,-79.84046722929594,43.19683192063053
597192.980000000447035,4788682.0,70,St. Alban The Martyr Anglican Church,Anglican,200 COPE ST,HAMILTON,-79.80281446313978,43.24467634384989
595871.099999999627471,4788701.27,71,East Hamilton Spiritual Church,Spiritualists,83 OTTAWA ST N,HAMILTON,-79.81909010262395,43.24501905509885
593925.25,4790981.67,72,St. David's Presbyterian Church,Presbyterian,474 WENTWORTH ST N,HAMILTON,-79.8426648470347,43.2657940435262
601634.480000000447035,4782126.79,73,Jehovah's Witnesses (Tapelytown Congregation),Jehovah's Witnesses,218 MUD ST,STONEY CREEK,-79.749325069081,43.185076842431876
607119.75,4785211.53,74,Winona Gospel Church,Other,218 GLOVER RD,STONEY CREEK,-79.68124448693914,43.21208916911465
592476.712500000372529,4786198.543199999258,75,Church Of The Resurrection,Ukranian Catholic,18 MALL RD,HAMILTON,-79.86131248437205,43.22291110337403
597785.599999999627471,4783430.59,76,Paramount Drive Alliance Church,Alliance,1035 PARAMOUNT DR,STONEY CREEK,-79.79644681407208,43.197322594797555
594284.480000000447035,4782563.75,77,Life Christian Church,Non-denominational,1205 RYMAL RD E,HAMILTON,-79.83967794261241,43.18996366764987
595933.03000000026077,4788725.22,78,First Church Of The Nazarene,Church of the Nazarene,92 OTTAWA ST N,HAMILTON,-79.81832325940414,43.24522679509826
592672.785500000230968,4786166.184,79,Our Lady Of Lourdes Church,Roman Catholic,416 MOHAWK RD E,HAMILTON,-79.85890409410167,43.22259572086167
597036.339999999850988,4775036.44,80,Binbrook Baptist Church,Baptist,3084 BINBROOK RD,GLANBROOK,-79.80713803598232,43.12184769681197
592479.389999999664724,4789739.11,81,Church Of Jesus Christ Of Latter-Day Saints,Jesus Christ of Latter-Day Saints,1 JARVIS ST,HAMILTON,-79.86068570024302,43.254786252712115
594245.429999999701977,4786574.12,82,Japanese United Church (Hamilton),United,715 UPPER GAGE AVE,HAMILTON,-79.83947404204261,43.22607355052409
588310.179999999701977,4787232.97,83,Regina Mundi Roman Catholic Church,Roman Catholic,631 MOHAWK RD W,HAMILTON,-79.91244112377015,43.23272326782324
595657.08,4788255.63,84,Grace Anglican Church (Hamilton),Anglican,1401 KING ST E,HAMILTON,-79.82180311298177,43.24103422879674
590420.78000000026077,4787048.18,85,West Fifth Bible Chapel,Other,440 WEST 5TH ST,HAMILTON,-79.88648368029354,43.23080956266782
592891.08,4790131.24,86,West Avenue Christian Church,Pentecostal,168 WEST AVE N,HAMILTON,-79.85554869077839,43.25826593199122
597135.450000000186265,4788223.45,87,St. Paul's United Church (Hamilton),United,42 TRAGINA AVE N,HAMILTON,-79.80360373861072,43.240555550450665
589929.0,4789299.6,88,St. Boniface German Roman Catholic Church,Roman Catholic,420 ABERDEEN AVE,HAMILTON,-79.89217151890365,43.25113793502326
593095.129999999888241,4789576.91,89,St. John And St. Andrew,Presbyterian,19 TISDALE ST N,HAMILTON,-79.8531288873936,43.25325018915481
593985.28000000026077,4789109.94,90,St. Giles United Church,United,85 HOLTON AVE S,HAMILTON,-79.84224465241995,43.248935668994065
590485.33,4786853.44,91,Immanuel Christian Reformed Church,Christian Reformed,61 MOHAWK RD W,HAMILTON,-79.8857208485107,43.22904857461866
590320.480000000447035,4787598.34,92,Buchanan Park Free Methodist Church,Free Methodist,204 DELMAR DR,HAMILTON,-79.88762853606856,43.235774680377666
592267.944099999964,4788481.897299999371,93,Hamilton Mountain Seventh-Day Adventist Church,Seventh Day Adventist,284 CONCESSION ST,HAMILTON,-79.86350062523573,43.24349357752278
596086.660000000149012,4789485.42,94,St. James The Apostle Anglican Church,Anglican,437 OTTAWA ST N,HAMILTON,-79.81629874359663,43.25205114127404
595158.22,4786358.89,95,St. Margaret Mary Church,Roman Catholic,20 IDLEWOOD AVE,HAMILTON,-79.8282734760141,43.22402130146814
597013.570000000298023,4786530.29,96,Faith Gospel Church,Associated Gospel Churches,518 COCHRANE RD,HAMILTON,-79.80540239429494,43.225328123549176
597138.999200000427663,4781513.5719,97,Rymal Road Community Church,Free Methodist,1967 RYMAL RD,STONEY CREEK,-79.80474037824014,43.18014744734261
593391.700000000186265,4787090.64,98,Mount Olive Pentecostal Apostolic Church,Pentecostal,307 EAST 27TH ST,HAMILTON,-79.84989723759334,43.23082988897471
603548.21,4785833.81,99,Hope Community Church,Mennonite,380 HWY 8,STONEY CREEK,-79.72508628601587,43.218189607165016
593094.700000000186265,4785743.55,100,New Apostolic Church,Apostolic,922 UPPER SHERMAN AVE,HAMILTON,-79.85378129473402,43.21873884113475
589738.532399999909,4785187.1172,101,Church Of God In Hamilton,Pentecostal,186 ANNABELLE ST,HAMILTON,-79.89518653685948,43.21413576497139
585473.0548,4788655.9787,1,Woodvale Pentecostal Church,Pentecostal Assemblies of Canada,1221 WILSON ST E,ANCASTER,-79.94715445903444,43.24586169126199
599454.04,4786394.28,2,St. Nicholas Serbian Orthodox Cathedral And Hall,Orthodox,149 NASH RD S,HAMILTON,-79.77538230072318,43.22378594926756
588716.740000000223517,4790500.71,3,Westdale United Church,United,99 NORTH OVAL,HAMILTON,-79.90690914294568,43.26209521831371
589963.7027000002563,4784871.2815,4,St. Timothys Anglican Church,Anglican,63 STONE CHURCH RD W,HAMILTON,-79.89246632773519,43.21126547124193
593371.136599999852479,4787039.5461,5,Church Of Christ,Non-denominational,321 EAST 27TH ST,HAMILTON,-79.85015907051775,43.230372440913115
599946.059999999590218,4780699.67,6,Our Lady Of Assumption Church,Roman Catholic,63 REGIONAL RD 20,STONEY CREEK,-79.77035527041546,43.172454085166564
591937.129200000315905,4790084.450099999085,7,The Salvation Army - Hamilton Temple Corps,Salvation Army,28 REBECCA ST,HAMILTON,-79.86730724959216,43.257961657735194
590191.967000000178814,4784841.0098,8,Barton Stone United Church,United,21 STONE CHURCH RD W,HAMILTON,-79.88966165058807,43.21096569553497
590839.700000000186265,4789362.7,9,First Christian Reformed Church Of Hamilton - Laotian Worshipping,Christian Reformed,181 CHARLTON AVE W,HAMILTON,-79.88094436141813,43.25159683449235
591029.63300000037998,4790186.8976,10,All Saints Anglican Church,Anglican,15 QUEEN ST S,HAMILTON,-79.87846883059706,43.25899414115489
588660.770200000144541,4790506.485,11,Mission Baptist Church,Baptist,96 NORTH OVAL,HAMILTON,-79.90759770167436,43.26215379780191
591684.599999999627471,4789734.44,12,St. Paul's Presbyterian Church,Presbyterian,64 JAMES ST S,HAMILTON,-79.87047614239623,43.25484130231229
591683.5,4789680.19,13,James Street Baptist Church,Baptist,96 JAMES ST S,HAMILTON,-79.87049871930535,43.2543530267971
594106.269999999552965,4788530.47,14,Paroisse Notre-Dame Du Perpetuel Secours,Roman Catholic,132 BLAKE ST,HAMILTON,-79.84085347477644,43.24370369203393
595161.47,4789759.13,15,St. Vladimir Ukrainian Orthodox Church,Ukrainian Orthodox,855 BARTON ST E,HAMILTON,-79.82764662820388,43.2546326574208
594183.990000000223517,4789425.6,16,East Hamilton United Pentecostal Church,Pentecostal,887 KING ST E,HAMILTON,-79.8397433901726,43.25175270964905
590588.628399999812245,4790930.1184,17,Hamilton Christian Fellowship,Non-denominational,137 STRATHCONA AVE N,HAMILTON,-79.88377896606264,43.26573846844679
592958.911100000143051,4785285.9644,18,Pilgrim Lutheran Church,Lutheran,1054 UPPER SHERMAN AVE,HAMILTON,-79.85552991067567,43.214635959296245
594760.849999999627471,4789295.94,19,New Westminster Presbyterian Church,Presbyterian,1025 KING ST E,HAMILTON,-79.83266076644078,43.25051311199866
592823.049999999813735,4789756.92,20,Apostolic Christian Church,Apostolic,55 VICTORIA AVE N,HAMILTON,-79.85644975226481,43.25490435251051
581971.46,4784680.41,21,Bethel Baptist Church Of Ancaster,Baptist,237 MANITOU WAY,ANCASTER,-79.99087062901181,43.210457149332164
595821.240000000223517,4788264.1,22,Delta United Church,United,47 OTTAWA ST S,HAMILTON,-79.81978012204267,43.24108964201971
591526.950000000186265,4789598.99,23,Macnab Street Presbyterian Church,Presbyterian,116 MACNAB ST S,HAMILTON,-79.87244047027153,43.2536410130436
591729.6672,4790540.5635,24,St. Mary's Roman Catholic Church,Roman Catholic,146 PARK ST N,HAMILTON,-79.86978679404046,43.26209329066421
603910.179999999701977,4785911.12,25,Stoney Creek New Testament Church Of God,Pentecostal,184 MARGARET AVE,STONEY CREEK,-79.72061614681319,43.21883584229544
589839.855200000107288,4783322.944,299,Mount Calvary Baptist Church,Baptist,1759 UPPER JAMES ST,HAMILTON,-79.89424255121433,43.19734040230171
593233.847,4783926.23379999958,300,The Salvation Army - Mountain Citadel,Salvation Army,835 STONE CHURCH RD E,HAMILTON,-79.85237523796226,43.20236046161527
590355.990000000223517,4789282.56,301,Melrose United Church,United,86 HOMEWOOD AVE,HAMILTON,-79.88691522697906,43.2509334671788
591121.387199999764562,4784748.34259999916,302,Mount Hamilton Christian Reformed Church,Christian Reformed,1415 UPPER WELLINGTON,HAMILTON,-79.87823714383006,43.21001979775352
597922.629999999888241,4785755.14,303,St. Luke's Catholic Church,Roman Catholic,200 MOUNT ALBION RD,HAMILTON,-79.7943484443716,43.21823222049887
591776.889999999664724,4789145.83,304,Church Of The Ascension,Anglican,64 FOREST AV,HAMILTON,-79.86943741583879,43.24953085278276
598178.190000000409782,4788011.56,305,Victory International Church,Pentecostal Assemblies of Canada,92 PARKDALE AVE N,HAMILTON,-79.79080105571822,43.238512940542265
593962.440000000409782,4787565.7,306,Jesus Is Alive Community,Non-denominational,97 EAST 33RD ST,HAMILTON,-79.84278914419674,43.235035927155636
592455.829599999822676,4791545.4099,307,Welcome Inn Community Centre And Church,Mennonite Brethren,40 WOOD ST E,HAMILTON,-79.8606726521279,43.27105106588151
589589.349999999627471,4791381.82,308,First Reformed Church,Reformed,201 PARADISE RD N,HAMILTON,-79.8960161853782,43.269924612581875
588328.089999999850988,4779091.46,309,Mount Hope United Church,United,3076 HOMESTEAD DR,GLANBROOK,-79.91352194295797,43.15942187841052
596802.230000000447035,4788326.13,310,Garside Bible Church,Associated Gospel Churches,47 GARSIDE AVE N,HAMILTON,-79.80768903561322,43.241522799091584
592565.110000000335276,4786860.39,311,Hill Park Bible Church,Associated Gospel Churches,668 UPPER WENTWORTH,HAMILTON,-79.86011320250743,43.228858837711364
592642.907599999569356,4791319.185699999332,312,St. Lawrences Roman Catholic Church,Roman Catholic,475 MARY ST,HAMILTON,-79.85840581946263,43.26899141558189
581753.21,4785144.44,313,Calvary Pentecostal Tabernacle,Pentecostal Assemblies of Canada,125 WILSON ST W,ANCASTER,-79.9934883326243,43.21465864653568
595234.42,4789666.94,314,Holy Trinity Polish Church,Roman Catholic,880 BARTON ST E,HAMILTON,-79.82676403162968,43.25379347636488
595224.900000000372529,4789577.16,315,Bethany Gospel Chapel,Other,155 GAGE AVE N,HAMILTON,-79.82689680507538,43.252986407692134
587702.642799999564886,4789136.923699999228,316,Church Of God (German),Pentecostal,265 BOWMAN ST,HAMILTON,-79.91961889025869,43.24993564409577
588368.910000000149012,4787128.41,317,St. Andrews United Church,United,479 UPPER PARADISE RD,HAMILTON,-79.91173473077055,43.231775026313244
594089.580900000408292,4786780.4276,318,Blessed Sacrament Church,Roman Catholic,305 EAST 37TH ST,HAMILTON,-79.84135757980319,43.22795036478706
588447.843899999745,4790329.856499999762,319,St. Paul's Anglican Church,Anglican,1140 KING ST W,HAMILTON,-79.9102490971922,43.26058862473452
590044.299999999813735,4790012.23,320,First Unitarian Church Of Hamilton,Unitarian Universalist,170 DUNDURN ST S,HAMILTON,-79.89063494040232,43.25753997853816
591594.887000000104308,4790287.082299999893,321,Philpott Memorial Church,Associated Gospel Churches,84 YORK BLVD,HAMILTON,-79.87148927715666,43.25982761199047
588428.157100000418723,4789890.09789999947,322,Adas Israel Synagogue,Jewish (Orthodox),125 CLINE AVE S,HAMILTON,-79.91056220890437,43.25663176625014
575404.893000000156462,4782017.467299999669,323,Alberton Presbyterian Church,Presbyterian,528 ALBERTON RD,ANCASTER,-80.07206251030068,43.1871655679285
596390.950000000186265,4788208.32,127,Redeemer Lutheran Church,Lutheran,15 WEXFORD AVE S,HAMILTON,-79.81277429046587,43.240514864002144
598304.089999999850988,4787866.47,128,St. Mark's Syrian Orthodox Church,Orthodox,1202 DUNSMURE RD,HAMILTON,-79.78927662940825,43.23719033929558
595962.450899999588728,4789013.149199999869,129,The Apostolic Holiness Church,Apostolic,185 OTTAWA ST N,HAMILTON,-79.81791080671991,43.24781521478755
598266.110000000335276,4787737.27,130,Faith Church Of Jesus Christ,Church of Jesus Christ,1855 MAIN ST E,HAMILTON,-79.7897673150916,43.236032139096885
589501.411100000143051,4786246.29099999927,131,Annunciation Of Our Lord,Roman Catholic,280 LIMERIDGE RD W,HAMILTON,-79.8979335699869,43.22369973975164
596620.240000000223517,4789166.94,132,Ellis Avenue Bible Church,Associated Gospel Churches,80 ELLIS AVE,HAMILTON,-79.80978274553534,43.24911574611774
599778.72,4788061.82,133,Incarnation Of Our Blessed Lord,Roman Catholic,400 POTTRUFF RD N,HAMILTON,-79.77108365236558,43.238755367315946
603347.22,4786042.17,134,Church Of Jesus Christ Of Latter-Day Saints,Jesus Christ of Latter-Day Saints,345 HWY 8,STONEY CREEK,-79.727521317911,43.22009292057639
592138.17,4789420.19,135,Church Of God 7th Day,Other,140 HUNTER ST E,HAMILTON,-79.86494193414127,43.25195682814368
592733.860000000335276,4784091.95,136,Church Of Jesus Christ Of Latter-Day Saints,Jesus Christ of Latter-Day Saints,701 STONE CHURCH RD E,HAMILTON,-79.85850060866238,43.203913966377286
592553.559999999590218,4790406.31,137,Wesley Urban Ministries Inc.,Other,195 FERGUSON AVE N,HAMILTON,-79.85966002786205,43.26078388194504
594763.625199999660254,4785263.4394,138,Emmanuel United Church,United,871 UPPER OTTAWA ST,HAMILTON,-79.83331938744294,43.21420875584033
591222.559999999590218,4787173.63,139,Southgate Presbyterian,Presbyterian,120 CLARENDON,HAMILTON,-79.87659100453303,43.231842461794
599472.259999999776483,4786625.45,140,Eastgate Christian Fellowship,Other,105 NASH RD S,HAMILTON,-79.77511632782884,43.2258646958262
594293.099999999627471,4786215.0,141,Eastmount Presbyterian Church,Presbyterian,720 NINTH AVE,HAMILTON,-79.83894852504879,43.222834478973105
594471.183199999853969,4788830.520099999383,142,Ryerson United Church,United,842 MAIN ST E,HAMILTON,-79.83630816821137,43.24635936660031
592393.42,4787663.47,143,Panagia Greek Orthodox Church Of The Dormition Of,Orthodox,233 EAST 15TH ST,HAMILTON,-79.86209253515128,43.236109967884964
577345.200000000186265,4809573.26,144,Mountsberg Baptist Church,Baptist,241 CAMPBELLVILLE RD,FLAMBOROUGH,-80.04430839921193,43.43506385539553
596661.269999999552965,4787294.89,145,St. Mary's Anglican Church,Anglican,1831 KING ST E,HAMILTON,-79.80960562988648,43.232256864689035
589249.02350000012666,4787023.9571,146,St. Bartholomew's Anglican Church,Anglican,435 MOHAWK RD W,HAMILTON,-79.90091495829539,43.230731017622354
598334.0833,4782965.5875,147,Heritage Green Seventh-Day Adventist Church,Seventh Day Adventist,349 ISAAC BROCK DR,STONEY CREEK,-79.78978024969821,43.193065073811404
596785.129999999888241,4787280.25,148,Holy Cross Croatian Church,Roman Catholic,1883 KING ST E,HAMILTON,-79.80808317235585,43.232109183006
597092.190000000409782,4783555.94,149,Mount Albion Pentecostal Church,Pentecostal Assemblies of Canada,1267 PARAMOUNT DR,STONEY CREEK,-79.80495750910617,43.19854055468065
591295.552400000393391,4790799.2354,150,Hess St Baptist Mission,Baptist,179 HESS ST N,HAMILTON,-79.87509168206672,43.264474815181885
594841.379999999888241,4790002.99,151,St. Shmooni Church,Other,100 CLINTON ST,HAMILTON,-79.8315472293626,43.256868425007966
596869.2708,4787259.760399999097,152,Faith Lutheran Church,Lutheran,1907 KING ST E,HAMILTON,-79.80705078957494,43.23191392008867
597046.986499999649823,4787130.389699999243,153,Pioneer Memorial United Church,United,1974 KING ST E,HAMILTON,-79.80488544037436,43.23072638459458
595568.0,4789896.69,154,Fah Hoy Temple,Buddhist,29 LINDEN ST,HAMILTON,-79.82261550526073,43.25581964773125
590953.928799999878,4785664.2992,155,Mountain View Christian Church,Non-denominational,118 LIMERIDGE RD E,HAMILTON,-79.88014737945457,43.21828637559598
592739.900000000372529,4789637.04,156,West Avenue Christadelphian Church,Christadelphian,20 WEST AVE N,HAMILTON,-79.85749411255001,43.25383532032065
586563.972,4789237.5754,157,Quakers The Religious Society Of Friends,Religious Society of Friends,7 BUTTY PL,HAMILTON,-79.93362760544483,43.250973430159846
597043.081399999558926,4782959.221699999645,158,The Salvation Army - Winter Berry Heights Church,Salvation Army,300 WINTERBERRY DR,STONEY CREEK,-79.80566661320157,43.193174718292916
591015.952600000426173,4790739.808399999514,159,The Salvation Army - Ontario South Divisional Headquarters,Salvation Army,340 YORK BLVD,HAMILTON,-79.87854597648443,43.263973621440265
582978.512400000356138,4786487.141599999741,160,St. Andrews Presbyterian Church,Presbyterian,31 SULPHUR SPRINGS,ANCASTER,-79.9782033758978,43.22661369610483
582200.179899999872,4785525.052899999544,161,St. Ann's Church (Ancaster),Roman Catholic,40 FIDDLERS GREEN RD,ANCASTER,-79.98792958725562,43.218036891025484
584292.486399999819696,4791273.472599999979,162,St. James Anglican Church (Dundas),Anglican,110 VICTORIA ST,DUNDAS,-79.96129364921323,43.269560422651445
589123.148400000296533,4799065.0072,163,St. James United Church (Waterdown),United,306 PARKSIDE DR,FLAMBOROUGH,-79.90051396331766,43.339151261115695
594304.618099999614,4787265.679899999872,164,St. John United Church,United,910 QUEENSDALE AVE E,HAMILTON,-79.83862713653333,43.232292182602976
583041.223000000230968,4786213.6696,165,St. John's Anglican Church,Anglican,260 WILSON ST E,ANCASTER,-79.97747243665177,43.224144647138914
592508.636099999770522,4791415.341499999166,166,St. Luke's Anglican Church,Anglican,454 JOHN ST N,HAMILTON,-79.86004390363863,43.26987359313351
583677.661500000394881,4790147.382799999788,167,St. Mark's United Church (Dundas),United,1 LYNNDALE DR,DUNDAS,-79.9690398289618,43.25949053677469
590407.798899999819696,4786767.9284,168,St. Michael's Hungarian Greek Catholic Church,Roman Catholic,525 WEST 5TH ST,HAMILTON,-79.88668943931445,43.22828800589592
582182.723799999803305,4777310.4667,169,St. Paul's Presbyterian Church (Ancaster),Presbyterian,526 CARLUKE RD W,ANCASTER,-79.98936522315293,43.14407959124676
584897.483799999579787,4791050.789799999446,170,St. Paul's United Church (Dundas),United,29 PARK ST W,DUNDAS,-79.95387403500565,43.26748763854327
592622.92,4789472.17899999954,171,St. Thomas Anglican Church,Anglican,16 WEST AVE S,HAMILTON,-79.85896267647925,43.25236547593224
589756.690700000151992,4798241.658199999481,172,St. Thomas Roman Catholic Church,Roman Catholic,46 FLAMBORO ST,FLAMBOROUGH,-79.89283425855996,43.331663357019515
588719.684299999848008,4787937.187899999321,173,Theological College Of The Canadian Reformed Churches,Reformed,110 WEST 27TH ST,HAMILTON,-79.90728559539357,43.23901534482696
580056.162200000137091,4803716.57,174,United Church Of Canada (Carlisle),United,1552 HWY 6,FLAMBOROUGH,-80.01167384415022,43.382050645101266
586695.737200000323355,4789778.867699999362,175,United Hebrew Memorial Chapel,United,28 EWEN RD,HAMILTON,-79.93191950937481,43.25583161011002
570272.45920000039041,4803406.9867,176,Valens Gospel Hall,Brethren,1774 VALENS RD,FLAMBOROUGH,-80.13248286640335,43.380243298263196
591678.654299999587238,4786905.1162,177,Vietnamese Buddhist Temple,Buddhism,147 SOUTH BEND RD E,HAMILTON,-79.87101988051067,43.22936974748871
589776.4364,4798563.06279999949,178,Waterdown Christian And Missionary Alliance,Alliance,21 MILL ST N,FLAMBOROUGH,-79.89253815229091,43.33455456615867
578562.598600000143051,4791036.10869999975,179,West Flamboro Presbyterian Church,Presbyterian,295 HWY 8,FLAMBOROUGH,-80.03192464300687,43.26804266263878
574001.00040000025183,4798666.3727,180,Westover Baptist Church,Baptist,1149 WESTOVER RD,FLAMBOROUGH,-80.08709959608382,43.3372033653465
590792.1524,4790555.5338,181,Zion United Church,United,69 PEARL ST N,HAMILTON,-79.8813333968204,43.26234160430533
585791.829199999570847,4798525.0636,182,Flamborough Baptist Church,Baptist,41 5TH CON RD E,FLAMBOROUGH,-79.9416888841297,43.33467780073178
590675.2977,4790384.9064,183,King Street Baptist Church,Baptist,462 KING ST W,HAMILTON,-79.8828010079291,43.260819522087374
593625.737099999561906,4783541.047299999744,184,New Hope Community Church,Community Church,24 ARNO ST,HAMILTON,-79.84761765418203,43.19884416090747
586147.439500000327826,4787108.9713,185,Macneill Memorial Baptist Church (Ancaster),Baptist,1114 OLD MOHAWK RD,ANCASTER,-79.93909057138788,43.23185697646597
582290.689399999566376,4785032.0152,186,Marshall Memorial United Church,United,184 FIDDLERS GREEN RD,ANCASTER,-79.98688887716014,43.213588042213296
593316.231100000441074,4787058.174,187,Meadow Creek Community Church,Associated Gospel Churches,662 FENNELL AVE E,HAMILTON,-79.85083193326291,43.23054693917696
584349.987700000405312,4798612.0314,188,Millgrove United Church,United,374 5TH CON RD W,FLAMBOROUGH,-79.95945888258656,43.33562395992489
584663.501199999824166,4784016.5252,189,Netherland Reformed Church,Reformed,572 SOUTHCOTE RD,ANCASTER,-79.95783667086361,43.204182906988905
584341.472199999727309,4791017.0578,190,New Christian Life Assembly,Non-denominational,165 KING ST W,DUNDAS,-79.96072939313915,43.267246390577824
580506.6831,4791630.658199999481,191,New Hope Christian Centre,Non-denominational,176 HWY 8,FLAMBOROUGH,-80.00788549500615,43.27319034723297
578123.060200000181794,4805445.8824,192,Our Lady Of Mount Carmel Roman Catholic Church,Roman Catholic,55 FREELTON RD,FLAMBOROUGH,-80.03528849198048,43.39782371862605
584041.787999999709427,4786182.901,193,Presbyterian Church Assembly,Presbyterian,495 GOLF LINKS RD,ANCASTER,-79.96515863030638,43.223756851190586
586372.674899999984,4794779.224799999967,194,Rock Chapel United Church,United,451 ROCK CHAPEL RD,FLAMBOROUGH,-79.93511404752321,43.30088738369029
582999.198300000280142,4786268.5372,195,Ryerson United Church (Ancaster),United,265 WILSON ST E,ANCASTER,-79.97798157403345,43.22464325990423
590348.776200000196695,4790742.525299999863,196,Our Lady Of Mercy Luthuanian Parish,Roman Catholic,58 DUNDURN ST N,HAMILTON,-79.88676462321507,43.26407837227598
588370.713000000454485,4789905.436799999326,197,Adas Israel Congregation Of Hamilton,ADAS ISRAEL,128 CLINE AVE S,HAMILTON,-79.91126733590238,43.256776600105425
591190.96,4790468.0383,198,The House Of Peace Church,Church of Jesus Christ,7 PETER ST,HAMILTON,-79.87643502797198,43.26150573186718
591634.340400000102818,4790387.06599999964,199,The Vine Philpott Memorial Church,Associated Gospel Churches,78 VINE ST,HAMILTON,-79.87098664308083,43.26072296192247
591725.0559,4790365.0895,200,Restoration House Hamilton,Redeemed Christian Church of God ,54 VINE ST,HAMILTON,-79.86987282373258,43.2605140724991
591772.906899999827147,4790658.3112,201,Saint Mary's Church,Roman Catholic Church,23 SHEAFFE ST,HAMILTON,-79.86923451256676,43.26314809885867
592231.032999999821186,4790075.394099999219,202,Hamilton Downtown Sunni Mosque,Muslim,96 CATHARINE ST N,HAMILTON,-79.86368848157072,43.25784421828908
592514.210099999792874,4789950.9725,203,Streetlight Christian Church,REFORMED,82 FERGUSON AVE N,HAMILTON,-79.86022123481857,43.256689357340285
592677.338100000284612,4789804.186599999666,204,Amorc,Rosicrucian Order,64 WELLINGTON ST N,HAMILTON,-79.85823657477573,43.25534781864053
590546.533599999733269,4789052.0734,205,First Estonian Evangelical Lutheran Congregation,Lutheran,3 MAPLESIDE AVE,HAMILTON,-79.88460624878655,43.24883553793167
586109.370400000363588,4787088.892799999565,206,Maranatha Free Reformed Church,Reformed,1114 OLD MOHAWK RD,ANCASTER,-79.93956244949348,43.23168055275
584630.898400000296533,4791232.317199999467,207,St. Augustine's Catholic Church,Roman Catholic,58 SYDENHAM ST,DUNDAS,-79.95713052093566,43.26915195330343
589778.212600000202656,4783350.7441,208,Iglesia Bautista Hispana Monte Calvario,Baptist,1759 UPPER JAMES ST,HAMILTON,-79.89499659867883,43.197598018632306
593605.851099999621511,4789896.555099999532,209,Primera Iglesia Bautisa Hispana,Baptist,120 WENTWORTH ST N,HAMILTON,-79.8467840768123,43.25606466342999
604760.727800000458956,4786548.35,210,Wat Khmer Kampuchea Krom Buddhist Temple And Meditation Centre,Buddhism,516 BARTON ST,STONEY CREEK,-79.71002549229958,43.22445489398099
592600.127999999560416,4783803.1278,211,Stone Ridge Bible Chapel,Non-denominational,1457 UPPER SHERMAN AVE,HAMILTON,-79.86019486529554,43.20133011608001
588991.089999999850988,4790723.33,212,Temple Anshe Sholom (Reform),Jewish,215 CLINE AVE N,HAMILTON,-79.90349347185769,43.26406712267135
602614.733799999579787,4787293.7484,213,Bosnian Islamic Center,Muslim,202 BARTON ST,STONEY CREEK,-79.73630524994502,43.23146025634941
595820.307300000451505,4783196.491299999878,214,Hamilton Mosque (Sunni Muslims),Muslim,1545 STONE CHURCH RD E,HAMILTON,-79.82067131569794,43.19546692375073
599518.839999999850988,4788923.29,215,Umar Mosque (Sunni Muslims),Muslim,734 RENNIE ST,HAMILTON,-79.7741282113694,43.24654521079232
593438.696499999613,4784120.735899999738,216,Al-Wilaya Islamic Centre (Shiatt Muslims),Muslim,1310 UPPER GAGE AVE,HAMILTON,-79.84982132362354,43.20408623477825
598878.53000000026077,4789659.27,217,Razvi Islamic Centre (Shiatt Muslims),Muslim,95 MEAD AVE,HAMILTON,-79.78188173498098,43.253255228483525
595815.996399999596179,4782684.2959,218,Association Of Progressive Dawoodi Brothers Of Ontario (Bori Muslims),Muslim,60 HARLOWE RD,HAMILTON,-79.82081315753783,43.190856239554456
595776.548600000329316,4782695.263699999079,219,Ismaili Community Of Hamilton (Ismaili Muslims),Muslim,60 HARLOWE RD,HAMILTON,-79.82129663265424,43.19095998359951
592829.740000000223517,4788311.13,220,Hamilton Church Of Christ,Non-denominational,450 CONCESSION ST,HAMILTON,-79.85661087408945,43.241887223603506
584252.237099999561906,4791289.756699999794,221,Valley Community Church Meeting At Centre Of The Arts,Non-denominational,37 MARKET ST N,DUNDAS,-79.96178705394803,43.26971153287356
595976.523599999957,4789493.8789,222,Church Of Pentecost,Pentecostal,1047 BARTON ST E,HAMILTON,-79.81765376829385,43.25214132469601
592578.781000000424683,4789787.784099999815,223,Apostolic Ark Ministries,Pentecostal Assemblies of Canada,251 KING WILLIAM ST,HAMILTON,-79.8594532959308,43.255212259675346
594786.446100000292063,4789873.7868,224,Victory Assemblies Of God,Other,755 BARTON ST E,HAMILTON,-79.83224611098167,43.255712143294005
590053.597699999809265,4790692.438899999484,225,Diocese Of Hamilton,Roman Catholic,700 KING ST W,HAMILTON,-79.89040919578416,43.26366278011154
602450.521599999628961,4785713.0247,226,The Salvation Army - Stoney Creek Corps,Salvation Army,245 KING ST E,STONEY CREEK,-79.73862051294321,43.21725203192209
591408.350899999961,4788577.0404,227,Temple Of The Guiding Star,Spiritualists,21 ROSEDENE AVE,HAMILTON,-79.87407077119381,43.244454837880745
593952.324900000356138,4790111.2257,228,The Assembly Of The Church Of The Universe,Universal,544 BARTON ST E,HAMILTON,-79.84247979109516,43.25795420112379
569440.1003,4786595.313799999654,229,United Church (Lynden),United,3989 GOVERNORS RD,FLAMBOROUGH,-80.14488165740809,43.228955162992804
585230.9424,4785339.568499999121,230,Meadowlands Fellowship Christian Reformed Church,Christian Reformed,211 STONEHENGE DR,ANCASTER,-79.95064870288759,43.216030754854714
586529.154900000430644,4801751.423,231,Flamborough Christian Fellowship Centre,Christian Reformed,329 CONCESSION 6 E,FLAMBOROUGH,-79.9320857400428,43.3636401113698
587884.160400000400841,4799655.7092,232,St. Thomas The Apostle Church,Roman Catholic,715 CENTRE RD,FLAMBOROUGH,-79.91570163869221,43.34461521609995
591743.0581,4800520.11959999986,233,Bethel Christian Reformed Church,Christian Reformed,606 DUNDAS ST E,FLAMBOROUGH,-79.86795557784855,43.35193608058363
578280.792700000107288,4803387.0285,234,Strabane United Church,United,1565 BROCK RD,FLAMBOROUGH,-80.0336355385121,43.37927101250909
607177.14740000013262,4784806.605299999937,235,Immaculate Heart Of Mary Parish,Roman Catholic,934 HIGHWAY NO. 8,STONEY CREEK,-79.68061663921495,43.20843574200909
588606.990500000305474,4794245.4834,236,Gurdwara Sikh Sangat,Sikh,200 OLD GUELPH RD,DUNDAS,-79.90765812565846,43.29582236847199
564564.0148,4797182.186,237,Zion United Reformed Church Of Sheffield,United Reformed,1238 OLD HWY 8,FLAMBOROUGH,-80.20368008655755,43.32471012392166
566162.133500000461936,4790079.4079,238,Troy United Church,United,2299 TROY RD,FLAMBOROUGH,-80.18482579063205,43.260619816652735
570882.04,4794622.24,239,Rockton United Church,United,792 OLD HWY 8,FLAMBOROUGH,-80.12609364902355,43.301092488626786
571142.97,4794482.92,240,St. Alban The Martyr Anglican Church,Anglican,758 OLD HWY 8,FLAMBOROUGH,-80.12289503922163,43.299813490545866
585901.773900000378489,4784460.4067,241,Bowman United Church,United,880 GARNER ROAD EAST,ANCASTER,-79.9425276726415,43.208039418530824
594786.96,4788725.66,242,Trinity Baptist Church,Baptist,922 MAIN ST E,HAMILTON,-79.83243726712621,43.2453756981361
587529.567200000397861,4789569.878799999133,243,St. Margaret's Anglican Church,Anglican,134 EMERSON ST,HAMILTON,-79.92168180738514,43.25385369442523
591836.46,4787783.68,244,The International Eagle's Cry Ministries,Full Gospel,208 BRUCEDALE AVE E,HAMILTON,-79.8689306608824,43.23726023318963
588449.907999999821186,4790271.6961,245,Macneill Memorial Baptist Church (Hamilton),Baptist,1145 KING ST W,HAMILTON,-79.91023300988478,43.260064762391224
597340.339999999850988,4789080.57,246,Jehovah's Witnesses (Delta And East Hamilton Congregation),Jehovah's Witnesses,1441 BARTON ST E,HAMILTON,-79.80092934070584,43.24824555168585
601842.9342,4786018.170499999076,247,Stoney Creek Baptist Church,Baptist,79 COLLEGIATE AVE,STONEY CREEK,-79.74604311717528,43.22008136116207
593308.150000000372529,4786110.92,248,Reorganized Church Of Jesus Christ Of Latter Day S,Reorganized Church of Jesus Christ of Latter Day Saints,817 UPPER SHERMAN AVE,HAMILTON,-79.85109162322424,43.22201988783459
587592.3108,4789515.472599999979,249,Apostolic Holiness Church Of Jesus Christ,Apostolic,42 ROYAL AVE,HAMILTON,-79.92091762408204,43.25335658191532
600801.349999999627471,4785635.41,250,Cheyne Presbyterian Church,Presbyterian,7 KING ST W,STONEY CREEK,-79.75893471718938,43.21677535053129
593290.410000000149012,4788356.16,251,Chalmers Presbyterian Church,Presbyterian,200 MOUNTAIN PARK AVE,HAMILTON,-79.85093027249218,43.24223577542039
599490.79,4791290.69,252,Living Word Covenant Community Church,Community Church,159 BEACH BLVD,HAMILTON,-79.77404609392589,43.267861714763455
592874.13370000012219,4786228.3493,253,Burkholder United Church,United,465 MOHAWK RD E,HAMILTON,-79.85641488062352,43.22313063758119
593311.389999999664724,4788209.2,254,The Salvation Army - Hamilton Loation Corps,Salvation Army,573 CONCESSION ST,HAMILTON,-79.8506967833099,43.24091011438378
597391.339999999850988,4774845.44,255,Binbrook United Church,United,2623 BINBROOK RD,GLANBROOK,-79.80280850581157,43.12008256408349
594650.0,4783268.81,256,Christian International Life Centre,Non-denominational,45 NEBO RD,HAMILTON,-79.83505979718583,43.19626556114634
588688.775600000284612,4779811.4428,257,St. Paul's Anglican Church  (Mount Hope),Anglican,2869 HWY 6,GLANBROOK,-79.90897076772782,43.16586181395946
597547.690000000409782,4782913.94,258,Heritage Green Baptist Church,Baptist,956 PARAMOUNT DR,STONEY CREEK,-79.79946559428959,43.192702061760464
597582.139999999664724,4786997.04,259,St. Mary Armenian Church,Orthodox,8 MAYHURST AVE,HAMILTON,-79.79832013670304,43.22945683962769
597414.610000000335276,4789053.11,260,Living Water Ministries,Non-denominational,1475 BARTON ST E,HAMILTON,-79.80001950849821,43.24798874458464
605086.21,4785514.97,261,Stoney Creek Alliance Church,Alliance,605 HWY 8,STONEY CREEK,-79.7062154061002,43.21510669174601
590230.840200000442564,4790709.42119999975,262,Hamilton Chinese Alliance Church,Alliance,50 BREADALBANE ST,HAMILTON,-79.88822293135384,43.2637944681329
590766.733,4790567.387099999934,263,Livingston United Church (Korean),United,69 PEARL ST N,HAMILTON,-79.88164458195786,43.26245138094986
588539.54,4794451.65,264,Seventh-Day Adventist Reformed Church,Seventh Day Adventist Reformed,232 OLD GUELPH RD,DUNDAS,-79.90845630005434,43.29768642028125
592068.224299999885261,4790632.8999,265,Christs Church Cathedral,Anglican,252 JAMES ST N,HAMILTON,-79.86560075210987,43.26288329975775
594132.019999999552965,4789041.25,266,St. Peter Church Of,Anglican,705 MAIN ST E,HAMILTON,-79.84044913446583,43.24829895611291
598585.019999999552965,4788397.36,267,St. Nicholas Ukrainian Catholic Parish,Ukranian Catholic,260 MELVIN AVE,HAMILTON,-79.78572250570328,43.24193310787753
591999.313699999824166,4790943.2716,268,Holy Resurrection Romanian Orthodox Church,Romanian Orthodox,20 MURRAY ST W,HAMILTON,-79.86639780323112,43.26568596338812
594946.889999999664724,4783275.26,269,Hamilton Church Of God,Pentecostal,1338 STONE CHURCH RD E,HAMILTON,-79.83140534837315,43.196286367271206
597615.660000000149012,4774769.32,270,Knox Presbyterian Church (Binbrook),Presbyterian,2553 BINBROOK RD,GLANBROOK,-79.80006501812159,43.11936838052473
593515.700000000186265,4788239.54,271,Sacred Heart Roman Catholic Church,Roman Catholic,24 POPLAR AVE,HAMILTON,-79.84817567804626,43.24115795436242
591760.049999999813735,4789368.54,272,St. Charles Garnier Church,Roman Catholic,129 HUGHSON ST S,HAMILTON,-79.86960773694479,43.251537947282486
598473.360000000335276,4783061.4,273,Heritage Green Presbyterian Church,Presbyterian,360 ISAAC BROCK DR,STONEY CREEK,-79.78804944476983,43.19390950813801
607020.429999999701977,4785179.74,274,Jehovah's Witnesses (Glover),Jehovah's Witnesses,217 GLOVER RD,STONEY CREEK,-79.68247306383324,43.2118170706196
592848.798399999738,4785021.091099999845,275,Jehovah's Witnesses (Eastmount Park Congregation),Jehovah's Witnesses,648 LIMERIDGE RD E,HAMILTON,-79.85692984982872,43.21226486828637
600852.04,4785469.34,276,Church Of The Redeemer,Anglican,25 LAKE AVE S,STONEY CREEK,-79.75834110502498,43.21527351223817
600823.009999999776483,4785645.11,277,Stoney Creek United Church,United,1 KING ST W,STONEY CREEK,-79.75866632922562,43.21685978309687
605871.29,4785279.99,278,Stoney Creek Community Church,Community Church,725 HWY 8,STONEY CREEK,-79.69659727871392,43.21288159729989
593213.370000000111759,4788276.11,279,Mount Hamilton United Church,United,31 SUMMIT AVE,HAMILTON,-79.85189253145815,43.241524620293866
591231.58,4784858.03,280,Bethel Gospel Tabernacle,Pentecostal Assemblies of Canada,1355 UPPER WELLINGTON,HAMILTON,-79.87686273300842,43.21099400801637
590685.806699999608099,4790393.105599999428,281,St. George's Anglican Reformed Church,Anglican,458 KING ST W,HAMILTON,-79.8826702026001,43.260892074151855
587291.944500000216067,4787267.9549,282,Chedoke Presbyterian Church,Presbyterian,865 MOHAWK RD W,HAMILTON,-79.92497319927811,43.23315675895507
592668.309999999590218,4787199.3,283,St. Augustine Of Canterbury,Anglican,626 UPPER WENTWORTH,HAMILTON,-79.8587856669824,43.2318973543774
592023.190000000409782,4790221.23,284,St. John's (Evangelical) Lutheran Church,Lutheran,104 HUGHSON ST N,HAMILTON,-79.86622430858299,43.2591825724866
590395.887500000186265,4789473.9999,285,St. Joseph's Church,Roman Catholic,260 HERKIMER ST,HAMILTON,-79.88639241939936,43.25265221544154
590738.747600000351667,4790426.2596,286,Erskine Presbyterian Church,Presbyterian,19 PEARL ST N,HAMILTON,-79.88201258327334,43.26118418658431
593492.610000000335276,4788151.15,287,St. Stephen On The Mount Anglican Church,Anglican,625 CONCESSION ST,HAMILTON,-79.84847500761502,43.2403650519277
595944.679999999701977,4788415.46,288,St. Enoch's Presbyterian Church,Presbyterian,1209 MAIN ST E,HAMILTON,-79.81823370077254,43.24243660966528
591540.70920000039041,4784474.8344,289,Canadian Reformed Church ,Christian Reformed,353 STONE CHURCH RD E,HAMILTON,-79.8731213338588,43.20750667108824
590823.779900000430644,4790901.3668,290,Crossfire Assembly,Pentecostal Assemblies of Canada,430 YORK BLVD,HAMILTON,-79.88088674369368,43.26545131101447
592141.842400000430644,4790225.532299999148,291,Stewart Memorial Church,Methodist Episcopal,112 JOHN ST N,HAMILTON,-79.8647620080883,43.259206808827216
593598.825899999588728,4789879.689899999648,292,Wentworth Baptist Church,Baptist,120 WENTWORTH ST N,HAMILTON,-79.84687347440195,43.25591370073119
592396.589999999850988,4789543.99,293,First- Pilgrim United Church,United,200 MAIN ST E,HAMILTON,-79.8617382916653,43.253039759126985
592270.950000000186265,4791217.72,294,Hughson Street Baptist Church,Baptist,383 HUGHSON ST N,HAMILTON,-79.86300539326008,43.26812357767921
594967.610000000335276,4789762.95,295,St. Anthony Of Padua Church,Roman Catholic,165 PROSPECT ST N,HAMILTON,-79.83003376266713,43.25469149734335
592880.620000000111759,4787882.82,296,Mount Hamilton Baptist Church,Baptist,440 UPPER WENTWORTH,HAMILTON,-79.8560564564074,43.23802492074281
595341.009999999776483,4786392.78,297,St. Michael's Anglican Church,Anglican,1188 FENNELL AVE E,HAMILTON,-79.82601730687215,43.22430333453437
597121.910000000149012,4788005.12,298,St. Columba Presbyterian Church,Presbyterian,1540 MAIN ST E,HAMILTON,-79.80380892970446,43.238591724657276
596763.0152000002563,4788774.8637,349,Holy Family Catholic Church,Roman Catholic,1393 CANNON ST E,HAMILTON,-79.8080931746496,43.24556767134163
593584.173100000247359,4789130.90499999933,350,Holy Veil Of Holy Mother Russian Orthodox Church,Orthodox,75 SANFORD AVE S,HAMILTON,-79.8471811343366,43.24917430970525
570429.239099999889731,4782944.803099999204,351,Jerseyville Baptist Church,Baptist,3203 JERSEYVILLE RD W,ANCASTER,-80.13316795226581,43.19599528719942
572798.088399999774992,4783530.566099999472,352,United Church (Jerseyville),United,15 FIELD RD,ANCASTER,-80.1039387861501,43.20104470218849
584812.369800000451505,4791171.8771,353,Knox Presbyterian Church (Dundas),Presbyterian,23 MELVILLE ST,DUNDAS,-79.9549040045081,43.268587393520804
589666.97690000012517,4798747.8066,354,Knox Presbyterian Church (Waterdown),Presbyterian,80 MILL ST N,FLAMBOROUGH,-79.89385798033041,43.33623085755729
592136.35190000012517,4786707.3866,355,Linden Park Community Church,Community Church,484 EAST 16TH ST,HAMILTON,-79.86541764970315,43.227533837807066
576250.635700000450015,4786353.272099999711,356,United Church,United, POWERLINE RD,ANCASTER,-80.06105749654591,43.226118336644596
581994.832999999634922,4785115.17659999989,324,Ancaster Baptist Church,Baptist,91 CARRINGTON CRT,ANCASTER,-79.99051836911804,43.214368968741034
580348.901399999856949,4783014.4,325,Ancaster Canadian Reformed Church,Reformed,575 SHAVER RD,ANCASTER,-80.01108490906827,43.19563179179534
582967.522300000302494,4783693.8647,326,Ancaster Christian Reformed Church,Christian Reformed,70 GARNER RD E,ANCASTER,-79.97875845915148,43.2014661417033
585854.102400000207126,4784433.602099999785,327,Bethesda United Church (Pilgrim Baptist Fellowship),United,868 GARNER RD E,ANCASTER,-79.94311858986026,43.207803513245736
592058.2352,4790662.6239,328,Anglican Church Of Canada,Anglican,252 JAMES ST N,HAMILTON,-79.86571883803231,43.263152122683564
582084.525399999693036,4791154.8098,329,Baha'i Fireside,Baha'I,132 HILLCREST AVE,FLAMBOROUGH,-79.98851504384466,43.2687358775395
590096.291600000113249,4789166.0633,330,Beth Jacob Synagogue,Jewish (Conservative),375 ABERDEEN AVE,HAMILTON,-79.89013287776363,43.249915729015854
583907.712399999611,4794411.9743,331,Calvin Christian Reformed Church,Christian Reformed,420 HWY 5 W,FLAMBOROUGH,-79.96555561839217,43.2978598483406
582965.893400000408292,4788059.460799999535,332,Canterbury Hills Conference Centre,Anglican,509 LIONS CLUB RD,ANCASTER,-79.97812222071185,43.24077112489319
582925.923899999819696,4804872.174499999732,333,Carlisle United Church,United,1432 CENTRE RD,FLAMBOROUGH,-79.97607579658292,43.39214296697722
589983.229299999773502,4790677.397199999541,334,Cathedral Of Christ The King,Roman Catholic,714 KING ST W,HAMILTON,-79.89127853461648,43.263535765770506
581855.6935,4791858.4834,335,Christ Church (Dundas),Anglican,95 HWY 8,FLAMBOROUGH,-79.99122975124519,43.275096133079586
602270.756199999712408,4776815.18779999949,336,Christ Church Anglican,Anglican,1307 WOODBURN RD,GLANBROOK,-79.74247838879381,43.13717243427015
586745.2116,4789552.0866,337,Christadelphian Ecclesia Church (Hamilton),Christadelphian,80 EWEN RD,HAMILTON,-79.9313458006004,43.25378418005954
591085.844100000336766,4787790.8964,338,Christadelphians (Ancaster And Hamilton Mountain),Christadelphian,636 UPPER JAMES ST,HAMILTON,-79.87817240279409,43.23741622546166
577308.993900000117719,4785126.3583,339,United Church (Copetown - Rockton),United,276 HWY 52 N,ANCASTER,-80.0481985983094,43.21496412122899
584202.6557,4790420.129799999297,340,Dundas Baptist Church (Governors),Baptist,201 GOVERNORS RD,DUNDAS,-79.96253091593199,43.26188765849506
583800.230000000447035,4789568.7628,341,Dundas Baptist Church (Hilltop),Baptist,11 HILLTOP PL,DUNDAS,-79.96761797048555,43.25426747473327
591355.263299999758601,4790123.168299999088,342,Eckankar The Ancient Science Of Travel,Spiritualists,178 KING ST W,HAMILTON,-79.87446822874219,43.258380988882564
582196.32799999975,4783875.302699999884,343,Fellowship Christian Reformed Church,Christian Reformed,107 BRAITHWAITE AVE,ANCASTER,-79.98822258276994,43.20318403014833
577954.757799999788404,4805508.479699999094,344,Freelton Fellowship Baptist Church,Baptist,12 LOUISA ST,FLAMBOROUGH,-80.03735758189329,43.39840480534084
577708.92960000038147,4805795.258199999109,345,Freelton United Church,United,155 FREELTON RD,FLAMBOROUGH,-80.04035207728798,43.401012238630955
589409.361200000159442,4798904.7366,346,Grace Anglican Church (Waterdown),Anglican,1401 KING ST E,FLAMBOROUGH,-79.89700980307323,43.33767436825364
588318.827399999834597,4798626.039799999446,347,Grindstone Valley Bible Church,Other,215 PARKSIDE DR,FLAMBOROUGH,-79.91050553272983,43.335294219622085
580568.907200000248849,4783274.9832,348,Heritage Fellowship Baptist Church,Baptist,557 GARNER RD W,ANCASTER,-80.00833953276305,43.19795449755274
