X,Y,OBJECTID,TITLE,ADDRESS,PHONE,FAX,EMAIL,TOLL_FREE,URL,DESCRIPTION,OPEN_DATATOURISM_LISTINGSAREA,LONGITUDE,LATITUDE
592418.871399999596179,4789534.767699999735,8,Days Inn Hamilton,"210 Main Street East, Hamilton, L8N 1H3",905-528-3297,,info@hamiltondaysinn.com,,http://hamiltondaysinn.com,"Newly built in 2008 and conveniently located in the heart of downtown Hamilton, this exceptional hotel attracts many corporate clients and personal travelers alike. To enhance your comfort, choose from queen-size or king-size beds, some with Jacuzzi. All rooms have flat LCD-TV, free parking, deluxe Continental breakfast and internet. Located close to most local hospitals, Art Gallery of Hamilton, Copps Coliseum, Hamilton Convention Centre, museums, diverse dining and shopping options, your stay at Days Inn Hamilton will be an excellent choice and experience.",,-79.86146539999984,43.25295399999529
577547.583399999886751,4778402.514699999243,9,Duck Tail Inn B&B,"1573 Butter Road West, Ancaster, L9G 3L1",905-648-3596,,dwentworth@Sympatico.ca,,www.ducktail.net,Ducktail B&B is a modern air conditioned one floor home located on 44 acres. Picture windows overlook rolling fields and a sunroom with wicker furniture overlooks a duck pond.,,-80.04620459999997,43.15440119999529
583852.7528,4791102.5229,10,Dundas Glen Bed and Breakfast,"271 Hatt Street, Dundas, L9H 2H4",289-238-8193,,info@dundasglen.ca,,www.dundasglen.ca,"Welcome to Dundas Glen, a Bed and Brakfast in a beautiful century home in the picturesque and historic Valley Town of Dundas, Ontario.  We are just a short walk from charming downtown Dundas, full of boutique shopping and fine dining.  Restaurants cater to the gourmet in your family or simply a fun pub experience.",,-79.96673749999994,43.268070399995295
570498.187599999830127,4806990.14299999923,11,Emerald Lake Trailer Resort & Waterpark,"7248 Gore Rd. RR#2, Puslinch, N0B 2J0",905-659-7923,,emeraldlake@bellnet.ca,,www.emeraldlake.ca,"Beautiful seasonal transient camping with all modern, clean facilities. Centrally located just minutes from Hamilton, Dundas, Burlington, Cambridge, Guelph the 401 403.",,-80.12923470000001,43.41248279999527
611320.00690000038594,4785810.5872,12,Fifty Point Conservation Area and Campground,"1479 Baseline Rd., Winona",905-525-2187,,fiftypt@conservationhamilton.ca,,www.conservationhamilton.ca,"A magnificent 80-hectare park with superb marina facilities in Stoney Creek. It's the place to be for a swim in Lake Ontario, family camping or a picnic for groups of any size.",,-79.62942839999947,43.216874299995226
574865.8295,4804544.398299999535,13,Flamboro Valley Camping Resort,"1158 Regional Rd 97, Flamborough, N0B 2J0",905-659-5053,,info@flamborovalley.com,,www.flamborovalley.com,"Located in a peaceful setting just North of Hamilton and South of Guelph. Seasonal and Overnight Camping sites. Tenting and Large Rigs pull thru sites(WE + WES). Hot Tub, Splash Park,Heated Swimming Pool, Pirate Ship, 2 Playgrounds,Walking trails, Activities,Basketball Courts + more.",,-80.07562889999998,43.390039599995255
579288.330699999816716,4801474.434399999678,14,Gulliver's Lake & Park,"792 Safari Road, Millgrove, L0R 1V0",905-659-7300,,GULLIVERSLAKE@CAREFREERVRESORTS.COM,,www.gulliverslake.com,"Park in restful, wooded surroundings. Enjoy our lake's seclusion and carefree living. Swim in the cleanest waters found in Southern Ontario!",,-80.02147629999996,43.36194579999527
592376.6831,4790275.031899999827,15,Hamilton Guesthouse,"158 Mary Street, Hamilton, L8L 4V8",289-440-8035,,Hamilton.guesthouse@gmail.com,,http://hamiltonguesthouse.ca/,Hamilton Guesthouse offers quality accommodation for budget travelers and students near the downtown core of Hamilton and close to many of the city's major attractions and to public transport. Guests can stay in a 6 bed co-ed dorm or in a private double room,,-79.86186089999985,43.259623699995274
600715.943300000391901,4788694.40509999916,31,Quality Hotel Hamilton - Choice Hotels Canada,"49 Goderich Road, Hamilton, L8E 4W8  ",905-578-1212 x1117,,sales@qualityhotelhamilton.com,,https://www.choicehotels.com/ontario/hamilton/quality-inn-hotels/cna40,"Located off the QEW and Centennial Pkwy, Quality Hotel Hamilton/Stoney Creek, Ontario offers Free full breakfast, free wireless high-speed Internet access, Free daily newspaper and Free parking on premises.  We're in a great spot not far from Toronto and Niagara Falls and only 1/4 km from picturesque Lake Ontario with Confederation Park and Wild Waterworks in the area. ",,-79.75942749999972,43.24432569999521
585379.778,4784515.450099999085,32,Redeemer University College,"777 Garner Road East, Ancaster, L9K 1J4",905-648-2131,,stay@redeemer.ca,,www.redeemer.ca/accommodations,"Redeemer University College offers a unique location for your conference or special event. Summer accommodations are available in townhouses and apartment residences. Other facilities include: auditorium, banquet and meeting rooms.",,-79.94894399999993,43.208594199995275
593541.704300000332296,4788286.388399999589,33,Rose Arden Bed & Breakfast,"266 Mountain Park Ave., Hamilton, L8V 1A5",905-387-2000,,rosearden@sympatico.ca,,www.rosearden.com,"Rose Arden is a century home located on the Hamilton escarpment, minutes from downtown, with a wonderful view of the city. Come and enjoy the view and our warm hospitality.",,-79.84784749999984,43.2415764999953
575902.532499999739,4782048.9395,34,Serenity Ranch Bed & Breakfast,"2171 Wilson Street West, Ancaster, L0R 1R0",289-346-0278,,stay@serenityranchbb.com,,www.serenityranchbb.com,"Rest...Relax...Renew...Recover...Welcome to Serenity Ranch Bed & Breakfast. Nestled in rolling farmlands just 15 minutes from downtown Hamilton, 20 minutes from Hamilton International Airport , 45 minutes from Toronto and 5 mins to the 403 Toronto/Niagara.",,-80.065935,43.18739909999531
591547.485799999908,4790078.786699999124,35,Sheraton Hamilton Hotel,"116 King St. W, Hamilton",905-529-5515,,,,http://www.sheratonhamilton.com,"Find a familiar comfort at the Sheraton Hamilton Hotel in Hamilton. Located in the heart of the business district, our hotel is connected to Copps Coliseum, the Hamilton Convention Centre, and two great shopping malls. Explore our neighbourhood, from the Art Gallery of Hamilton to the exciting Hess Village. The Standard Life office tower as well as federal and provincial government offices are within walking distance. Nestled between Toronto and Niagara Falls, we are a great location for your Southern Ontario explorations or your meetings and conventions. We look forward to welcoming you to the Sheraton Hamilton Hotel.",,-79.87210779999987,43.257958099995314
591201.930800000205636,4790075.977199999616,36,Staybridge Suites ,"20 Caroline Street South, Hamilton, L8P 0B1",905-527-1001,,,,www.staybridgehamilton.com,"Bridging the gap of leisure traveler wants and needs, the Staybridge Suites Hamilton – Downtown is proud to offer the best of both worlds. With pool and fitness centre facilities, free wireless internet, and 129 fully equipped guest suites, the only all-suites hotel in Hamilton is strategically designed to accommodate a wide variety of groups, individual and long-term travelers.",,-79.87636479999986,43.25797469999528
588504.662899999879301,4779445.4633,37,Super 8 Motel,"2975 Homestead Drive, Mount Hope, L0R 1W0",905-679-3355,,super8hamiltonon@hotmail.com,,www.super8.com,"The Super 8 of Mount Hope is within minutes of Hamilton Airport, Canadian Warplane Museum, Cayuga Speedway and only 20 minutes to downtown convention center, 45 minutes to Niagara Falls and 45 minutes to Toronto. For recreation the area offers fishing, golf, shopping, beach, fitness center, Spa and casino.",,-79.91129379999988,43.16258839999526
587284.601099999621511,4789420.519099999219,16,Hamilton West Guest House,"110 Leland Street, Hamilton, L8S 3A2",905-923-9254,,Zhazem@hotmail.com,,http://www.booking.com/hotel/ca/mcmaster-guest-house-b-amp-b.html,"HWGH offers a bed rooms (no meals) with quality and friendly accommodation for budget travelers and students, its located 6 minutes walking to McMaster University and Hospital, close to many of the city's major attractions and to public transport. This Hamilton property provides free WiFi in all rooms. BBQ facilities and a well-tended garden are on-site.",,-79.9247227999999,43.25253739999531
588157.19579999987,4778478.777599999681,17,Homestead House,"3272 Homestead Drive, Mount Hope, L0R 1W0",905-679-2581,,bvtschan@shaw.ca,,http://www.homesteadhousebb.ca/,"Featuring a sun deck, hot tub and solarium. The Airport Travelers first choice. Two minutes to the Hamilton International Airport. 10 minutes to Hamilton. 45 minutes to Toronto. 55 minutes to Niagara Falls & Casino.",,-79.9157211999999,43.15392569999527
591360.328499999828637,4789981.0842,18,Homewood Suites by Hilton Hamilton,"40 Bay Street South, Hamilton, L8P 0B3",905-667-1200,,yhmhw_homewood@hilton.com,,www.hamilton.homewoodsuites.com,"Homewood Suites by Hilton Hamilton, Ontario, Canada, is the perfect accommodation choice for business or leisure in the heart of downtown Hamilton with close proximity to corporate and government offices, and a multitude of shopping and dining options.",,-79.87442939999985,43.25710119999525
563839.714399999939,4798416.0467,19,John Bayus Park,"1429 Sheffield Rd., 35, Cambridge, N1R 8B2",519-623-2845,,none@none.available,,http://www.campgrounds.org/campground?id=185,John Bayus Park offers quiet family camping at their small 18 site campground. There are places for both seasonal and overnight campers with some serviced sites available as well as a recreation hall and games area.,,-80.21246910000004,43.33588129999531
585373.258399999700487,4790878.585899999365,20,King's Court Rental Home ,"86 King Street East, Dundas, L9H 1C2",905-517-1862,,,,www.kingscourtrentalhome.com,"This beautiful furnished four bedroom home in historic Dundas has everything you need! You will find parking, laundry, Wi-Fi, cable TV, a fully set up kitchen, outdoor seating, comfortable beds (2 Queen, 1 Double, 1 Single). This home is perfect for a family! You can walk to stores, boutiques, restaurants, grocery store, and hiking and biking trails. Only ten minutes from McMaster University, 20 minutes to the soccer stadium and 40 minutes to the cycling Velodrome in Milton.",,-79.94803909999992,43.26588349999524
580623.321000000461936,4808165.3602,21,Lawson Park,"322 Concession 11 Rd. E., Freelton, L0R 1K0",905-659-3395,,susanlawson@lawsonpark.ca,,www.lawsonpark.ca,"Pull-through sites with water, sewer electric available for tourists. Please call ahead for reservations. Seasonal, monthly, and weekly sites for campers locally. Large sites. Muskoka like setting.",,-80.00401709999996,43.42204279999528
588338.188500000163913,4775926.988099999726,22,Log Inn B&B,"8211 Chippewa Creek Road E, Mount Hope, L0R 1W0",905-679-1876,,loginn@shaw.ca,,www.loginnbb.ca/loginne.htm,Log Inn is a gentle place to relax. Explore 86 acres of forest and wetland. If you enjoy walking you can experience forest and meadows steps from the house.,,-79.91390229999989,43.13093019999526
591957.1875,4790868.883899999782,23,MacNab Terrace Guest House,"256 - 258 MacNab Street North, Hamilton, L8L 1K3",905-572-7878,,joinus@macnabterrace.ca,,www.macnabterrace.ca,"A renovated historical guest house with 10 rooms and an apartment featuring self catering for the visitor wanting a centrally located comfortable place for a week, a month or longer.",,-79.86692919999986,43.26502139999527
570752.19550000037998,4806750.336799999699,24,Maple Grove Trailer Park,"1488 Concession 11 West, Flamborough, N0B 2J0",905-659-3311,,,,www.maplegroveflamborough.com,"Maple Grove offers a large amount of space in which to enjoy the local wildlife and picturesque scenery. In addition to 100 spacious trailer sites, we have large grassy areas, very large natural wooded areas and wetlands, large fishing pond fed by a fresh water creek, a nature lovers paradise with 100 seasonal trailer sites",,-80.12612870000001,43.4102997999953
587630.825799999758601,4790503.1782,25,McMaster University - Conference & Event Services,"1280 Main Street West, Hamilton, L8S 4K1",905-525-9140 ext. 24781,,meet@mcmaster.ca,,http://conference.mcmaster.ca,,,-79.9202860999999,43.26224449999527
590166.269299999810755,4788121.3278,26,Mohawk College Residence and Conference Centre,"245 Fennell Avenue West, Hamilton, L9C 7V7",905-385-3200 ext. 4006  ,,mohawk@stayrcc.com,,http://www.stayrcc.com/hamilton,"Air-conditioned accommodations located minutes from downtown, on the Hamilton escarpment. Suites include two private bedrooms, kitchenette, private bathroom. Year round meeting & conference services facility. Affordable summer accommodations. Daily, weekly and monthly rates available from May to August. Rate includes parking, internet, local calls, continental breakfast*  (*restrictions apply)",,-79.88944189999988,43.24050159999529
577549.050499999895692,4794999.0445,27,Olympia Village RV Park and Campground ,"1161 Conc 4, RR 2, Waterdown, L0R 2H2",905-627-1923,,info@olympiavillage.ca,,www.olympiavillage.ca,"New! Drive-Thru Sites 30/50 amp, water, sewer. Located in rural Hamilton. Close to the QEW, 403, #5, #6 & #8 highways. Minutes to all of Hamiltons Attractions. eg. 6 Golf Courses within 5 minutes",,-80.04385349999998,43.303827499995315
585322.924899999984,4790270.598899999633,28,Osler House Bed & Breakfast,"30 South St. W., Dundas, L9H 4C5",289-238-9278,,Gary@oslerhouse.com,,www.oslerhouse.com,"This elegant and historic 1848 home has been painstakingly restored and is now open as a boutique inn. This was once the home of Sir William Osler and his illustrious family. Located minutes away from beautiful downtown Dundas, and less than 5 minute drive from McMaster University and Health Centre, and 10 minutes away from downtown Hamilton as well as picturesque nature trails and waterfalls",,-79.94875339999992,43.26041539999528
572043.476599999703467,4796711.179899999872,29,Pine Valley Park Campground Resort,"955 Valens Rd., Flamborough, N0B 1L0",519-623-4998 ,,info@pinevalleypark.com,,www.pinevalleypark.com,"Rated one of the Best 3 Family Campgrounds in Ontario! Our campground offers 2 playgrounds, 40x80 pool, mini-lake stocked with fish, frogs & turtles. Located 5 minutes from African Lion Safari, 20 minutes from Hamilton. Quiet, clean and relaxing.",,-80.111502,43.31978999999531
570535.533499999903,4801388.838899999857,30,Ponderosa Nature Resort,"1218 Concession Road 8 West, Flamborough, N0B 2J0",905-659-3410,,PNR@PonderosaResort.ca,,www.ponderosaresort.ca,"The Ponderosa Nature Resort is open the year round for your recreational pleasure. Canada's loveliest family nudist resort. A spacious countryside surrounds you. Nature trails wind through stands of pine, cedar and mature hardwoods.",,-80.1294955,43.36204829999523
590415.004300000146031,4791159.9513,1,Admiral Inn Hamilton,"149 Dundurn Street, Hamilton, L8R 3E7",905-529-2311,,hamilton@admiralinn.com,,www.admiralinn.com,The Award Winning Admiral Inn Hamilton has been newly renovated for your comfort and convenience. Minutes away from downtown Hamilton and a hidden gem of the city! Stay & Dine at our famous Reflections restaurant on site. The following is always included in your stay: Complimentary Ample Parking Complimentary Wireless high-Speed Internet Access Complimentary Local Calls,,-79.88588019999986,43.26782849999528
595621.931900000199676,4783022.284399999306,2,Best Western Premier C Hotel by Carmen's,"1530 Stone Church Road E, Hamilton, L8W 3P9",905-381-9898,,info@carmenshotel.com,,http://www.carmenshotel.com/,"European boutique style and luxury. A fusion of design and comfort, simplicity and sophistication. Embrace luxury as you step inside the chic lobby of the boutique C Hotel by Carmen's. We break down the walls that separate leisure and business travel so you can find the right balance between work and play.",,-79.82314249999982,43.1939236999953
611091.1003,4784587.8703,3,Caboose Farm Stay,"1468 #8 Highway, Winona, L8E 5K9",905-643-1015,,info@puddicombefarms.com,,www.puddicombefarms.com,"Looking for that unusual holiday? Then come on board Caboose One, a fun relaxing holiday on our farm. Enjoy the view and walk through the vineyards & orchards",,-79.63249189999948,43.205900899995214
600515.069699999876,4787652.706399999559,4,Comfort Inn Hamilton,"183 Centennial Parkway North, Hamilton, L8E 1H8",905-560-4500,,cn268@whg.com,,www.choicehotels.ca,"Conveniently located near the Q.E.W. Highway between Toronto and Niagara Falls. Closely situated to all area attractions, restaurants and shopping.",,-79.76209109999974,43.234974499995225
589937.348000000230968,4785328.7354,5,Cottage in the City,"918 West 5th St., Hamilton L9C 3R7",905-389-5067,,,,www.bbcanada.com/8212.html,"Comfortable setting. Close to the John C. Munro Hamilton International Airport. Air conditioning, reasonable rates and access to refrigerator. Coffee/tea corner.",,-79.89271619999988,43.215387099995304
590228.396800000220537,4785352.2758,6,Courtyard by Marriott,"1224 Upper James St., Hamilton, L9C 3B1",905-383-7772,,,,http://www.courtyardhamilton.com,"Conveniently located 15 minutes of the Hamilton International Airport (YHM) and 20 minutes to downtown Hamilton. The Courtyard by Marriott Hamilton hotel surrounds travellers with the amenities that make business and pleasure travel effortless. Relax in comfort in one of our beautifully appointed guest rooms with mini-refrigerator and free high speed internet. Unwind in our Indoor Pool, Whirlpool or Fitness Centre. The hotel is close to businesses, dining, shopping and entertainment.",,-79.88912969999987,43.21556429999524
592125.127899999730289,4789762.709699999541,7,Crowne Plaza Hamilton,"150 King Street East, Hamilton, L8N 1B2",905-528-3451,,info@cphamilton.com,,http://www.crowneplaza.com,"Newly unveiled 214 guestroom luxury property in downtown Hamilton. Facilities include on-site restaurant, fitness centre, pool and adjacent newly opened state-of-the-art Lincoln Alexander Conference Centre.",,-79.86504529999986,43.25504209999531
599836.243499999866,4790803.0405,85,Lakeland Centre,"180 Van Wagner's Beach Rd. Hamilton,ON",905-544-3951,,confed@conservationhamilton.ca,,www.conservationhamilton.ca,"On the shores of Lake Ontario feature a banquet hall for 130 guests, an outdoor public pool, a 30 foot viewing tower and Lakeland Bistro with healthy menu choices. ",,-79.76987869319603,43.26342590948155
595086.542600000277162,4782692.265599999577,86,Mount Albion Conservation Area,60 Arbour Rd.,905-389-4550,,dvalley@conservationhamilton.ca,,www.conservationhamilton.ca,"One of the Hamilton Conservation Authority's two outdoor education sites, Mount Albion is a passive 41-hectare conservation area that features excellent wildlife observation opportunities.",,-79.8297871752884,43.191020157108476
592434.182400000281632,4792148.947899999097,87,Outdoor Skating Rink at Pier 8,"47 Discovery Drive, Hamilton, ON L8L 8K4",905-523-4498,,information@hamiltonwaterfront.com,,http://www.hamiltonwaterfront.com/2011/11/01/hamilton-outdoor-ice-rink/,"Summertime roller skating, or wintertime ice skating. The Pier 8 Outdoor Recreational Skating Rink is a free rink open to the public. For those of you who do not have skates, they will be offering skate and helmet rentals.",,-79.86083799999984,43.276487299995246
592166.147199999541044,4791810.584499999881,88,Pier 4 Park,"Bay Street North and Guise Street West, Hamilton, ON CA",905-546-2489,,,,www.hamilton.ca,"One of the most striking features of Pier 4 Park is the popular Bayport tugboat (c. 1945). The Bayport is oriented to provide children with a full view of the water and forms the centrepiece of a unique, interactive play area including water spray pad. A curved boardwalk with a pavilion and benches offers spectacular, panoramic views of the surrounding marinas and parkland, and a shoreline promenade allows access to the water's edge. The site is also a superb vantage point from which to enjoy water activities such as boating, windsurfing, and sailing.",,-79.86419729999986,43.273473899995246
590550.154400000348687,4791344.134899999946,89,The Kitchen Garden at Dundurn,"610 York Boulevard, Hamilton, ON, L8H 3H1",905-546-2872,,dundurn@hamilton.ca,,http://www.hamilton.ca/dundurn,"The Kitchen Garden at Dundurn National Historic Site catered to the nutritional needs and aesthetic desires of the MacNab family 150 years ago. The authentically restored 2-acre Kitchen Garden, where 1850s tools and techniques are used to grow food for Dundurn Castle's historic kitchen, is open free to the public. Staff and volunteers wear period costumes as they work in the garden and interpretive programs offer opportunities to harvest food in the garden and prepare recipes in Dundurn's historic kitchen. Enjoy informative stories and gardening knowledge conveyed by costumed garden staff during free Historic Garden Tours each Saturday and Sunday in July and August from 12:30pm to 1:30pm and from 2pm to 3pm.",,-79.8841848581687,43.26947046637548
569644.294800000265241,4803727.2211,90,Valens Conservation Area,"1691 Regional Road 97 (R.R. #6) Cambridge, ON",905-525-2183,,valens@conservationhamilton.ca,,http://www.conservationhamilton.ca/parks/visit/valens.asp,"Valens is a 300-hectare paradise for outdoor enthusiasts. Visitor's can enjoy a wide range of activities from camping in any season to fishing, hiking, swimming, wildlife observation and winter sports.",,-80.14019598127854,43.38318507677164
592434.182400000281632,4792148.947899999097,91,Waterfront Wheels,"47 Discovery Drive, Hamilton, ON L8L 8K4",905-523-4498,,,,http://www.hamiltonwaterfront.com,"Rent a bike and explore the Hamilton Waterfront. Rates range from $ 6.00 to$ 30.00 per hour. We offer Children, Youth Adult,Tandem, Adult Trike and 1 and 2 bench Surrey Bicycles. All rentals require current photo I.D and deposit.",,-79.86083799999984,43.276487299995246
583221.482599999755621,4786814.0405,38,The Barracks Inn,"425 Wilson Street, Ancaster, L9G 2C4",289-445-1234,,reservations@thebarracksinn.com,,www.thebarracksinn.com,"The Barracks Inn is conveniently located within walking distance of the Ancaster Mill, a most popular wedding venue. Also within walking distance the Ancaster Village has great shopping with many boutique stores, The Spa at Ancaster, many dining options such as Cavallo Nero’s, the Rousseau House restaurant and lounge, and many more. The Barracks Inn features 18 luxuriously appointed rooms, subtly blending unique period décor with the finest of modern guest amenities. This unique boutique inn will cater to the leisure and business traveller. Featuring conference/meeting/group facilities, Spa Packages, Golf Packages, Couple/Romance package, and Holiday/Winter Packages.",,-79.97516259999993,43.229530099995294
584760.0696,4791146.321699999273,39,The Homestead 1867,"36 Melville Street, Dundas, L9H 1Z8",289-238-8720 ,,info@thehomestead1867.ca,,www.thehomestead1867.ca,The house was built in 1867 and it was owned by one family who lived there for many generations. This bed & breakfast is an ideal place for a short break or longer stay in the Heritage District of downtown Dundas. It is just a few steps to a great variety of shops and restaurants. McMaster University in Hamilton is a short ten minutes drive away from our house. The Dundas Valley is very attractive for all kinds of outdoor activities.,,-79.95555229999991,43.268363199995306
581485.77280000038445,4778284.805099999532,40,The Shavers Bed & Breakfast,"1868 Shaver Road, Ancaster, L9G 3L1",905-648-3326,,theshaversbnb@gmail.com,,http://www.theshaversbnb.ca/,Enjoy our 650 sq.ft. self-contained private suite/private entrance/private bathroom/all amenities included. Corporate/ Weekly rates available.,,-79.99779129999996,43.15292739999528
581110.078300000168383,4784560.5119,41,Tranquility Base B & B,"110 Abbey Close, Ancaster, L9G 4K7",905-648-1506,,tranquilitybnb@cogeco.ca,,www.tranquilitybase.on.ca,"We cater to guests that come to Ancaster, Dundas and Hamilton for weddings and visiting family. We are ideally located for vacation travelers who want a unique experience.",,-80.00149089999994,43.209470699995286
568727.386699999682605,4804223.701799999923,42,Valens Conservation Area and Campground,"1691 Regional Road 97, Cambridge, N1R 5S5",905-525-2183,,valens@conservationhamilton.ca,,www.conservationhamilton.ca/,"Valens is a 300-hectare paradise for outdoor enthusiasts. Visitors can enjoy a wide range of activities from camping in any season to fishing, hiking, swimming, wildlife observation and winter sports.",,-80.15145222601608,43.387739675405896
589522.376000000163913,4790299.472599999979,43,Visitors Inn,"649 Main Street West, Hamilton, L8S 1A2",905-529-6979,,reservations@visitorsinn.com,,www.visitorsinn.com,"Whether you are on a business trip, holding a small meeting, enjoying a relaxing weekend, or attending a family function, you are assured of a warm and friendly welcome when you stay at the Visitors Inn Hotel. You will discover elegant rooms, Jacuzzi Suites, Meeting Room and VIP Restaurant. Beautiful Indoor Pool, Jacuzzi, Exercise room. Free internet, coffee-makers, fridges, mini-bars and iron/boards. Located minutes to McMaster or Downtown.",,-79.89701729999989,43.26018819999529
596079.26410000026226,4789415.6543,44,337 Sketch Gallery,"337 Ottawa St N, Hamilton, ON L8H 3Z8",905-966-2892,,337sketch@gmail.com,,http://www.facebook.com/pages/337-Sketch-Gallery/214506261926943#!/pages/337-Sketch-Gallery/214506261926943?sk=info,Open Wed - Sat:10:00 am - 5:00 pm,,-79.81640199999978,43.25142399999529
591935.43030000012368,4790325.164799999446,45,AGH Design Annex ,"118 James Street North, Hamilton, ON L8R 2K7",905-667-6620,,annex@artgalleryofhamilton.com,,http://www.artgalleryofhamilton.com/da_index.php,"The Design Annex is a creativity lab where experimental exhibitions are mounted and intimate performances staged, complemented by an exciting home and office Art + Design Store and versatile venue rental space. Located at 118 James Street North in a beautifully restored 19th century heritage building, the AGH Design Annex provides an alternate venue for AGH programming and events that is unique in Hamilton.",,-79.86728799999986,43.26012899999528
596039.241100000217557,4789197.2661,46,AllSorts Gallery,"244 Ottawa Street North, Hamilton, ON L8H 3Z7",905-393-7381,,info@allsortsgallery.com,,http://www.allsortsgallery.com,"AllSorts Gallery, located in the Ottawa Street BIA at 244 Ottawa Street North in Hamilton, Ontario, Canada provides a venue for Hamilton and area artists to display and sell their work. As a group we work to increase awareness and appreciation of the arts in the community.",,-79.8169329999998,43.24946299999526
591982.839999999850988,4790624.4885,47,Art @ 231 ,"231 James Street North, Hamilton, ON L8R 2L2",905.617.0722,,info@artat231.com,,http://www.artat231.com,"Art @ 231 is a beacon for artists to exhibit their works. It is an intimate gallery that helps set the stage in a beautiful, clean, bright open space in the heart of James Street North in Hamilton, Ontario. As active participants in the ongoing development of the art culture in the James Street North community, our objective is to assist artists to exhibit, promote, organize and sell their art.",,-79.86665399999984,43.262817999995264
591524.244199999608099,4789998.8574,48,Art Gallery of Hamilton,"123 King St. W. Hamilton,ON L8N 1A9",905-527-6610,,info@artgalleryofhamilton.com,,http://www.artgalleryofhamilton.com,"Art Gallery of Hamilton is home to a comprehensive collection of Canadian historical, contemporary art and an impressive European collection. AGH hosts an exciting schedule of varied exhibitions and programming.*2012 First Fridays: Beginning in 2012, the Gallery will be open from 11:00 am - 8:00 pm on the First Friday of each month. Free admission to GALLERY LEVEL ONE exhibitions will be from 4:00 pm - 8:00 pm.",,-79.87240736813688,43.25724132415243
591969.733900000341237,4790693.0664,49,Artword Artbar,"15 Colbourne St., Hamilton, ON L8R 2G2",905-543-8512 ,,artword@artword.net,,http://www.artword.net/artbar/,"A friendly cafe-bar, live music and art venue in the heart of James North arts district. Great acoustic music, in the roots, folk, jazz, world beat and inventive mode. We have a baby grand piano, a sound system. Licenced under the LLBO for 60, table seating for 40 or so, micro-brew on tap, espresso, light meals.",,-79.86680399999986,43.2634369999953
592004.255599999800324,4790583.681099999696,50,b contemporary,"226 James Street North, Hamilton, ON L8R 2L3",289 389 3949,,davidbrace@bcontemporary.ca,,http://www.bcontemporary.ca,"b contemporary is located in the heart of the James St North Arts District. The street is an eclectic mix of businesses with an international flavour. Markets, cafes, restaurants, and retail businesses create a vibrant street life. The Art Crawl, in the evening on the second Friday every month, is an exciting night of gallery openings, studio open houses, and performances.",,-79.86639699999985,43.26244799999528
591993.282599999569356,4790626.629499999806,51,Blue Angel Gallery,"243 James St. North, Hamilton, ON L8R 2L2",905.522.8735 (voice),,,,https://www.facebook.com/blueangelsofthegallery,"It was time for new Angels to find a home to share their joy and pizzazz to the James Street North Art District in Hamilton, Ontario. We are having so much fun that we don't want to return because Earth is a such splendid place for us to create our heavenly artwork. Please come to visit and help spread the magic!",,-79.86652499999984,43.26283599999527
591629.9413,4789508.297299999744,52,Bold Artiste,"6 Bold Street, Hamilton, ON L8P 1T2",905-902-2219,,boldartiste@gmail.com,,www.boldartiste.com,"The art studio will be selling and promoting the creations of established and emerging artists located in Hamilton and the surrounding area. The studio will offer art of various genres and media suitable for framing, sculpture, glass, wood, textiles, jewelry, handmade specialty cards and unique gifts for every occasion.",,-79.87118699999986,43.25281199999525
591936.769199999981,4790442.034,53,Centre3 for Print and Media,"173 James St. N., Hamilton, ON L8R 2K9",905-524-5084,,education@centre3.com,,http://centre3.com/,"As an artist run centre, the Centre 3 for Print and Media Arts mission is to create a professional print media environment for practicing artists and the community at large with integrative production, presentation, arts education and community programming.Visitors are welcome to experience the diverse print media on exhibit in the Gallery during scheduled hours. The Print Studio also offers a regular schedule of Education and Community Programs.",,-79.86725199999984,43.26118099999524
591017.058299999684095,4790136.8407,54,CIRCA,"112 George Street, Hamilton, ON L8P 1E2",905-921-1237,,projects.circa@gmail.com,,www.circaprojects.com,"CIRCA is iloks / swell's collaborative exploration of the ever-changing meanings and experiences of photography. Through small-scale exhibitions, events and services, CIRCA offers everyone a place to share ideas and stories about how we have been touched by photography in multiple ways. CIRCA presents theme-oriented photography exhibitions of original content dating from the 1840s to the present. Exhibitions feature historical and vernacular photography alongside photo-based period objects and performance. CIRCA also works with contemporary photographers, filmmakers and media artists to present selected works under the programme, CIRCA NOW. CIRCA NOW aims to examine and expand notions of what photo-based can mean in our current visual landscape.",,-79.87863199999987,43.25854499999528
566331.769999999552965,4790123.5,55,Donn Zver Pottery,"2290 Highway #5 W, Troy, ON L0R 2B0 ",519-647-2117,,zver@bis.on.ca,,www.donnzver.com,"Our pottery is conveniently located in the historic village of Troy, surrounded by the sights and sounds of rural Ontario. You are invited to visit our uniquely restored studio and watch skilled potters at work. Browse through the varied selection of hand crafted stoneware on display in our showroom.",,-80.18273062200049,43.26100189857291
584870.910000000149012,4790759.11,56,Dundas Valley School of Art     ,"21 Ogilvie Street Dundas, ON L9H 2S1 ",905-628-6357,,dvsa@cogeco.net,,www.dvsa.ca,"Visual art instruction for students ranging from pre-school to senior citizens. The in-house Dofasco Gallery showcases the work of local and regional artists, full part-time programs.",,-79.95424638818264,43.264864590570056
595994.105899999849498,4789084.651,57,Earl's Court Gallery,"215 Ottawa Street N., Hamilton, ON L8H 3Z4",905-527-6685,,robert.daniels@sympatico.ca,,www.earlscourtgallery.ca,"Step inside our Ottawa Street gallery and be welcomed by friendly art experts. Regular scheduled openings for featured artists offer a great time to meet the artist, enjoy excellent refreshments and learn more about the featured art. Earls Court Gallery believes that art is not just a luxury, but should be affordable and accessible. We also believe that education of art is key. Earls Court Gallery offers tours to every exhibition to school groups of all ages and to community organizations.",,-79.8175084999998,43.24845489999522
591957.4786,4790196.3944,58,El Camino Studio & Gallery ,"22 Wilson St., Hamilton, ON L8R 1C5",905-484-3796,,elcaminostudio@gmail.com,,www.elcaminostudio.wordpress.com,"The El Camino Studio Gallery strives to provide a venue to foster and facilitate the study of the human form by the artist. By maintaining a scheduled and sustained rotation of artist models, the participants can develop their craft on an ongoing basis. Opening up the studio to the public on non-sessional times as a gallery, allows the artists to showcase, exhibit and market their work. A measure of the success of the studio/gallery is in the creation of a positive and engaged community of artists and patrons.",,-79.86703789999986,43.25896699999523
592001.27280000038445,4790608.488199999556,59,Flagship Gallery,"237 James St. North, Hamilton, ON L8R 2L2",905-577-8585,,,,www.facebook.com/FlagshipGallery,"Flagship Gallery is a exhibition space and cultural hub in core of the James Street art district in Hamilton. Working from a broadly conceived Christian worldview, this collective of artists seeks to engage in questions of meaning, faith, and culture.",,-79.86642959999986,43.26267169999524
591655.338700000196695,4790213.243899999186,60,Gallery 4,"55 York Blvd., Hamilton, ON L8N 4E4",905-546-3200,,ARTS@hpl.ca,,www.hpl.ca/node/24626,"Opened as an 'alternative gallery space' to be offered free of charge to local professional and non-professional artists, the exhibition space at Central library has long been a venue for Hamilton and area artists. It is located on the 4th floor of the downtown branch and has been in continuous operation since 1984 making it the second oldest gallery in the James North district, (preceded by the Hamilton Artists Inc.)Gallery 4 at Central Library features monthly exhibitions by emerging local artists and also provides mid-career artists the opportunity to develop new ideas in a public setting.",,-79.87075689999986,43.259155499995295
591706.4035,4790883.894099999219,61,Gallery on the Bay,"231 Bay St. North, Hamilton, ON L8R 2R1",905-540-8532,,marlaise@bell.net,,www.galleryonthebay.com,"Since 1995 Gallery on the Bay offers Fine Canadian Art in a relaxing atmosphere of Tropical Plants and a Cappuccino Bar. Located in the converted headquarters of a Steel Company, featuring local and regional artists and a collection of historical work. Gallery on the Bay also hosts literary events and musical evenings",,-79.87001619999985,43.265187099995295
591927.501000000163913,4790406.508799999952,62,Hamilton Artists Inc.,"155 James Street North, Hamilton, ON L8R 2K9 ",905-529-3355,,info@theinc.ca,,http://theinc.ca/,"Hamilton Artists Inc. is an artist run centre committed to the presentation, dissemination and advocacy of Canadian contemporary visual arts practice which speaks to and enhances our regional cultural activity. The centre presents a diverse range of multidisciplinary programming with a primary focus on emerging aesthetics in contemporary art including: installation, painting, photography, graphic arts, video, performance and new media.",,-79.86737209999984,43.26086229999527
592121.134499999694526,4790715.72499999963,63,Hamilton Audio Visual Node,"26 Barton St. E, Hamilton, ON CA",,,havnode@gmail.com,,http://havnode.com/,"HAVN is a multi-modal node for the development, exhibition, documentation, and dispersal of sound, images, and ideas.",,-79.86493509999985,43.2636224999953
592256.729199999943,4789768.218599999323,64,Hoop Gallery,"191 King Street East, Hamilton, ON L8N 1B3",647-524-2498,,fionahoop@yahoo.ca,,www.hoopgalleries.com,"Hoop Gallery actively promotes a culture of diversity through analogy and connection. To that end the presentation of ideas, images, objects and events are themed and curated around a central motif. The point is to travel and explore. We intend to provide the environment and circumstances in which florid complexities can emerge and proliferate. We aim to be part of the architecture of change and innovation blossoming in the city. Hoop Gallery welcomes collectors and first time buyers with equal warmth and enthusiasm.",,-79.86342339999986,43.25507559999523
592079.810399999842048,4790826.2171,65,James North Studio,"328 James St. N, Hamilton, ON L8L 1H2",905 528-6437 ,,jamesnorthartcollective@gmail.com,,http://www.jamesnorthstudio.com/,"The James North Art Collective is made up of 13 visual artists and crafts people working in many disciplines: drawing, painting, printmaking, ceramics, jewellery, photography and sculpture. The artists have banded together to operate James North Studio Gallery to showcase their work.",,-79.86542569999985,43.264622299995246
601774.180200000293553,4785720.7631,66,Josh Tiessen Studio Gallery,"148 King Street, Stoney Creek, ON L8G 1L5",905-664-5049,,joshtiessen@bell.net,,www.joshtiessen.com,"Josh Tiessen is a young international award-winning artist from Stoney Creek, Ontario, Canada. Although I have experimented with a variety of subject matter, in my paintings I most frequently choose nature and wildlife, as I believe God created the world and I take delight in emphasizing its beauty, particularity and diversity. I especially enjoy unique angles on nature, animals and still life subjects. I am also fascinated by the weathering effects of nature and the elements on architectural structures as they age. The interaction between the natural world and manmade structures is of particular interest to me, often giving rise to metaphors which highlight truth, beauty and the longing for ultimate restoration in the world.",,-79.7469442999997,43.21741319999524
591934.373200000263751,4790431.3383,67,Julia Veenstra Studio,"167 James Street North, Hamilton, ON CA",905 906 3368,,veenstra@juliaveenstra.com,,http://juliaveenstra.com/,"Julia Veenstra is a Canadian artist who has lived in four different countries. Her work is found in collections around the world. She is an impressionistic representational, lively artist. Her work reflects her surroundings and translates how she sees the world. Julia's medium of choice is acrylic as she enjoys the immediacy and the bright colours.",,-79.86728329999984,43.26108499999526
603109.111999999731779,4787296.275699999183,68,Kelly Lowe Glass,"265 Barton Street, Stoney Creek, ON L8E 2K4",289-339-2450,,kelly@kellyloweglass.com,,www.kellyloweglass.com,"Based out of Hamilton Ontario, Kelly Lowe has risen to become one of the region's rising stars in the world of glass. If you watch award shows or if you've attended functions with custom built glass, chances are you've seen something designed or created by Kelly.",,-79.73021799999967,43.231415599995266
587805.612999999895692,4790548.9758,69,McMaster Museum of Art,"Alvin A. Lee Building, University Avenue, McMaster University 1280 Main St. W ",905-525-9140 ext. 23081,,museum@mcmaster.ca,,www.mcmaster.ca/museum,"The museum houses McMaster University's significant collection of 6,000 works of art and presents changing public programmes. Highlights include the Herman H. Levy Collection of Impressionist and Post-Impressionist art.",,-79.9181255927567,43.26263647304781
591943.659799999557436,4790377.4372,70,Mixed Media,"154 James Street North, Hamilton, ON L8R 2K7",905-529-2323,,mixedmediahamilton@gmail.com,,www.mixedmediahamilton.com,"Mixed Media is Hamilton's only independent art shop. Specializing in art and printmaking supplies, specialty paper and stationery products. Mixed Media also features locally made gift items, greeting cards, books and magazines and a pretty cool art gallery. We strive to do things differently and creatively and hope to inspire a few bystanders along the way.",,-79.86717789999987,43.26059859999532
583492.924999999813735,4791526.6092,71,Picture Perfect Cake and Art,"369 King Street West, Dundas, ON L9H 1W9",905-627-3196,,info@pictureperfectcakeart.com,,www.pictureperfectcakeart.com,"Picture Perfect is a privately owned, home-based gallery, offering custom made wedding and special occasion cakes. We also have an art gallery of watercolour and oil paintings at reasonable prices. We offer custom framing services, including needlepoint and tapestry stetching. Watercolour and oil painting classes are also available. We are located in the picturesque Dundas Valley, nestled just beneath the Niagara Escarpment.",,-79.97110639999993,43.271928499995326
595007.461500000208616,4788700.3516,72,Sealed Art,"89 Gage Avenue South, Hamilton, ON L8M 3C8",905-549-1458,,sealedart@hotmail.com,,www.sealed-art.com,"family run business operation, we have been a presence in Hamilton for more then 30 years. Renowned for their customer service and quality workmanship they offer Custom Framing, Plaque Mount and Printing at competitive prices. Sealed Art is located at Gage Main in one of Hamilton's most unique buildings. Their work can be found Hanging in Art Gallerys, Hospitals, Offices, Restaurants and Homes all through Hamilton and The Golden Horseshoe.",,-79.82972609999982,43.245120099995276
592277.598299999721348,4789733.2804,73,Studio 205,"205 King St. E, Hamilton, ON CA",(905) 522-2205,,studio205canada@gmail.com,,https://www.facebook.com/Studio205Ham,Retailer of exclusively Canadian handmade products and artwork. We offer Canadian coffee and workshop classes,,-79.86317219999985,43.25475849999525
591926.232499999925,4790321.585799999535,74,Sylvia Nickerson Illustration,"126 James St. N, Hamilton, ON L8R 2K7",905-522-5604 ,,sylvianickerson@gmail.com,,http://sylvianickerson.ca/,"Sylvia Nickerson is a local illustrator and artists. She has an art studio on James Street North and is part of the thriving Hamilton arts community. During the James Street North art crawl, you can visit Sylvia's studio and see her work.",,-79.86740189999985,43.26009789999524
584828.838000000454485,4790893.4929,75,TBA The Barber Atrium,"10 King Street West, Dundas, ON L9H 1T7",905-627-4265,,carnegie@carnegiegallery.org,,www.carnegiegallery.org,"The new TBA gallery. The light filled modern space is in the new atrium addition to the 100-year-old Carnegie Gallery. TBA's mission is- New Space, New Art.",,-79.95474399999993,43.26607919999533
590380.465300000272691,4789546.3909,76,Textures Craftworks,"236 Locke Street South, Hamilton, ON L8P 4B7",905-523-0636,,texturescraftworks@gmail.com,,http://texturescraftworksblog.blogspot.ca/,"Textures is an award-winning artisan collective located in Hamilton, ON at 236 Locke Street South. Open daily from 11 a.m. to 5 p.m. Textures has provided unique handmade one-of-a-kind items and gifts since 1983. Drop by or give us a call today.",,-79.88657049999988,43.25330579999528
591629.449,4789292.194599999115,77,The Arctic Experience McNaught Gallery,"191 James St., S., Hamilton, ON L8P 3A8",905-522-9443,,arctic.experience@gmail.com,,www.arcticexperience.com,"The gallery specializes in sculpture from Cape Dorset, Baffin Island in the new territory of Nunavut. Inuit sculpture has long been regarded as the truly uniquely Canadian art form, and Cape Dorset is home to some of the best artists working in the Canadian Arctic.",,-79.87122899999986,43.25086649999524
584825.514899999834597,4790891.203099999577,78,The Carnegie Gallery,"10 King St.W Dundas, ON L9H 1T7",905-627-4265,,carnegie@carnegiegallery.ca,,www.carnegiegallery.org,"The Carnegie is a non profit, charitable community organization. The best in local and regional fine art and craft is available in the shop and gallery. No entrance fee.",,-79.95478529276458,43.26605895913818
592006.806200000457466,4790587.7477,79,The Factory: Hamilton Media Arts Centre,"228 James St., N., Hamilton, ON L8R 2L3",905-577-9191,,info@hamiltonmediaarts.org,,http://factorymediacentre.ca/,"An artist-driven resource centre dedicated to the production and promotion of creatively diverse forms of independent films, videos, and other streaming multimedia art forms.",,-79.86636489999985,43.2624842999953
591884.69579999987,4790145.1247,80,The Focus Gallery,"66 James Street North, Hamilton, ON L8R 2K5",,,contact@thefocusgallery.ca,,www.thefocusgallery.ca,Welcome to the Focus Gallery. Located in the Jamesville Art Community on Hamilton's historic James Street North. Within this space you will find some of the best original works of art to be seen anywhere. Step inside and be surrounded by inspiring and provocative works from some of the finest Artists from the surrounding area and beyond.,,-79.86794299999985,43.258514299995305
591926.232499999925,4790321.585799999535,81,The Melanie Gillis Studio and Gallery,"126 James St. N 3rd Floor, Hamilton, ON L8R 2K7",905-297-7050,,,,www.melaniegillis.com,The Melanie Gillis Studio and Gallery is located in the heart of Hamilton's up and coming artist district of James Street North. The Studio is a warm and intimate setting tucked away on the third floor of a historic building on the East side of James.,,-79.86740189999985,43.26009789999524
592009.627999999560416,4789947.43779999949,82,The Nathaniel Hughson Art Gallery ,"27 John St North, Hamilton, ON L8R 1H1",905-923-1192 ,,info@nathanielhughsongallery.com,,www.nathanielhughsongallery.com,The Nathaniel Hughson Art Gallery on John Street North is dedicated to representing contemporary artists in their early and mid careers. Located in downtown Hamilton the gallery is a destination for visitors to the city who are looking for something unique to add to their collection,,-79.86643709999984,43.256719299995254
593218.477199999616,4789542.216,83,The Pearl Company Arts Centre,"16 Steven Street, Hamilton, ON L8L 5N3",905-524-0606,,barbaramilne@cogeco.ca,,www.thepearlcompany.ca,"The Pearl Company is an arts facility at 16 Steven Street, Hamilton. The first floor houses the Pearl Gallery. The second floor is a newly configured performance space for live music and theatre.",,-79.85161549999982,43.2529225999953
591959.323699999600649,4790435.208699999377,84,Tribal Gallery,"174 James St. N, Hamilton, ON L8R 2L1",905-385-1829,,,,,"Nomadic, tribal and ethnic jewellery and art.",,-79.86697529999987,43.26111679999528
594743.233799999579787,4790362.014699999243,98,Whitehalls Gallery ,"40 Biggar Avenue, Hamilton, ON L8L 8A3",289-208-5913,,whitehallsgallery@cogeco.net,,www.whitehallsgallery.com,Paintings and Drawings by various Canadian and International artists.,,-79.8326943999998,43.26011299999527
592078.304999999701977,4790833.0611,99,you me gallery,"330 James St. N., Hamilton, ON L8L 1H3",905-523-7754,,info@youmegallery.com,,www.youmegallery.com/,"you me gallery is Bryce Kanbara's commercial and curatorial project on James Street North in Hamilton. The gallery focuses on Hamilton artists, Japanese Canadian artists, community art projects and collaborations.",,-79.86544309999985,43.26468409999528
566265.936300000175834,4799129.839199999347,100,African Lion Safari,"R.R. #1, 1386 Cooper Rd. Cambridge,ON N1R 5S2",519-623-2620 ,,admin@lionsafari.com,,http://www.lionsafari.com/,"Go ""On Safari!"" and get CLOSER than you ever imagined to over 1,000 exotic birds and animals that roam free in large Game Reserves! See lions, giraffe, rhino, and many more animals from around the world! ""Trek"" along 9 km of safari trail in your own vehicle or aboard a guided, air-conditioned Safari Tour Bus. Enjoy a full day of family fun! Open daily from May 7 to October 10, 2016",,-80.18245577724878,43.34209804020153
588680.969200000166893,4790910.3054,101,Friends of the Aviary,"85 Oak Knoll Drive, Hamilton, ON",905-546-4842,,info@friendsoftheaviary.ca,,www.friendsoftheaviary.ca,Parrots are on display in outdoor flights for visitors to enjoy.,,-79.90728384073158,43.26578702933569
591751.39670000039041,4791745.887299999595,102,Hamilton Harbour Queen,47 Discovery Drive,905-524-3311,,info@hamiltonharbourqueen.ca,,http://www.hamiltonharbourqueen.ca/,"Join the Captain and Crew of the Hamilton Harbour Queen on one of our cruises of Hamilton Harbour; one of North America's most noteworthy harbours. The Hamilton Harbour Queen offers comfort in the enclosed dining area, while providing for spectacular views. The upper boat deck provides a retractable canopy suitable for all weather conditions allowing for perfect viewing, socializing and seating for larger groups. Our venue is the ideal setting for group outings, birthdays, anniversaries, corporate events and charters.",,-79.86931825322982,43.27294206931335
592434.182400000281632,4792148.947899999097,103,Hamilton Waterfront Attractions,"47 Discovery Drive, Hamilton, ON L8L 8K4",905-523-4498,,information@hamiltonwaterfront.com,,www.hamiltonwaterfront.com,"Hamilton's Waterfront, sometimes bustling and sometimes serene depending on the hour, is a convenient escape just blocks from downtown Hamilton. If you're the type who enjoys a good walk, bike ride or roller blading, you'll love the west harbour and waterfront gems like Bayfront and Pier 4 Parks. Great trails, great places to picnic, some great sunset views and you can even go fishing. There's a public boat launch, 138-slip marina and the Hamilton Harbour Waterfront Trail is lined with trees, looking points, beaches and picnic areas. You can also connect to the water on board the 12-passenger Hamiltonian offering small groups sightseeing tours of the Western part of the harbour including a close-up look at the HMCS Haida.",,-79.86083799999984,43.276487299995246
591142.415099999867,4793618.11199999973,104,Royal Botanical Gardens,"680 Plains Rd W Burlington,ON L7T 4H4",905-527-1158,,info@rbg.ca,,www.rbg.ca,"Take an exhilarating trip through nature's most beautiful work. Royal Botanical Gardens features five glorious gardens, a 30-kilometer trail system and four nature sanctuaries.",,-79.87651136252376,43.28987147153591
587638.43680000025779,4790517.48409999907,105,William J. McCallion Planetarium,"Department of Physics and Astronomy McMaster University 1280 Main St W Hamilton,ON L8S 4M1",905-525-9140 ext. 27777,,planetarium@physics.mcmaster.ca,,www.physics.mcmaster.ca/planetarium,"Learn about planets, stars, galaxies, and other fascinating objects in our Universe, while stargazing in the Planetarium's night sky.",,-79.92019006315854,43.262372411779545
586044.040199999697506,4802304.3682,106,Baba Link Farm,"46 Huisman Lane, Flambourough, ON CA",905-690-7070,,babalinkfarm@gmail.com,,http://www.babalinkfarm.ca/,"Baba Link Farm has 3 orchards. Each orchard is an eclectic combination of trees, shrubs, herbs and other plants. Our farming practice includes permaculture, forest gardening, and native plants. Farm visits and sales by appointment only please.",,-79.93798499999993,43.36867399999521
583005.769799999892712,4786206.50029999949,107,Ancaster Farmer's Market ,"37 Halson St., Ancaster, ON L9G 2B8",289-239-7828,,marketmanager@shopancasterfarmersmarket.com,,http://www.ancasterfarmersmarket.com,"Seasonal, mid-June to Mid-October. Runs Wednesdays 3pm-7pm behind St. John's Anglican Church in downtown Ancaster.",,-79.97790999999992,43.22408399999527
597301.018400000408292,4775150.765599999577,108,Binbrook Farmer's Market,"2600 Hwy 56, Binbrook, ON L0R 1C0",905-692-3543,,bfm@binbrookfair.org,,http://www.binbrookfair.org,"Runs from the first week of June to thanksgiving. (excluding Binbrook fair weekend- second weekend after labour day). 8am to 12 pm. Rain or shine. 905- 929-5751 or Binbrookfarmersmarket.weebly.com Follow us on Facebook, Binbrook farmers' market and Twitter Binbrook farmers.",,-79.80386499999977,43.12284299999531
584734.512500000186265,4790882.98389999941,109,Dundas Farmer's Market,"11 Millers Lane, Dundas, ON CA",905-627-5880,,info@downtowndundas.ca,,www.downtowndundas.ca/dundas-farmers-market.php,"Seasonal, open mid-June to mid-october. Runs thursdays 3pm-7pm in the municipal parking lot at the corner of Hatt St and Millers Lane.",,-79.95590769999993,43.26599519999529
591666.849000000394881,4790208.1355,110,Hamilton Farmers' Market,"55 York Boulevard, Hamilton, ON",905-546-2096,,farmersmarket@hamilton.ca,,http://www.hamilton.ca/farmersmarket,"One Hour Validated Parking at York Blvd Parkade.The Market has over 60 vendors with local and international products.Choose from quality meats, poultry, fish, eggs, deli, cheese, fresh pasta, produce, prepared foods, speciality, sauces and condiments plus artisans and flowers.The Hamilton Farmers' Market hosts a variety of free food and culture events, workshops, demonstrations and more for all ages and abilities.Visit www.hamiltonfarmersmarket.ca for details.",,-79.87061596463175,43.259108110088775
593507.760900000110269,4788258.6629,111,Hamilton Mountain Farmer's Market,"19 Viewpoint Ave, Hamilton, ON L8V 2S4",905-745-9497,,,,http://www.concessionstreet.net/,"Seasonal, open May-November. Runs Saturdays 7am-1pm behind Sacred Heart Church.",,-79.84827019999985,43.24133109999527
590338.895899999886751,4789476.9381,112,Locke Street Farmers' Market,"260 Locke Street South, Hamilton, ON L8P 4B9",289-339-8990,,lockestfarmersmarket@gmail.com,,lsfm.wordpress.com,"Locke Street Farmers' Market is your source for fresh, local, sustainably grown food straight from the farmer! Our seasonal market runs June through October on Saturdays from 9am to 1pm at the corner of Locke and Herkimer (in the Locke Street Tire Automotive parking lot). Our vendor list includes: Il Convento, Country Winds Farm, ManoRun Organic Farm, Richardson's Farm, Jerry's Berries, Harrington Lane Farms, La Primavera Farms, Foundry Ice Cream, Tawse Winery, Chanoki Cheese and Weir's Lane Lavender.",,-79.88709389999987,43.252685499995266
587630.825799999758601,4790503.1782,113,McMaster University Farmers' Market,"1280 Main St. W, Hamilton, ON L8S 4L8 ",,,farmstand@msu.admin.mcmaster.ca,,http://www.msumcmaster.ca/farmstand/main.htm,"Seasonal, open June-November. Runs Wednesday Thursday 11:30am-3:00pm.",,-79.9202860999999,43.26224449999527
596009.455500000156462,4789047.6685,114,Ottawa Street Farmers' Market,"204 Ottawa St., N., Hamilton, ON L8H 3Z5",905-297-5250,,tony@ShopOttawaStreet.com,,www.ottawastreetfarmers.com,"Outdoor market, open year-round. Runs Wednesdays and Saturdays 7am-3pm, Saturday-only in Winter months. The market operates in the municipal parking lots behind the Ottawa Street BIA office.",,-79.8173258999998,43.24811999999524
586118.2922,4784482.378,115,Bennett's Apples & Cider Ltd.,"944 Garner Rd E Ancaster,ON L9G 3K9",905-648-6878,,bennettsapplesandcider@cogeco.ca,,http://bennettsapples.com/index.html,"A family owned farm market since 1911. We have our own grown apples, sweet apple cider, in store bakery, fresh fruits vegetalbes much more all year round.",,-79.93985929821422,43.2082125650824
581499.884100000374019,4801784.7478,116,Bogle Seeds,"572 Safari Rd. Flamborough, ON L8N 2Z7",905-689-4073,,,,http://bogleseeds.ca/,"A sixth generation family farm business, offering wild bird seed mixes, sunflower seed, horse oats, chicken scratch, duck, goose, and sheep mix, cleaned whole and cracked corn, bird feeders, Nyjer and Finch mixes, safflower and peanuts. Be sure and come out to visit our country farm and experience our quiet country setting.",,-79.99414069718284,43.36450283218436
610889.109400000423193,4784860.18239999935,117,Bridgman's Farm ,"20 Bridgman Lane, Winona, ON L8E 5K9",905-643-1506,,,,,"Pick your own fresh fruit on our 200-year old family farm. Quiet, accessible location, just off highway 8, east of Fifty Rd. Sweet and sour cherries, peaches, plums, nectarines, apples, pears. Please call for farm report.",,-79.63492299999949,43.20838199999521
569033.578300000168383,4792956.6535,118,C & W Struyk Farms,"1960 4th Concession W, Troy, ON L0R 2B0",519-647-2028,,,,http://www.struykfarm.ca,Fruits and vegetables picked fresh daily at the barn or pick your own and select vegetables!,,-80.14909000000002,43.286267999995275
581630.409900000318885,4777050.2144,119,Carluke Orchards,"2194 Shaver Rd. S Ancaster,ON L9G 3L1",905-648-2775,,al@carlukeorchards.ca,,www.carlukeorchards.ca,"Carluke Orchards is a family owned farm and business featuring only the very best in local products and baking. Bring the family for a great day in the country, be it apple picking in the fall, or our Carluke Country Christmas or every day for the best of everything!",,-79.99619456986294,43.14179620086454
584241.700000000186265,4778229.21,120,Cranston Farms,"37 Carluke Rd E RR #2 Ancaster, ON L9G 3L1",905-648-0176,,info@cranstonfarm.com,,https://www.facebook.com/CranstonFarms,"Our sweet corn is picked fresh for you every morning. We grow over 19 varieties of yellow, white bi-colour (peaches cream) sweet corn throughout the season. There are usually 2-3 varieties available each day at our Sweet Corn Deli. We also offer a full line of seasonal fruits and vegetables and fresh cut gladiolus. Home of the Cranston Clydesdales, wagon rides can be booked for a summer evening or weekend. Sleigh rides in the winter.",,-79.96390943574005,43.15212495814967
586074.793800000101328,4798600.7659,121,Drummond Farms / Belevedere Orchards ,"69 5th Concession E, Waterdown, ON L0R 2H1",905-689-4724,,drummond@primus.ca,,noneavailable.com,"Features an on-farm market, hand picked and hand packed fruits and vegetables, and almost twenty varieties of apples.",,-79.93818699999991,43.33532699999523
590492.049800000153482,4800733.798599999398,139,Parkside Farm,"519 Parkside Drive East, Waterdown, ON L0R 2H1",905-689-4829,,bendikkeboom@gmail.com,,www.parksidefarms.com,"We grow: sweet corn, pumpkins. We also sell: potatoes, tomatoes, vegetables, baked goods, pies, glads, fruit - all from local farmers. Pumpkin Fest - every weekend in October, wagon tours, monster pumpkin balloon, Storybook Forest Trail and pick-your-own pumpkins. School groups welcome.",,-79.88335396207479,43.35401153113846
581241.446899999864399,4806277.307,140,Peter and Lois Laurenssen's Farm and Greenhouses,"239 10th Concession East, Freelton, ON L0R 1K0",905-659-2807,,loislaur@lara.on.ca,,,"We grow/sell: cucumbers, asparagus, sweet corn, beets, turnips, squash, beans, pumpkins, brussel sprouts, bedding plants, hangers, mixed containers and herbs. Pick-your-own eggplant, peppers, tomatoes. We also have: honey, maple syrup, candles, antiques and collectibles.",,-79.99666289999996,43.40497779999522
610999.4243,4784464.4438,141,Puddicombe Estate Farms and Winery,"1468 Highway 8 Winona, ON L8E 5K9",905-643-1015 ,,info@puddicombefarms.com,,www.puddicombefarms.com,"Mr. Mrs. Puddicombe along with their four children and staff mission is to provide families with the opportunity to visit the countryside and embrace what Mother Nature provides us among family and friends. It's the simple things in life that make all the difference and create the best ever-lasting memories. For more than 210 years Puddicombe Estate Farms Winery has harvested its own fruits to provide fresh produce and a wide variety of value added products such as hand-baked pies, jams, jellies, cookies, tarts, strudels, cider, fudge and wines. In the last few years Puddicombe Estate has adopted a field to table approach with all of its catered events serving items grown and picked for the occasion right from the farm or brought in from other local growers within a 100 mile radius of Puddicombe Estate. Puddicombe Estate believes that a farm fresh meal is a very basic yet integral part of maintaining a strong bond with families and friends. We believe this philosophy strengthens our co",,-79.63364490078182,43.2048032722557
570141.826000000350177,4786630.4207,142,Shearlea Acres Farm Market,"3826 Highway 99 Lynden,ON L0R 1T0",519-647-2415,,shearlea.acres@sympatico.ca,,,"Specializing in asparagus, sweet corn, potatoes, pickling cucumbers, cabbage and squash. Everything you need for fall decorations: ornamental corn, gourds, pumpkins, cornstalks, straw, etc. Make your own Scarecrow Days.",,-80.13623676881161,43.229206339804115
581832.714700000360608,4801856.230399999768,143,Simpler Thyme Organic Farm,"1749 Hwy 6 N, Hamilton, ON L8N 2Z7",905-659-1576,,simpler_thyme@hotmail.com,,,Dundas Farmers Market on Thursdays 3 to 7pm. Makers Market (Christ Church Cathedral) Fridays 3 to 6pm. At our farm on Thursday 7 to 7pm.,,-79.99002289999996,43.36511019999528
578634.134499999694526,4802141.9304,144,Waterhall Farm,"1413 Brock Rd, Dundas, ON L9H 5E4",905-659-0958,,lancome@sympatico.ca,,http://www.waterhallfarm.ca,"Enjoy a unique farm experience - you can purchase from our self serve farm market fresh seasonal vegetables (many heirloom varieties), herbs, cut flowers and vegetables available from May right through until Thanksgiving weekend in October. Take a leisurely stroll through our gardens; visit our shop offering fine antiques vintage collectibles, antique farm machinery museum, a petting zoo on Friday, Saturday and Sunday.",,-80.02945299999998,43.368024199995226
585203.713200000114739,4792688.6168,122,Dyment's Farm Market and Pumpkin Patch,"P.O. Box 62 R.R. #2 Dundas,ON L9H 5E2 ",905-627-5477,,bdyment@sympatico.ca,,www.dyments.com,"Welcome to Glen Drummond farm, home to the Dyment family since 1887. We hope you will find the time to visit us at one of our many events that will take place this year. Whether you have a special event to celebrate or are just looking for a wonderful day in the country we offer spectacular scenery, yummy foods and ""˜farmtastic' fun for the whole family.",,-79.94984767338943,43.282198658663894
580718.03000000026077,4776042.23389999941,123,Fenwood Farm,"774 Sawmill Road, Ancaster, ON L9G 3L1",905-765-1479,,store@fenwoodfarm.com,,www.fenwoodfarm.com,"'Certified Organic'. We raise: certified organic chicken, free-range turkey, naturally-raised drug free beef, free fun and drug free eggs. We also sell: Mapleton's organic ice cream and frozen yogurt, wild caught seafood, natural pork and farm raised venison. Visit the farm and say hello to our feathered friends, the emus!",,-80.00755919999996,43.132818699995305
596384.465200000442564,4779297.477199999616,124,Fletcher's Fruit Farm,"1040 Fletcher Rd., Binbrook, ON L0R 1C0",905-692-3012,,fletcherfruitfarm@live.ca,,http://fletcherfruitfarms.farmvisit.com/,"'Since 1866! Proud growers of over 20 varieties of high quality apples 8 varieties of high quality pears.' Open Nov - May. Monday to Thursday 8 to 5. Garm gate sales. Products also available at Ottawa Street Farmers' Market. All fruit picked to perfection for best flavour goodness. Honey Crisp - available late September. Sweet pears from Bartlett to Flemish Beauty, Clapps, Anjou, Bosc - available all winter.",,-79.81440869999979,43.16029279999528
567773.012000000104308,4798639.6311,125,Flowerhill Farm,"1950 Safari Rd. R.R #1, Cambridge, ON N1R 5S2 ""New City of Hamilton across from African Lion Safari""",519-621-3014,,flowerhill@bellnet.ca,,www.flowerhillfarm.ca,"Five unique show gardens, over 800 varieties of perennial flowers, ornamental grasses, fresh cut flowers, solar and wind-powered irrigation. May to October, Tuesdays to Saturdays, 10 am to 5 pm.",,-80.16392498818362,43.33754999747362
570179.428100000135601,4788946.2343,126,Forthdale Farms Ltd,"1715 2nd Conc. West, Lynden, ON L0R 1T0",519-647-2716,,,,,"For locally picked strawberries, pick your own berries, baked goods and more.",,-80.13547900000002,43.25005369999528
590913.221499999985,4801053.9351,127,Frootogo Orchards,"573 Parkside Drive, Waterdown, ON L0R 2H1",905-689-1652,,frootogo@cogeco.ca,,www.frootogo.ca,"The Hekman family graciously invites you and your family to come out and enjoy a day of fun. It is apple picking at its best, fresh vegetables from our Frootogo market, lots of family fun activites including Frootogos' petting zoo, and take home treats, warm from Frootogos' bakery ovens.",,-79.87810469999987,43.35684279999521
606283.835400000214577,4785593.4591,128,Fruitland Farms,"238 Jones Road, Winona, ON L0R 1L0",905-643-6802,,,,,"Fresh peaches, cherries, tomatoes and more.",,-79.69145929999961,43.2156455999952
578879.661999999545515,4793244.271199999377,129,Hanes Corn Maze ,"1001 Hwy 5, Dundas, ON L9H 5E2",905-628-5280,,,,www.hanescornmaze.com,"Featuring The Tiny Bake Shop Bakery, filled with fresh baked goods daily. Also featuring, The Hanes Corn Maze, a Human Size Puzzle, carved into over 12 acres of 10' tall walls of Cornstalks! Find all the Checkpoints and solve the Puzzle. This is an event for all ages, bring the kids for help!",,-80.02770169999997,43.28789039999533
574132.280799999833107,4788162.6149,130,Jerry's Berries Raspberry/ Lotsa Hostas,"21 Orkney Rd, Copetown, ON CA",519-647-2815,,lotsahostas.bargeman@gmail.com,,www.jerrysberries.ca,"Three acres of red raspberries, pick-your-own or pre-picked. We also have display gardens with lots of beautiful hostas.",,-80.0868962,43.24261999999529
585476.627500000409782,4805622.5885,131,Josling Farms,"512 Concession Road 8 East, Carlisle, ON L0R 1H0",905-689-4054,,josling@bell.net,,,"Pick-your-own tomoatoes, peppers, onions, potatoes, eggplant, cabbage, and cauliflower.",,-79.94446899999993,43.398612599995275
569799.43680000025779,4785236.320199999958,132,Josmar Acres Farm Market & Garden Centre,"568 Lynden Road, Lynden, ON L0R 1T0",519-647-2025,,josmaracres@bell.net,,www.josmaracres.com,"Home grown apples (30 plus varieties), strawberries, everbearing strawberries, raspberries, pears, plums, sweet corn, cucumbers, potatoes, tomatoes, gourds, pumpkins, glads, annuals, perennials more. Our more maply syrup and fresh brown eggs! Other local fruits, vegetables, apple cider and honey available. PYO strawberries raspberries! Natural fertilizers used. Retail wholesale sales.",,-80.140629,43.2166859999953
582940.810600000433624,4782277.0316,133,Lindley's Farm & Market,"900 Fiddlers Green Rd. Ancaster,ON L9G 3L1",905-648-8489,,info@lindleyfarm.com,,www.lindleyfarm.com,"Lindley's Farm Market is located in the picturesque countryside of Ancaster, Ontario. We welcome you to stop at our Farm Market and in take in the view that overlooks our trout pond and pick your own fruit fields. Come and experience our biologically diverse farm.",,-79.97929984693567,43.18871283120716
576833.111200000159442,4787344.815099999309,134,ManoRun Farms,"782 Highway 52, Copetown, ON L0R 1T0",(905) 648-9608,,manorunfarm@gmail.com,,www.manorun.com,"We only sell 'our own' organic produce through Community Supported Agricultural (CSA) and farmers markets.Pick your share up at the farm and get to choose your vegetables, spend time with the farm animals and see our farm store with some of our other farm products including, jams, pickles, beef, eggs and more! Visit our market stand locations June to October: Dundas Market on Thursdays 3 to 7pm and Westdale on Saturdays 9 to 1 and Ancaster Market on Wednesdays 3 to 7.",,-80.05374779999997,43.23498659999528
580712.17920000012964,4793729.7859,135,Morden's Organic Farm Market,"801 Collinson Rd, Dundas, ON L9H 5E2",905-627-4774,,Sandy801y@aol.com,,www.mordensorganicfarmstore.com,"Organic and wild meats, organic produce, fresh caught fish, dairy, fruits and vegetables, dry goods and more. Check out the baby animals on the farm as well!",,-80.00504549999995,43.29206739999523
576481.128899999894202,4788626.580499999225,136,Myers Apple Farm,"37 Hwy #52, Copetown,ON L0R 1J0 ",905-627-0420,,,,www.myersapples.com,"Farm Market Store. U-pick from August to October. Sweet cider, pears, plums, 14 varieties of squash, pumpkins, sunflowers, glads, fall decor, corn stalks, straw bales etc. We also sell: jams, jellies, pies, corn, peaches, broccoli, tomatoes, local honey, maple syrup and applie cider vinegar. Farm attractions: come visit our Clydesdale Horses and other friendly various farm animals.",,-80.05790431773015,43.24656273564765
578383.0926,4788486.810699999332,137,Old 99 Farm,"1580 Old Hwy 99, Copetown, ON",9054-627-1917,,iagraham@rogers.com,,www.old99farm.locallygrown.net/,"Producing pastured beef, chicken and ducks, organically grown vegetables, eggs, honey and maple syrup in season. Vegetables grown specially for the off-season, in passive solar greenhouses. This is a small farm, a permaculture demonstration site and market garden",,-80.03449899999997,43.2451089999953
575560.608300000429153,4792353.865599999204,138,Our Father's Farm,"1050 Hwy 5 West, Dundas, ON L9H 5E2",905-628-8195,,gotb17@gmail.com,,www.ourfathersfarm.com,"Welcome to Our Father's Farm. We Are a Source for Certified Organic Fresh and Sun Dried Fruit, Nutritious Apricot Seed Products, Health Information and Prayer.",,-80.0687304,43.28021409999527
591559.901899999939,4789704.252499999478,92,Whitehern Historic Garden,"41 Jackson St. W Hamilton,ON L8P 1L3 (corner of Jackson & MacNab Streets) ",905-546-2018,,whitehern@hamilton.ca,,www.hamilton.ca/whitehern,"The elegant walled garden that surrounds Whitehern Historic House Garden, National Historic Site, features several 150-year-old pear and apricot trees and beautiful perennials. It was the pride of three generations of the McQuesten family who lived there. Designed in the 1920s by the prominent husband and wife landscape firm known as Dunington-Grubb, the signature ""sunken garden"" is a hidden oasis in the heart of the city. Bring your lunch and enjoy the stunning historic garden setting and all-you-can-drink tea or lemonade while listening to live music at Wednesdays at Whitehern in July and August from 12pm to 2pm.",,-79.87201710681231,43.254584682959376
591532.5855,4790194.9341,93,FirstOntario Centre,"101 York Boulevard, Hamilton, ON, L8R 3L4",905-546-3100,,hectemp@hamilton.ca,,http://www.coreentertainment.ca/FirstOntario-Centre/,"A sporting and entertainment venue of international calibre, Copps Coliseum seats 17,500 at full capacity.  An excellent concert venue, it has welcomed headlining acts from rock'n roll greats to operatic giants.  Copps has also served as a location for a number of premier movies. Featuring both NHL and international ice surfaces, Copps is home to a NHL farm team, the Hamilton Bulldogs.",,-79.87227204056299,43.25900557712911
590719.286000000312924,4790361.444299999624,94,Lyric Theatre Hamilton ,"434 King Street West, Hamilton, ON L8E 1B7",905-527-6135,,info@lyrichamilton.com,,https://www.facebook.com/LyricTheatreHamilton,"The Lyric presents and produces live performance featuring theatre, music, variety, spoken word and dance artists. It is conscious of preserving history while being the crucible for emerging and established artists and companies. Building on Hamilton's famed vaudeville history, The Lyric gives emerging talent a platform to learn and explore, and seasoned professionals an opportunity to grow and experiment.",,-79.88226299999987,43.26060299999525
592032.711699999869,4789838.2642,95,Mills Hardware,"95 King Street East, Hamilton, ON CA",905-777-1223,,millshardwarehamilton@gmail.com,,http://millshardware.ca/,"A community-based performance space for art, theatre, dance, live music, speakers, and more. Mills Hardware has a 144 person capacity main room, complete with a stage, lighting, sound, projection, and a full service bar. The performance space can be used for art openings, book launches, live music performances, theatre, dance, readings, lectures, corporate meetings and functions, wedding receptions, yoga, and media events. You'll find that Mills Hardware is a unique space in Hamilton. It's a beautiful room with exposed brick and soaring ceilings. Acoustic treatments will leave the room with a full and rich sound.",,-79.86617099999984,43.25573359999524
589884.109400000423193,4798420.0087,96,True North Gallery/The Music Gallery,"23 Griffin Street, Waterdown, ON L0R 2H0","905 690 9397 x 230, 228",,fraser@waterdownarts.org,,http://truenorth.gallery/,"True North Gallery, also known as The Music Gallery of Fine Art, is the world's first fine art gallery dedicated to visual art by musicians, and artwork connected to the music experience.",,-79.89123359999988,43.33325379999528
591960.868499999866,4790424.2443,97,Under the Moon,"170 James St N, Hamilton, ON CA",(905) 929-0029,,utm170@hotmail.com,,http://underthemoon.ca/,"Under the Moon Fine Arts offers antique and vintage hard cover books, historical and contemporary art, and selected items for home decor including antiques.",,-79.86695809999986,43.26101789999524
600210.388199999928,4787164.02899999917,188,Eastgate Square ,"75 Centennial Parkway North, Stoney Creek, ON, L8E 2P2",905-561-2444,,,,www.eastgatesquare.ca,Shopping Centre with over 100 shops and services. Check out www.eastgatesquare.ca for more information.,,-79.76593138169547,43.230615657530215
591844.613400000147521,4790182.552799999714,189,Hamilton City Centre,"77 James St. North Hamilton,ON L8R 2K3",905-522-7808,,,,http://www.hamiltoncitycentremall.com/,"Located in the heart of the City. A complex consisting of 27 shops, services, offices and food court. A place to shop, work and eat.",,-79.8684304969583,43.258856148536026
592289.879999999888241,4789728.07,190,International Village Shopping District ,"249 King St E. Hamilton, ON 1C0",905-522-1778,,info@hamiltoninternationalvillage.ca,,www.hamiltoninternationalvillage.ca,"Come visit International Village, one of Hamilton's hot spots. Dine, shop and explore the arts - all celebrated with an 'international flair'. Main St. E, King St. E. King William St. from Mary St. to West Ave., in Downtown Hamilton. From the Eclectic to the Elegant, Captivate your Senses in International Village!",,-79.86302179614492,43.254710087467984
591146.259700000286102,4790177.582699999213,191,King Street West Shopping District ,"300 King St. W. Hamilton,ON L8P 1B1",905-529-8199,,kingwestbia@yahoo.ca,,http://www.investinhamilton.ca/downtown-bia/business-improvement-areas/king-street-west/,"King Street West welcomes you to its neighbourhood with a wide selection of restaurants boutiques. Conveniently located two blocks west of the Sheraton Hotel, Hamilton Convention Centre and FirstOntario Centre.",,-79.87703374324074,43.25889618421807
611172.697800000198185,4784632.749299999326,192,Leaning Post Winery,"1491 Hwy 8, Stoney Creek, ON L8E 5K9",905-643-9795,,wine@leaningpostwines.com,,www.leaningpostwines.com,"Welcome to Leaning Post! A leaning post is what you find at the beginning of a row of grapes, anchoring the wires that are the frame-work for growing grapevines. It is the beginning of an obsession to translate a time and place into liquid. Leaning Post wines take you to that beginning by finding small, unique plots of land in Niagara and putting them in bottle. Because after stripping away all the fancy buildings and high-tech equipment you are left with a place on this earth that grows wine unlike any other. When you taste that in a glass you just know it.",,-79.63147869999948,43.2062928999952
592480.052699999883771,4785641.873199999332,193,Lime Ridge Mall,"999 Upper Wentworth St. Hamilton, ON L9A 4X5",905-387-4455,,limguestservices@cadillacfairview.com,,www.cfshops.com/lime-ridge.html,"Lime Ridge is Hamilton's premier fashion destination, offering an exciting shopping experience with over 180 of the most recognizable brands. Lime Ridge is conveniently located on the Hamilton mountain with direct access to the Lincoln M. Alexander Parkway and HSR transit service.",,-79.8613646405092,43.21789901560683
591758.356399999931,4789995.6685,194,Lloyd D. Jackson Square ,"100 King Street West, Suite 200 Hamilton,ON L8P 1A2",905-522-3501,,,,http://jacksonsquare.ca/,"Jackson Square is home to a retail shopping complex in the core of downtown Hamilton. When your destination is Hamilton, the place to be is in the The Square",,-79.86952415175149,43.25718414949035
590405.400000000372529,4789624.26,195,Locke Street Shopping District ,"190 Locke Street South Hamilton, ON L8P 4B4 ",905-929-1048,,lockestreetshops@live.ca,,www.lockestreetshops.com,"Locke Street South is home to a host of niche businesses from florists galleries to salons, boutiques antiques. Small town atmosphere with generous hospitality.",,-79.88625060003072,43.25400386433029
580190.658499999903,4790996.4638,145,Weir's Lane Lavender & Apiary,"223 Weir's Lane, Dundas, ON L9H 5E1",905-627-9208,,weirslanelavender@gmail.com,,www.weirslanelavender.ca,"We are a lavender farm with bees. Located in West Flamborough (near Dundas). We provide tours of the lavender fields, our native plant pollinator garden, a farm store with handcrafted lavender and bee related items.",,-80.01187179999995,43.26751419999528
578847.378600000403821,4791055.41699999943,146,William Dam Seeds Ltd.,"279 Highway 8 West Flamborough,ON L9H 5E1",905-628-6641,,info@damseeds.com,,www.damseeds.com,"William Dam Seeds carries award winning seeds and many other varieties of flowers, vegetables and herbs. Hours for viewing from mid-July to October (or frost): Monday-Friday 9am-5pm, Saturday 9am-1pm. Free admission. Tours available for groups of 10 or more- please phone or e-mail to arrange.",,-80.02841321430938,43.2681867524322
584049.685999999754131,4796548.97499999963,147,Williams Bros.,"444 Concession 4 West, Flamborough, ON L0R 1V0",905-689-6314,,none@none.available,,http://www.environmenthamilton.org/eatlocal/directory/showFruit.php?searchFruit=F19,"'Anything fresher is still growing'. Pick your own strawberries June to July. Hamilton Farmer's Market year round Burlington Farmer's Market. Farm gate sales in June and July. We grow: Rhubarb, strawberries, raspberries, peas, potatoes, tomatoes, apples, pears, beans, corn, melons, cauliflower, broccoli, cabbage, pickling cucumbers.",,-79.96347869999992,43.317083699995244
569871.389999999664724,4788725.16499999911,148,Will's Christmas Store & Tree Farm,"1974 Concession 2 W R.R. # 1, Lynden, ON ",519 647-2648,,info@willschristmas.com,,http://www.willschristmas.com,This is what a Christmas store should truly be like! The decoration is unique. The building literally stocked to the rafters. The farm setting (or should it be called forest location) is fabulous! A picture perfect Christmas tree farm: - a new crop every year - carefully cultured fir Christmas trees - all the amenities/services make for a great family outing.,,-80.13930124399626,43.24809187568437
568258.5466,4800963.2595,149,Yee Haw Adventure Farm,"1817 8th Concession W., Cambridge, ON N1R 5S2",519-624-0085,,adventurefarm@aol.com,,www.yeehawadventurefarm.com,"A gem of a hillbilly haven located just outside of Cambridge in the heart of Southwestern Ontario. Open every Fall weekend from October 3rd through to October 31st, we open the barn doors to young and old, offering a genuine, down-home on the farm fun experience, with pigraces, haunted barns, farm animals, corn maze, rock climbing, pumpkin patch and a whole lot more. Don't miss the fall farm adventure.",,-80.15764660000002,43.35842699999525
600218.282700000330806,4785719.12529999949,150,Battlefield House Museum & Park ,"77 King St. W Stoney Creek ,ON L8G 5E5",905-662-8458,,battlefield@hamilton.ca,,http://www.hamilton.ca/battlefield,"NATIONAL HISTORIC SITE.Experience a guided tour of this early 19th century homestead once home to the Gage family. The Gages worked the land with their ten children and became a strong voice in the hamlet of Stoney Creek. During the War of 1812, the family retreated to their cellar as the Battle of Stoney Creek raged outside. The 100-foot-high Battlefield Monument stands as a symbol of peace and commemorates those soldiers who died on June 6, 1813. Nestled under the scenic Niagara Escarpment, this historic site encompasses 32 acres of parkland divided by Battlefield Creek.DON'T MISS the Re-enactment of the Battle of Stoney Creek the first weekend of June - declared one of Ontario's top 100 events by Festivals and Events Ontario!",,-79.76609660058573,43.21760665497053
587394.728900000452995,4779128.9909,151,Canadian Warplane Heritage Museum,"9280 Airport Rd. Hamilton,ON L0R 1W0 ",905-679-4183 ,,museum@warplane.com,,www.warplane.com,"Home to over 40 aircraft from WWII to military jets; including an operational Avro Lancaster. Vintage aircraft flying*, restaurant, gift shop, displays, guided tours and lots of plane fun! *conditions apply",,-79.92499481888285,43.15986821449835
584440.202499999664724,4791129.1377,152,Dundas Museum and Archives,"139 Park St. W Dundas, ON L9H 1X8",905-627-7412,,mail@dundasmuseum.ca,,www.dundasmuseum.ca,The people and events that have shaped the Dundas community come to life through the museum's collections and programming. Highlighted is the exhibit 'Cradled in the Valley: Stories of Dundas'.,,-79.9594958278006,43.268244407888524
590550.154400000348687,4791344.134899999946,153,Dundurn National Historic Site,"610 York Boulevard, Hamilton, ON, L8H 3H1",905-546-2872,,dundurn@hamilton.ca,,www.hamilton.ca/dundurn,"Dundurn Castle -Experience a guided tour of this 40-room Italianate-style villa built in the 1830's on Burlington Heights; the former site of a fortified military encampment established by the British in 1813. Once home to Sir Allan Napier MacNab, railway magnate, lawyer and Premier of the United Canadas (1854-1856) and his family, today Dundurn Castle tells the story of the family who lived above stairs and the servants who lived and worked below stairs to support their affluent lifestyle. Her Royal Highness The Duchess of Cornwall isthe museum's Patron and the great, great, great granddaughter of Sir Allan MacNab.The Kitchen Garden at Dundurn -William Reid was Sir Allan's gardener for over 25 years. Explore his lovingly restored kitchen garden, where we use 1850's tools and varieties to grow food for Dundurn Castle's historic kitchen. Stop by the garden gate for the sights and scents of the 19th century.The Hamilton Military Museum -The tranquil landscape around the Hamilton Military",,-79.8841848581687,43.26947046637548
603795.721599999815226,4784570.9866,154,Erland Lee Museum,"552 Ridge Road, Stoney Creek, ON, L8J 2Y6",905-662-2691,,erlandleehome@fwio.on.ca,,www.fwio.on.ca/erland,"In 1972, the Federated Women's Institutes of Ontario (FWIO) purchased the Lee family home. FWIO wanted to preserve the vintage home as a memorial to the birthplace of the Women's Institutes (WI), and feature the vanished, middle-class, rural Victorian lifestyle. It opened as the Erland Lee Museum the same year, with the exterior and the 1873 additions restored to their 1897 beauty.",,-79.72227698935671,43.206787027111304
582829.909099999815226,4786442.819099999964,155,Fieldcote Memorial Park & Museum,"64 Sulphur Springs Road, Ancaster, ON, L9G 1L8",905-648-8144,,fieldcote@hamilton.ca,,www.hamilton.ca/fieldcote,"Fieldcote is a cultural heritage centre with an emphasis on the collection, preservation and exhibition of local history, the promotion of fine arts and the celebration of natural heritage through beautiful landscaped gardens and walking trails. Adult workshops and children's activities are available upon request. The site offers rotating exhibitions featuring art and history, a summer concert series, award-winning pesticide-free gardens and a meeting place for local garden, historical and cultural groups.",,-79.98003964500134,43.22623097546704
580958.4527000002563,4787472.365299999714,156,Griffin House National Historic Site,"733 Mineral Springs Rd. Ancaster,ON L9G 1L8",905-648-8144,,griffinhouse@hamilton.ca,,www.hamilton.ca/museums,"NATIONAL HISTORIC SITE -Visit this preserved early 19th century home, set on a hilltop overlooking the beautiful Dundas Valley. Explore the history of Enerals Griffin and other early Black settlers, and enjoy a walk along nearby trails.",,-80.00293003154177,43.235703479432495
595332.661999999545515,4788528.0416,157,Hamilton Children's Museum,"1072 Main Street East, Hamilton, ON, L8M 1N6",905-546-4848,,childrensmuseum@hamilton.ca,,www.hamilton.ca/childrensmuseum,"Hamilton Children's Museum Grand Re-Opening, Dec. 5, 2015.Located in Gage Park the Hamilton Children's Museum is the perfect place to explore and enjoy family fun year-round. Discover exhibits, workshops and special programs that encourage children and adults to learn through play by engaging in hands-on activities. Round off your experience with a visit to Gage Park and the four-season Tropical House.",,-79.82575099946057,43.243527779869304
590509.3629,4791200.412799999118,158,Hamilton Military Museum,"610 York Boulevard, Hamilton, ON, L8R 3H1",905-546-2872,,military@hamilton.ca,,www.hamilton.ca/museums,"Burlington Heights where Dundurn Castle and The Hamilton Military Museum now stand was occupied by the British military from 1813 until 1815. Blood Ties to a Gentle Landscape tells the story of the people who lived on and around Burlington Heights during the War of 1812. Located on the main floor, this exhibit showcases the historical figures of this area through documentary evidence, period artifacts as well as stories passed down from one generation to the next by their descendants. On the second floor explore the exhibit Hamilton and Scourge ""“ Sunken Sunset, view a film in our theatre space, experience life as a soldier in our Discovery Gallery and celebrate your family history in our Genealogy Gallery. While on site, don't forget to visit the First World War exhibit located in the Coach House Gallery.There is something for everyone, including games for children.",,-79.8847110511854,43.26818144378723
599675.620500000193715,4790033.1433,159,Hamilton Museum of Steam & Technology,"900 Woodward Avenue, Hamilton, ON, L8H 7N2",905-546-4797,,steammuseum@hamilton.ca,,www.hamilton.ca/steammuseum,"NATIONAL HISTORIC SITE -Witness the social and mechanical life of Canada's early industrial revolution. Housed in a 150-year-old Waterworks, this National Historic Site preserves two 70-ton steam engines, perhaps the oldest surviving Canadian-built engines. The historic Hamilton Waterworks is a Civil and Power Engineering Landmark. The museum offers guided tours, various permanent and changing exhibits and features special events for the whole family, including Live Steamer Days from May through October.",,-79.77199666870226,43.25651609048297
592327.7489,4792196.506899999455,160,HMCS Haida National Historic Site ,"Pier 9, 658 Catharine St. N Hamilton,ON L8L 4V7",905-526-6742,,haida.info@pc.gc.ca,,www.pc.gc.ca/lhn-nhs/on/haida/index_E.asp,Experience life aboard a WWII Tribal Class Destroyer - Canada's most decorated warship. Walk the decks of the pride of the Royal Canadian Navy.H.M.C.S.Haida saw service in WWII and the Korean War and is the last Tribal Class destroyer in the world!Self-guided tours.,,-79.86214145693576,43.27692852132764
596024.9753,4788383.2934,161,The Hamilton Toy Museum,"1231 Main Street East, Hamilton, ON L8K 1A5",289-489-8222 ,,collecting@cogeco.ca,,www.facebook.com/hamiltontoymuseum,"The Hamilton Toy Museum was incorporated in 2010. Since then, members have worked to create a child friendly environment that puts the emphasis on play.Many hands-on activities are available for kids of all ages.All types of vintage toys, dating back well over 100 years, are on display. Toys and related artwork have been donated to the Hamilton Toy Museum from across Canada. Everyone who visits, will find toys they recognize from their childhood.",,-79.8172504999998,43.24213679999531
569298.033499999903,4796693.8308,162,Westfield Heritage Village,"1049 Regional Road 552 (Kirkwall Road) Rockton,ON L0R 1X0",519-621-8851,,westfield@speedway.ca,,www.westfieldheritage.ca,"History comes alive any Sunday and statutory holiday at Westfield. Carefully restored and staffed with costumed interpreters, the buildings capture the true charm and spirit of early Canadian culture.",,-80.14535942688397,43.3198917888567
591559.901899999939,4789704.252499999478,163,Whitehern Historic House & Garden,"41 Jackson St. W Hamilton,ON L8P 1L3 (corner of Jackson & MacNab Streets) ",905-546-2018,,whitehern@hamilton.ca,,www.hamilton.ca/whitehern,"National Historic SiteExperience one of the finest examples of an intact historic home in Canada. Three generations of the McQuesten family lived at Whitehern from 1852 until 1968. Among the last generation were six children who never married. In 1959 the three surviving members of the family bequeathed the home to the City with all its original possessions. It contains elements from many time periods ""“ Georgian, Victorian and Edwardian - dating up to 1939 when the Honourable Thomas McQuesten was Minister of Highways. Explore the heritage of Victorian ideas and possessions that influenced life at Whitehern on the eve of W.W. II.",,-79.87201710681231,43.254584682959376
591923.624200000427663,4791012.238,164,Workers Art & Heritage Centre,"51 Stuart St. Hamilton, ON L8L 1B5",905-522-3003,,,,http://www.wahc-museum.ca/,"WAHC is a community museum and arts centre that preserves, honours and promotes the history and culture of working people.The Workers Arts and Heritage Centre's mandate is focussed on preserving, honouring, and promoting the culture and history of all working people. The Centre is more than a museum. It was conceived in the late 1980's by a dynamic group of labour historians, artists, and union and community activists who gathered together to discuss the need for a place where workers' history could be celebrated. In 1996, the Workers Arts Heritage Centre opened the doors of its permanent home, the historic Custom House in Hamilton's north end originally built in 1860.",,-79.86731874602272,43.26631609950793
600218.282700000330806,4785719.12529999949,165,Battlefield Park Garden,"77 King St. W Stoney Creek ,ON L8G 5E5",905-662-8458,,battlefield@hamilton.ca,,http://www.hamilton.ca/battlefield,"The restored 1920s garden in Battlefield Park in Stoney Creek is home to stunning tiered, ornamental gardens and meandering walkways. The expansive gardens provide a peaceful place to reflect on the Battle of Stoney Creek, an event that took place on the site 200 years ago that helped shape Canada as a country. Stroll through the garden and celebrate the birthday of the woman who ensured the preservation of this National Historic Site on Sara Calder Day, a free event held annually in August.",,-79.76609660058573,43.21760665497053
591497.683699999936,4791590.945399999619,166,Bayfront Park,"200 Harbour Front Dr, Hamilton, ON L8L 1C8",905-546-2489,,none@none.available,,http://www.hamilton.ca/parks-recreation/parks-trails-and-beaches/parks-listing,"Bayfront Park boasts a number of features perfectly suited to a waterfront setting. A six metre wide asphalt pathway provides wonderful opportunities to engage in a variety of leisure activities while enjoying views of the surrounding harbour area, making it a popular spot for walkathons. Gravel and crushed stone pathways located along the lower shoreline offer visitors a quieter, more restful waterfront journey, as well as close proximity to fish and waterfowl.",,-79.87246999999986,43.271577999995266
594901.264299999923,4772591.5603,167,Binbrook Conservation Area,"On the west side of Harrison Rd. between Kirk & Hall Rds., Hamilton",905-692-3228,,binbrook@shaw.ca,,http://www.npca.ca/,"A natural landscape spanning almost 1, 000 acres including a sandy beach, swimming, fishing, canoeing, windsurfing, hiking and a wonderful new splash pad for children to enjoy. Plenty of Free Parking. ",,-79.8337970521807,43.10010691470797
579007.054999999701977,4792945.335,168,Christie Lake Conservation Area,"1000 Highway 5 West, Flamborough",905-628-3060,,christie@conservationhamilton.ca,,http://www.conservationhamilton.ca/parks/visit/christie.asp,"Enjoy swimming, canoeing, fishing from nine stocked ponds and sprawling grounds perfect for family or group picnics and sports. An ideal spot for summer and winter activities.",,-80.02617457105711,43.28518561967021
600921.880099999718368,4789254.6019,169,Confederation Park ,"585 Van Wagner's Beach Boulevard, Hamilton, ON",905-547-6141 ,,confed@conservationhamilton.ca,,www.conservationhamilton.ca/,"Welcome to Confederation Park, an 93-hectare package of fun and adventure located on the shores of Lake Ontario in Hamilton. Here you'll find some of the area's best food and fun throughout the year. Do the Works with your family and friends at any of our outdoor attractions - from go-karts, batting cages, mini golf, and Wild Waterworks, to restaurants like Hutch's and Baranga's on the Beach. There's also the Lakeland Centre, featuring a swimming pool, splash pad, volleyball basketball courts, a concession and banquet hall.",,-79.75678887694227,43.24934138092885
581687.3903,4788897.4274,170,Dundas Valley Conservation Area,"650 Governors Road, Dundas, ON",905-627-1233,,dvalley@conservationhamilton.ca,,www.conservationhamilton.ca,"The Dundas Valley, a favourite destination of nature enthusiasts, featuring a 40-kilometre trail system for hikers, bikers and equestrians and two heritage sites: The Hermitage Ruin and Griffin House.  ",,-79.99374275995564,43.24845517246883
596581.0789,4782578.016799999401,171,Eramosa Karst Conservation Area,"Highland Road and Mount Albion Road, Hamilton, ON CA",905-525-2181,,nature@conservationhamilton.ca,,www.conservationhamilton.ca,"The Eramosa Karst contains examples of 16 different karst features. This karst type and the seven provincially significant features - including caves, dry valleys, soil pipes, solution shafts, sinking streams and overflow sinks. These features are not found anywhere else in Ontario within protected areas.",,-79.81141799999979,43.18980199999529
582829.909099999815226,4786442.819099999964,172,Fieldcote Memorial Park,"64 Sulphur Springs Road, Ancaster, ON, L9G 1L8",905-648-8144,,fieldcote@hamilton.ca,,www.hamilton.ca/fieldcote,"Fieldcote Memorial Park is a beautiful natural setting complete with seven acres of woodland and award-winning naturalized perennial gardens. Enjoy strolling along the woodland trail, and admire the many species of Carolinian plants and flowers. Enjoy memorable outdoor performances by talented musicians at Music at Fieldcote every Sunday evening in July and August from 7pm to 9pm.",,-79.98003964500134,43.22623097546704
611558.889999999664724,4786167.33,173,Fifty Point Conservation Area,"1479 Baseline Road, Winona, ON",905-525-2187,,fiftypt@conservationhamilton.ca,,http://www.conservationhamilton.ca/,"Fifty Point offers a beautiful natural setting and superb marina facilities on Lake Ontario. Enjoy the warm sandy beach, dining at the Landing, camping and group or family picnics. ",,-79.62641600077202,43.22005048411691
595097.229500000365078,4788372.7783,174,Gage Park Tropical Greenhouse ,"Gage Park, Hamilton, ON CA",905-546-2424 X 7598 ,,,,http://www.hamilton.ca/attractions/culture/gage-park-tropical-greenhouse,"A walk through the Tropical Greenhouse takes the visitor through a diverse world of verdant plants, trailing vines and colourful bulbs. The greenhouse is part of the Horticultural facility in beautiful Gage Park off Gage Avenue and Lawrence Road.Location: Enter the Gage Park parking lot off Lawrence Road, just east of Gage Avenue South. Take the pathway at the north side of the parking lot to the Horticulture Depot.Wheelchair Accessible Free ParkingPLEASE NOTE: The Greenhouse will be closing on June 30, 2016 for renovations.",,-79.8286770999998,43.24215969999531
592434.182400000281632,4792148.947899999097,175,Hamilton Waterfront Trail,"47 Discovery Drive, Hamilton, ON L8L 8K4",905-525-4498,,information@hamiltonwaterfront.com,,www.hamiltonwaterfront.com,"The Hamilton Waterfront Trail Extension and the Hamilton Beach Trail are projects of the Hamilton Waterfront Trust. An expanded trail system provides residents and tourists with easy access to significant natural areas, including Cootes Paradise and the Red Hill Valley, as well as landmark attractions such as Dundurn Castle and the Royal Botanical Gardens.",,-79.86083799999984,43.276487299995246
592434.182400000281632,4792148.947899999097,176,Hamiltonian Sightseeing Tour Boat,"47 Discovery Drive, Hamilton, ON L8L 8K4",905 523 4498,,information@hamiltonwaterfront.com,,www.hamiltonwaterfront.com,The 12 passenger tour boat offers a leisurely narrated 60 minute tour of the Hamilton harbour with the captain providing interesting stories and history of one of North America's most noteworthy harbours.,,-79.86083799999984,43.276487299995246
592304.565999999642372,4791828.6842,177,Harbour West Marina,"1 Guise Street, Hamilton, ON L8L 8B4",905-525-3622,,info@harbourwest.ca,,www.harbourwest.ca,"Harbour West Marina offers everything you need for a pleasurable boating experience. ""“ Full service fuel dock ""“ Wifi ""“ BBQ pavilion ""“ Washrooms Laundry ""“ Bike rentals nearby Summer slips available, or just come spend the weekend with us! Make Harbour West your home base to explore everything Hamilton Has to offer!",,-79.86248879999984,43.273619899995225
593065.279199999757111,4788237.6323,178,The Zoetic Theatre & Creative Arts Company,"526 Concession Street, Hamilton, ON L8V 1A6",905-902-5683,,,,www.thezoetic.ca,"The Zoetic Theatre Creative Arts Company is a group of creative professionals who love the worlds of film, theatre, dance, music, and media. We are passionate about creating and performing within these disciplines and constantly pursuing endeavours that we can be proud to share with the public. Inside these walls at 526 Concession is creative space. This includes an historic theatre around which other professional creative disciplines are buzzing - from film and television production to dance and the performing arts.",,-79.85372269999984,43.2411964999953
592386.546299999579787,4789785.2771,179,"Theatre Aquarius, Dofasco Centre for the Arts","190 King William St Hamilton, ON L8R 1A8",905-522-7529,,aquarius@theatreaquarius.org,,www.theatreaquarius.org,"Enjoy world-class productions at Hamilton's professional theatre, September to May. Featuring traditional and contemporary dramas, warm comedies, sparkling musicals, classic children's shows in a state of the art facility.",,-79.86182153993062,43.2552132757932
582913.076999999582767,4786187.819199999794,180,Ancaster Heritage Village BIA,"223 Wilson St E, Ancaster, ON L9G 2B8",289-239-7828,,executivedirector@shopancastervillage.com,,http://www.ancasterheritagevillage.com,"For dining, shopping and much more, the Ancaster Heritage Village offers one of a kind shops and services in a beautiful environment.",,-79.97905399999995,43.223925999995274
593490.25,4790297.17,181,Barton Village Shopping District ,"406 Barton St. E Hamilton,ON L8L 2Y3",905-540-9472,,info@bartonvillage.ca,,http://www.bartonvillage.ca,"This corridor features award-winning Portuguese restaurants, along with new businesses, galleries and restaurants, all with an international flavour. Experience the historical Barton Village Shopping District. It's yours to re-discover.",,-79.84813999814968,43.259685690408126
596576.162999999709427,4789449.228199999779,182,Centre Mall,"1227 Barton Street East Hamilton, ON L8N 2V4",905-547-1629,,,,http://www.centremall.ca/home/index.ch2,"A landmark in Hamilton for over 50 years, Centre Mall has over 90 stores and services for all your everyday needs. Located at Barton and Kenilworth. ",,-79.81027612139793,43.25166276381998
593076.094600000418723,4791525.6731,183,Collective Arts Brewery,"207 Burlington Street East, Hamilton , ON L8L 4H2",(289) 426-2374,,info@collectiveartsbrewing.com,,http://collectiveartsbrewing.com/home/,"Collective Arts Brewing is a grassroots craft brewer based in Ontario that aims to fuse the creativity of craft beer with the inspired talents of emerging artists, musicians and filmmakers. Matt Johnston and Bob Russell founded Collective Arts Brewing on two beliefs: The first that creativity fosters creativity. And the second, that creativity yields delicious pints. Each of our beers is a work of art. On the inside, we proudly brew some of the most well-crafted beers with the help of our brewmaster, Ryan Morrow.",,-79.85303399999982,43.27079699999527
593841.610000000335276,4788001.23,184,Concession Street Shopping District ,"576 Concession St. Hamilton,ON L8V 1B1",289-933-8899,,info@concessionstreet.net,,www.concessionstreet.net,"Concession Street Where Neighbours Meet. Enjoy the view from Sam Lawrence Park, then continue east along Concession Street to experience the friendly atmosphere of Hamilton mountain's original business district.",,-79.8442028344354,43.23897199417445
584657.58,4790935.25,185,Downtown Dundas Shopping District,"8 Cameron Ave. Dundas, ON L9H 1P5",905-628-3217,,info@downtowndundas.ca,,www.downtowndundas.ca,"Downtown Dundas: Experience the Charm of a historic town with unique architecture, quaint shops and friendly businesses, and the Flair of sophisticated merchandise and quality service.",,-79.95684746681573,43.26647440837852
591857.004999999888241,4789792.6556,186,Downtown Hamilton Shopping District,"20 Hughson St. S Suite 807 Hamilton,ON L8N 2A1 ",905-523-1646,,info@downtownhamilton.org,,www.downtownhamilton.org,"The Downtown Hamilton Shopping District comprises 430 businesses and 187 property owners located from MacNab St. on the west, Hunter St. to the South, Mary St. to the east and York Blvd to the North. It works to develop successful private and public partnerships to promote Downtown Hamilton as a safe, attractive place to work, live, shop, play and learn and a welcoming, prosperous, diverse and accessible community and THE DESTINATION for essential, creative and energetic businesses.",,-79.86834287009184,43.255344423273435
585165.645299999975,4795368.6279,187,Dutch Mill Country Market,"533 Millgrove Side Road, Waterdown, ON, L0R 2H2",905-689-7253,,dutchmill@sympatico.ca,,www.thedutchmill.ca,"Dutch Mill Country Market is a unique and inviting experience. The Tea Room is relaxing and welcoming, come in and treat yourself to a hearty breakfast served weekends and holidays or a delicious lunch served daily. Visit the Garden Centre or browse the store for unique gifts and special treasures. We all know kids just wanna have fun so bring them out and visit the rabbits, goats, chickens, lambs and lamas, play in the park on a wooden train and so much more.",,-79.9499016657155,43.30633140283495
590550.154400000348687,4791344.134899999946,203,The Castle Shop,"610 York Boulevard, Hamilton, ON, L8H 3H1","905-546-2872, ext. 2525",,giftshop@hamilton.ca,,,"The Coach House at Dundurn Housed in an 1870's Coach House, this unique, meeting and reception facility can accommodate groups up to 88 people. The Coach House is also home to The Castle Shop, featuring a variety of Canadian handmade crafts, souvenirs and special gifts.",,-79.8841848581687,43.26947046637548
589533.929999999701977,4798168.46,204,Waterdown Shopping District ,"PO Box 198 Waterdown,ON L0R 2H0 ",905-690-7134,,wilfred.arndt@sympatico.ca,,www.waterdownbia.ca,"Discover Waterdown, a quaint, picturesque village with a wide range of shopping - from antiques and hobby stores to clothiers, tearooms, fine dining, and cafes. Free parking throughout the town.",,-79.89559349435324,43.33103092519154
588828.795,4790494.185,205,Westdale Village Shopping District ,"1045 King St. W Hamilton,ON L8S 1L6",905-526-6134,,info@westdalevillage.ca,,www.westdalevillage.ca,"The Westdale merchants have searched the world to find merchandise that is unique but affordable, for the shopper with the discerning eye for value and customer service. Our restaurants have something for all tastes and budgets. Westdale Village is a hidden treasure box to unlock.",,-79.90552979769265,43.26202327322948
600727.028099999763072,4789546.5317,206,Adventure Village,"580 Van Wagners Beach Rd. Hamilton,ON L8E 3L8",905-549-9444,,info@adventure-village.com,,http://www.adventurevillage.ca,"Featuring an elaborate 18 hole miniature golf, 9 batting cages, bumper cars that spin 360, rock climbing, gemstone mining, arcade and licensed cookhouse. Perfect for birthday parties and group outings.",,-79.75913525726064,43.25199556008409
593251.1222,4788214.80159999989,207,Alcatraz Escape Rooms,"576 Concession Street, Hamilton, ON L8V 1B1",289-775-4091,,info@alcatrazescaperooms.com,,http://www.alcatrazescaperooms.com,"Alcatraz Escape Rooms opens its doors on April 1, 2016 in Hamilton, Ontario. Owned and operated by 3 local puzzle enthusiasts, Alcatraz offers a feel of excitement and mystery from the moment you step into the lobby until the moment you leave. The buzz is real and people are talking about the unique experience offered at our Escape Room facility. .....but don't take our word for it, come in and see for yourself!",,-79.85143799999985,43.24096799999527
594365.92920000012964,4782826.0535,208,Amazing Adventures,"240 Nebo Road, Unit 5, Hamilton, ON L8W 2E1",905-574-7529,,aap-hamilton@hotmail.com,,http://amazingadventuresplayland.ca,"Our facility boasts over 4,500 sq ft of play space and spacious party rooms. Our state-of-the-art amusements include play structures with wavy slides, tunnels, bendy squeeze and twisty slides Designated toddler only areas allow the younger children to play while learning valuable development skills. Our meticulously clean environment allows parents and caregivers to relax while meeting the strictest guidelines in absolute safety. Our premises are monitored by video surveillance at all times for your child's safety. Call us today to find out more information about our facility!",,-79.83863099999981,43.19231499999529
588894.7933,4780440.510299999267,209,Cameron Speedway and Amusements,"2633 Upper James St. Mount Hope, ON L0R 1W0",905-679-2122 Ext. 1,,info@cameronspeedway.com,,www.cameronspeedway.com,2 km of go-kart racing for the whole family. 4 paintball fields that consist of scenario and speedball. 2400sq ft Inflatable Laser Tag arena for all ages. Snack bar.,,-79.90633578262069,43.171501229438604
579147.753700000233948,4794587.629399999976,210,Flamboro Downs,"967 Highway 5 West, Hamilton (Flamborough), ON",905-627-3561,,info@flamborodowns.com,,www.flamborodowns.com,"Welcome to Flamboro Downs ""“ regarded as one of the finest standardbred racing facilities and a great place to work! Were you aware that Flamboro Downs is home to the world record for three-year-old pacers on a half-mile track? Harness this exhilaration. Harness this excitement. Experience electronic table game devices and over 800 slot machines operated by the OLG, the atmosphere of on-site dining, bar and conferencing. There is something for everyone! In addition to offering a multi-faceted entertainment, food beverage and gaming destination on 220 acres in rural Hamilton, our ultimate goal is to provide a memorable, exciting entertainment experience to our guests and rewarding opportunities for our associates. Since its founding in 1975, Flamboro Down's management has been committed to promoting positive employee relations and service excellence 24/7.",,-80.02420420121388,43.2999569455353
579175.694199999794364,4797731.0405,211,Flamboro Speedway,"929 Brock Road, Flamborough, ON L9H 5E3 ",905-659-3042,,gpaxton@execulink.com,,http://flamborospeedway.ca/,"Flamboro Speedway was established in 1961 and has provided a full summer schedule of high-speed, high-excitement grassroots stock car racing action every year since, making it one of Canada's longest running stock car tracks.",,-80.02340665596809,43.32825503143976
591538.261099999770522,4790209.7101,212,Hamilton Bulldogs Hockey Club,"101 York Boulevard, Hamilton, ON, L8R 3L4",905-529-8500,,info@hamiltonbulldogs.com,,www.hamiltonbulldogs.com,The Hamilton Bulldogs Hockey Club is our OHL hometown boys offering great family entertainment,,-79.87219967246773,43.25913791529013
595721.994300000369549,4784999.141599999741,213,Hamilton Cardinals Baseball Club - IBL,Bernie Arbour Stadium,905-929-1413 ,,iblcardinals@bell.net,,www.iblcardinals.com,"Out of beautiful Bernie Arbor Stadium, we are the 2nd oldest sports franchise in Hamilton. We offer good baseball, good food and an inexpensive family outing.",,-79.8215686999998,43.21170839999529
595457.695000000298023,4789720.46399999969,214,Hamilton Indoor Go Karts,"193 Cavell Avenue, Hamilton, ON L8L 8C9",905-545-0055,,,,http://www.hamiltonindoorgokarts.ca/,We offer the fastest go-karts in Ontario...if you have a need for speed we have the karts for you!!! Come out to the great race track in Hamilton!,,-79.82400469999979,43.254247099995276
592484.159099999815226,4789810.3462,215,Hamilton Tiger-Cats,"1 Jarvis St, Hamilton, ON L8R 3J2",(905) 547-2287,,info@ticats.ca,,www.ticats.ca,"The Hamilton Tiger-Cats are a Canadian Football League team based in Hamilton, Ontario founded in 1950 with the merger of the Hamilton Tigers and the Hamilton Flying Wildcats. The Tiger-Cats play their home games at Tim Hortons Field.",,-79.86061499999983,43.255426999995294
599836.243499999866,4790803.0405,216,Lakeland Go-Karts,"180 Van Wagner's Beach Rd. Hamilton,ON",905-544-3951,,,,http://www.lakelandkartway.ca/,"If you like to drive, you'll love navigating all the twists and turns of this half-kilometer asphalt course on the shores of Lake Ontario. Two-seater carts are the perfect way for adults and children to share the experience. Single-driver carts offer loads of fun and exciting thrills for any soloist.",,-79.76987869319603,43.26342590948155
578956.448900000192225,4794600.863299999386,217,OLG Slots at Flamboro Downs,"967 Highway 5 West Hamilton, ON L9H 5G1 ",905-628-4275,,mmcsporran@olg.ca,,www.olg.ca,"Perched high atop the Niagara Escarpment, just minutes from downtown Hamilton, OLG Slots at Flamboro Downs is sure to get your pulse racing! The mystique of Arabian Nights casts an air of enchantment over the facility, where there are over 800 slot machines. Complimentary shuttle service from several locations in Hamilton and Cambridge. Please contact the Winner's Circle Rewards desk at 905-628-4275 ext. 4857 for complete details. Hours of operation are 24 hours a day, 7 days a week.",,-80.026560521617,43.30009619006587
592290.001500000245869,4791893.86989999935,218,Royal Hamilton Yacht Club,555 Bay Street North,905-528-8464,,sail@rhyc.ca,,www.rhyc.ca,We are a private club with a beautiful view of the Burlington Bay. We offer intimate meeting spaces and a large dining room with a full-service bar and kitchen. We have flexible menu options and competitive pricing,,-79.86265732043093,43.274208544425804
590819.086500000208616,4786693.5523,219,The Crux,"847 Upper James St, Hamilton, ON CA",(905) 385-2789,,info@thecrux.ca,,http://thecrux.ca/,"The Crux Escape Room Inc. is proud to present The Crux Escape Rooms and Gaming Lounge, located on the Hamilton Mountain. Our location was carefully scouted for ease of access and other nearby amenities to fit nicely into any type of evening. The Crux is also proud to offer a team-building program for businesses that can include a number of our rooms, food, a team building seminar, and employer feedback.Loosely based on escape the room video games like The Castle of Dr. Brain, The 7th Guest, Maniac Mansion and many others. A player is locked in a room and must explore their surroundings to escape. Each of our games has a distinct theme, and puzzles that follow a narrative throughout the room.",,-79.88163789999987,43.227568999995306
594891.282499999739,4789576.55159999989,220,Tim Horton's Field,"64 Melrose Ave. North, Hamilton Ontario L8L 8C1",905-546-2424 ext. 2406,,timhortonsfield@hamilton.ca,,https://www.hamilton.ca/timhortonsfield,"Tim Hortons Field is the home of the Hamilton Tiger-Cats. The state-of-the-art field seats 22,500 people and hosts concerts, major sporting events and meeting rooms for coporate events and social functions.",,-79.83100599999982,43.25302299999527
601881.775899999774992,4788736.822599999607,221,Wild Waterworks,"585 Van Wagner's Beach Rd Hamilton,ON","905-547-6141, ext. 5007",,wildww@conservationhamilton.ca,,www.wild-waterworks.com,"Catch all the fun Wild Waterworks has to offer from the first Saturday in June to Labour Day. Featuring tube slides, body slides, wave pool, Eazy River and children's area.",,-79.7450628309545,43.24455094889454
595883.355499999597669,4783723.776499999687,222,Albion Falls,"Albion Falls, Hamilton, ON",,,,,http://www.waterfalls.hamilton.ca/,"Albion Falls is a Complex Classic Cascade waterfall 19 metres in height. Located at the southernmost tip of King’s Forest Park in Hamilton, its source is Red Hill Creek. Albion Falls enjoys year-round flow.",,-79.8198039999998,43.20020599999526
586235.830699999816716,4794000.925899999216,223,Borers Falls,"Borers Falls, Hamilton ON",,,,,http://www.waterfalls.hamilton.ca/,"Borer’s Falls is a 15 metre high curtain style waterfall whose source is nearby Borer’s Creek. It is located at the Borer’s Falls Conservation Area in Dundas, and has a year-round flow.",,-79.93692299999991,43.293895999995314
601086.528900000266731,4784954.9184,224,Devil's Punchbowl,"Devil's Punchbowl, Hamilton, ON",,,,,http://www.waterfalls.hamilton.ca/,"Devil’s Punchbowl is a ribbon waterfall 37 metres (121 feet) in height and a crest width of 3 metres (10 feet). Located at the Devil’s Punchbowl Conservation Area in Stoney Creek, the area actually contains two separate falls: the Upper Falls is the classical shape, while the Lower is the ribbon type. Known at one time as Horseshoe Falls, it is the third highest waterfall in Hamilton.",,-79.75554899999973,43.21061099999523
598204.02350000012666,4784032.259899999946,225,Felker's Falls,"Felker's Falls, Hamilton, ON",,,,,http://www.waterfalls.hamilton.ca/,"Felker’s Falls is located on a branch of the Red Hill Creek called Davis Creek. Its height is 22 metres (72 feet) and its crest width is 6 metres (20 feet). It is considered a Terraced Ribbon Falls, and experiences year-round flow. Its GPS coordinates are 17T 0598299 4784147.",,-79.79119099999976,43.2026849999953
582898.014600000344217,4792491.908099999651,226,Tew's Falls,"Tews Falls, Hamilton, ON",,,,,http://www.waterfalls.hamilton.ca/,"Tews Falls is a ribbon waterfall 41 metres in height, making it the tallest in Hamilton. Located at the Spencer Gorge / Webster’s Falls Conservation Area in Greensville, its source is Logie’s Creek.",,-79.97829099999993,43.28068499999529
584552.082600000314415,4787932.400599999353,227,Tiffany Falls,"Tiffany Falls, Hamilton, ON",,,,,http://www.waterfalls.hamilton.ca/,Tiffany Falls is a 21 metre high cascade waterfall whose source is nearby Tiffany Creek. It is located at the Tiffany Falls Conservation Area in Ancaster.,,-79.95860799999993,43.23945099999532
590235.118900000117719,4790246.473,196,Main West Esplanade Shopping District ,"Main Street West, between Dundurn and Hess, in the western portion of Hamilton’s Downtown core",905-522-7936,,alaw@pracommercial.com,,www.investinhamilton.ca/,"Experience the spas, the hair salons, sensational dining, upscale fashions, all on the Main West Esplanade between Dundurn and Hess on Main W.",,-79.88824607160784,43.25962604268005
599706.382399999536574,4776668.536399999633,197,Murphy's Country Produce,"2040 Guyatt Rd. Binbrook,ON L0R 1C0",905-692-5733,,murphysproduce@rogers.com,,www.murphyscountryproduce.com,"Come enjoy yourself at Murphy's Country Produce. Pre-picked or pick your own strawberries, raspberries, peas, tomatoes, peppers, fava beans, romano beans and pumpkins. Pre-picked sweet corn and gladiolas.",,-79.77402915691066,43.13619432560266
595982.25,4788984.21,198,Ottawa Street Shopping District ,"242 Ottawa St. North Hamilton, ON L8H 3Z7",905-544-5822,,info@ShopOttawaStreet.com,,www.shopottawastreet.com,"Ottawa Street is Hamilton's destination for inspiration and reflects the eclectic spirit of our City. With over 100 shops, featuring great food, fantastic fashion and fabulous finds Ottawa Street will inspire even the most novice Do-It-Yourself enthusiast.There are endless creative combinations of antiques, fabric, furniture, food, art and collectibles as well as many home services and great restaurants. Be one of the dÃ©cor enthusiasts that visit regularly to discover our charms.",,-79.81767200734846,43.24755216155058
600847.218899999745,4784936.3813,199,Punch Bowl Country Market,"136 Ridge Road, Stoney Creek, ON",905-662-1665,,info@punchbowl.ca,,http://www.punchbowl.ca/,"Located on the picturesque Niagara Escarpment in upper Stoney Cree, the Punch Bowl Country Market offers a wide selection of local produce and fresh-baked entrees and desserts - especially famous home-made pies. Located by Devil¿s Punch Bowl Conservation Area.",,-79.75849779128248,43.21047612316493
608758.052000000141561,4783319.723699999973,200,Ridge Road Estate Winery,"1205 Ridge Road, Vinemount, ON L8J 2X5",289-649-0353,,wine@ridgeroadwinery.ca,,www.ridgeroadwinery.ca,"This family run winery is perched on the rocky edge of the Niagara Escarpment's upper bench. Remarkable views of Lake Ontario, the Toronto Skyline and the nature that surrounds it make Ridge Road Estate Winery a perfect spot to start a memorable journey. All of the wines are hand crafted in small batches using only hand picked and sorted grapes.",,-79.66145309999955,43.1948242999952
584616.057500000111759,4790824.79199999943,201,Shawn and Ed Brewing Company,"65 Hatt Street, Dundas, ON L9H 7T6",905-562-8994,,info@lagershed.com,,www.lagershed.com,"Beer For Adventurous Mouths The beers brewed here are for people who embrace the idea that adventure is good, that it builds character, makes dreams come true, and brings life to its fullest. The focus has always and will always be on quality not quantity. In all of our brews we use four natural ingredients: water, malted barley, hops, and yeast. We aim to create sessionable and flavourful lagers; and unique Pinot Noir barrel aged ales.",,-79.95737599999991,43.26548459999525
601154.22,4785591.67,202,Stoney Creek Business Improvement Area,"21 Mountain Ave. S., Stoney Creek, ON L8G 2V5",905-664-4000,,info@stoneycreekbia.com,,www.stoneycreekbia.com,"The Stoney Creek Shopping District is located in the heart of Stoney Creek's downtown core. The boundaries are King Street East from Lake Avenue to Applewood.It's old time hospitality without compromising today's finer things.Visit the merchants and service providers of beautiful historical Olde Stoney Creek.It's a place where everyone knows your name, going one step further to help you.It's that old time charm that we long for . . .. . . so beautiful, you won't want to leave!",,-79.75459920451134,43.21633436733178
